{"type":"FeatureCollection","features":[{"type":"Feature","properties":{},"geometry":{"type":"Polygon","coordinates":[[[-95.1165,43.70445],[-95.1165,43.70028],[-95.12067,43.70028],[-95.12067,43.69612],[-95.12484,43.69612],[-95.12484,43.69195],[-95.15401,43.69195],[-95.15401,43.67528],[-95.14984,43.67528],[-95.14984,43.66695],[-95.16234,43.66695],[-95.16234,43.65861],[-95.17068,43.65861],[-95.17068,43.65445],[-95.17484,43.65445],[-95.17484,43.65028],[-95.18734,43.65028],[-95.18734,43.64611],[-95.19151,43.64611],[-95.19151,43.64194],[-95.19568,43.64194],[-95.19568,43.63361],[-95.19984,43.63361],[-95.19984,43.62528],[-95.21234,43.62528],[-95.21234,43.62944],[-95.22901,43.62944],[-95.22901,43.62528],[-95.23735,43.62528],[-95.23735,43.62111],[-95.26235,43.62111],[-95.26235,43.62944],[-95.27068,43.62944],[-95.27068,43.63361],[-95.27902,43.63361],[-95.27902,43.64194],[-95.28318,43.64194],[-95.28318,43.64611],[-95.31235,43.64611],[-95.31235,43.65028],[-95.31652,43.65028],[-95.31652,43.65445],[-95.32485,43.65445],[-95.32485,43.65028],[-95.36236,43.65028],[-95.36236,43.65445],[-95.36652,43.65445],[-95.36652,43.66278],[-95.37069,43.66278],[-95.37069,43.65861],[-95.38319,43.65861],[-95.38319,43.65445],[-95.40403,43.65445],[-95.40403,43.65861],[-95.40819,43.65861],[-95.40819,43.66278],[-95.41236,43.66278],[-95.41236,43.66695],[-95.4332,43.66695],[-95.4332,43.67111],[-95.43736,43.67111],[-95.43736,43.65861],[-95.44153,43.65861],[-95.44153,43.63361],[-95.43736,43.63361],[-95.43736,43.62944],[-95.44986,43.62944],[-95.44986,43.63361],[-95.45403,43.63361],[-95.45403,43.63778],[-95.46653,43.63778],[-95.46653,43.62944],[-95.4832,43.62944],[-95.4832,43.63361],[-95.48737,43.63361],[-95.48737,43.62944],[-95.49153,43.62944],[-95.49153,43.62528],[-95.4957,43.62528],[-95.4957,43.62111],[-95.49987,43.62111],[-95.49987,43.61694],[-95.5082,43.61694],[-95.5082,43.61278],[-95.51237,43.61278],[-95.51237,43.60861],[-95.5207,43.60861],[-95.5207,43.61278],[-95.52487,43.61278],[-95.52487,43.60861],[-95.52904,43.60861],[-95.52904,43.60444],[-95.5332,43.60444],[-95.5332,43.60861],[-95.54154,43.60861],[-95.54154,43.61694],[-95.5457,43.61694],[-95.5457,43.62111],[-95.54987,43.62111],[-95.54987,43.62528],[-95.56237,43.62528],[-95.56237,43.62111],[-95.55821,43.62111],[-95.55821,43.61694],[-95.55404,43.61694],[-95.55404,43.60861],[-95.56654,43.60861],[-95.56654,43.60444],[-95.57071,43.60444],[-95.57071,43.60027],[-95.57904,43.60027],[-95.57904,43.60444],[-95.61238,43.60444],[-95.61238,43.60861],[-95.61654,43.60861],[-95.61654,43.60444],[-95.62071,43.60444],[-95.62071,43.60861],[-95.62488,43.60861],[-95.62488,43.60444],[-95.64988,43.60444],[-95.64988,43.60027],[-95.66238,43.60027],[-95.66238,43.60444],[-95.67488,43.60444],[-95.67488,43.59611],[-95.67072,43.59611],[-95.67072,43.59194],[-95.66655,43.59194],[-95.66655,43.58777],[-95.66238,43.58777],[-95.66238,43.58361],[-95.65821,43.58361],[-95.65821,43.57944],[-95.66238,43.57944],[-95.66238,43.57111],[-95.67488,43.57111],[-95.67488,43.56694],[-95.67905,43.56694],[-95.67905,43.56277],[-95.68322,43.56277],[-95.68322,43.5586],[-95.67905,43.5586],[-95.67905,43.55444],[-95.67488,43.55444],[-95.67488,43.54194],[-95.67072,43.54194],[-95.67072,43.53777],[-95.65821,43.53777],[-95.65821,43.5336],[-95.65405,43.5336],[-95.65405,43.52944],[-95.64988,43.52944],[-95.64988,43.52527],[-95.64571,43.52527],[-95.64571,43.5211],[-95.64155,43.5211],[-95.64155,43.51693],[-95.63321,43.51693],[-95.63321,43.5211],[-95.62904,43.5211],[-95.62904,43.52944],[-95.61654,43.52944],[-95.61654,43.54194],[-95.62071,43.54194],[-95.62071,43.5586],[-95.61238,43.5586],[-95.61238,43.55027],[-95.60404,43.55027],[-95.60404,43.55444],[-95.58737,43.55444],[-95.58737,43.5461],[-95.58321,43.5461],[-95.58321,43.54194],[-95.56654,43.54194],[-95.56654,43.53777],[-95.56237,43.53777],[-95.56237,43.52527],[-95.57071,43.52527],[-95.57071,43.51693],[-95.57487,43.51693],[-95.57487,43.51277],[-95.57904,43.51277],[-95.57904,43.5086],[-95.59154,43.5086],[-95.59154,43.50443],[-95.58737,43.50443],[-95.58737,43.50027],[-95.57904,43.50027],[-95.57904,43.50443],[-95.57071,43.50443],[-95.57071,43.50027],[-95.56654,43.50027],[-95.56654,43.4961],[-95.56237,43.4961],[-95.56237,43.49193],[-95.54154,43.49193],[-95.54154,43.48777],[-95.53737,43.48777],[-95.53737,43.4836],[-95.52904,43.4836],[-95.52904,43.47943],[-95.51654,43.47943],[-95.51654,43.47526],[-95.51237,43.47526],[-95.51237,43.47943],[-95.5082,43.47943],[-95.5082,43.47526],[-95.50404,43.47526],[-95.50404,43.4711],[-95.49987,43.4711],[-95.49987,43.47526],[-95.4957,43.47526],[-95.4957,43.47943],[-95.49153,43.47943],[-95.49153,43.4836],[-95.4707,43.4836],[-95.4707,43.47943],[-95.46236,43.47943],[-95.46236,43.47526],[-95.44986,43.47526],[-95.44986,43.4711],[-95.43736,43.4711],[-95.43736,43.46693],[-95.4332,43.46693],[-95.4332,43.46276],[-95.42903,43.46276],[-95.42903,43.4586],[-95.42486,43.4586],[-95.42486,43.45443],[-95.42069,43.45443],[-95.42069,43.45026],[-95.42486,43.45026],[-95.42486,43.4461],[-95.42903,43.4461],[-95.42903,43.43359],[-95.4332,43.43359],[-95.4332,43.42109],[-95.41653,43.42109],[-95.41653,43.41693],[-95.41236,43.41693],[-95.41236,43.41276],[-95.39986,43.41276],[-95.39986,43.40859],[-95.39153,43.40859],[-95.39153,43.41276],[-95.38736,43.41276],[-95.38736,43.40859],[-95.37902,43.40859],[-95.37902,43.40443],[-95.36652,43.40443],[-95.36652,43.40859],[-95.35402,43.40859],[-95.35402,43.40443],[-95.34152,43.40443],[-95.34152,43.39609],[-95.33736,43.39609],[-95.33736,43.39192],[-95.34152,43.39192],[-95.34152,43.38359],[-95.33736,43.38359],[-95.33736,43.37526],[-95.34152,43.37526],[-95.34152,43.35859],[-95.33736,43.35859],[-95.33736,43.35442],[-95.33319,43.35442],[-95.33319,43.35025],[-95.31652,43.35025],[-95.31652,43.34609],[-95.29152,43.34609],[-95.29152,43.34192],[-95.28735,43.34192],[-95.28735,43.33775],[-95.28318,43.33775],[-95.28318,43.32942],[-95.27485,43.32942],[-95.27485,43.33359],[-95.27068,43.33359],[-95.27068,43.32942],[-95.25401,43.32942],[-95.25401,43.31692],[-95.25818,43.31692],[-95.25818,43.31275],[-95.25401,43.31275],[-95.25401,43.30858],[-95.25818,43.30858],[-95.25818,43.30442],[-95.26235,43.30442],[-95.26235,43.30025],[-95.27068,43.30025],[-95.27068,43.29608],[-95.27485,43.29608],[-95.27485,43.29192],[-95.27902,43.29192],[-95.27902,43.27525],[-95.28318,43.27525],[-95.28318,43.27108],[-95.28735,43.27108],[-95.28735,43.26691],[-95.29152,43.26691],[-95.29152,43.26275],[-95.29985,43.26275],[-95.29985,43.25858],[-95.29568,43.25858],[-95.29568,43.25441],[-95.29152,43.25441],[-95.29152,43.25025],[-95.28735,43.25025],[-95.28735,43.24608],[-95.27485,43.24608],[-95.27485,43.23775],[-95.27068,43.23775],[-95.27068,43.23358],[-95.26652,43.23358],[-95.26652,43.22524],[-95.26235,43.22524],[-95.26235,43.22108],[-95.25818,43.22108],[-95.25818,43.21691],[-95.25401,43.21691],[-95.25401,43.21274],[-95.24568,43.21274],[-95.24568,43.21691],[-95.24151,43.21691],[-95.24151,43.21274],[-95.23735,43.21274],[-95.23735,43.21691],[-95.23318,43.21691],[-95.23318,43.22108],[-95.22901,43.22108],[-95.22901,43.22524],[-95.23318,43.22524],[-95.23318,43.22941],[-95.22901,43.22941],[-95.22901,43.23358],[-95.22485,43.23358],[-95.22485,43.23775],[-95.22068,43.23775],[-95.22068,43.24191],[-95.21651,43.24191],[-95.21651,43.24608],[-95.20401,43.24608],[-95.20401,43.24191],[-95.19151,43.24191],[-95.19151,43.23775],[-95.18734,43.23775],[-95.18734,43.24191],[-95.17484,43.24191],[-95.17484,43.24608],[-95.17068,43.24608],[-95.17068,43.24191],[-95.16651,43.24191],[-95.16651,43.24608],[-95.15401,43.24608],[-95.15401,43.25025],[-95.14567,43.25025],[-95.14567,43.25441],[-95.13734,43.25441],[-95.13734,43.25858],[-95.129,43.25858],[-95.129,43.25441],[-95.12484,43.25441],[-95.12484,43.25025],[-95.12067,43.25025],[-95.12067,43.25441],[-95.1165,43.25441],[-95.1165,43.26275],[-95.11234,43.26275],[-95.11234,43.26691],[-95.10817,43.26691],[-95.10817,43.27108],[-95.09567,43.27108],[-95.09567,43.27525],[-95.0915,43.27525],[-95.0915,43.27942],[-95.079,43.27942],[-95.079,43.29192],[-95.07483,43.29192],[-95.07483,43.29608],[-95.079,43.29608],[-95.079,43.30442],[-95.08317,43.30442],[-95.08317,43.32942],[-95.0915,43.32942],[-95.0915,43.32525],[-95.09567,43.32525],[-95.09567,43.32109],[-95.09984,43.32109],[-95.09984,43.32525],[-95.104,43.32525],[-95.104,43.32942],[-95.10817,43.32942],[-95.10817,43.32525],[-95.12067,43.32525],[-95.12067,43.32942],[-95.129,43.32942],[-95.129,43.33775],[-95.14984,43.33775],[-95.14984,43.33359],[-95.16651,43.33359],[-95.16651,43.33775],[-95.17068,43.33775],[-95.17068,43.33359],[-95.18318,43.33359],[-95.18318,43.33775],[-95.18734,43.33775],[-95.18734,43.34192],[-95.19151,43.34192],[-95.19151,43.34609],[-95.19568,43.34609],[-95.19568,43.35025],[-95.19984,43.35025],[-95.19984,43.35442],[-95.20401,43.35442],[-95.20401,43.36692],[-95.19984,43.36692],[-95.19984,43.37942],[-95.19568,43.37942],[-95.19568,43.39609],[-95.21234,43.39609],[-95.21234,43.41276],[-95.21651,43.41276],[-95.21651,43.41693],[-95.22068,43.41693],[-95.22068,43.42109],[-95.22485,43.42109],[-95.22485,43.42526],[-95.21651,43.42526],[-95.21651,43.42943],[-95.20818,43.42943],[-95.20818,43.43359],[-95.20401,43.43359],[-95.20401,43.44193],[-95.19151,43.44193],[-95.19151,43.45026],[-95.18318,43.45026],[-95.18318,43.4586],[-95.17901,43.4586],[-95.17901,43.46276],[-95.18318,43.46276],[-95.18318,43.46693],[-95.18734,43.46693],[-95.18734,43.47526],[-95.18318,43.47526],[-95.18318,43.4836],[-95.17484,43.4836],[-95.17484,43.48777],[-95.17068,43.48777],[-95.17068,43.49193],[-95.17484,43.49193],[-95.17484,43.50443],[-95.17901,43.50443],[-95.17901,43.5086],[-95.17484,43.5086],[-95.17484,43.51277],[-95.16651,43.51277],[-95.16651,43.51693],[-95.15401,43.51693],[-95.15401,43.5211],[-95.14984,43.5211],[-95.14984,43.52944],[-95.15401,43.52944],[-95.15401,43.53777],[-95.16234,43.53777],[-95.16234,43.54194],[-95.15817,43.54194],[-95.15817,43.55027],[-95.14984,43.55027],[-95.14984,43.55444],[-95.15401,43.55444],[-95.15401,43.5586],[-95.14984,43.5586],[-95.14984,43.56277],[-95.14567,43.56277],[-95.14567,43.57111],[-95.14984,43.57111],[-95.14984,43.58361],[-95.15401,43.58361],[-95.15401,43.58777],[-95.14984,43.58777],[-95.14984,43.59611],[-95.16651,43.59611],[-95.16651,43.61694],[-95.15401,43.61694],[-95.15401,43.62111],[-95.14151,43.62111],[-95.14151,43.62944],[-95.13734,43.62944],[-95.13734,43.63778],[-95.13317,43.63778],[-95.13317,43.64611],[-95.13734,43.64611],[-95.13734,43.65028],[-95.12484,43.65028],[-95.12484,43.65861],[-95.10817,43.65861],[-95.10817,43.66278],[-95.104,43.66278],[-95.104,43.67111],[-95.09984,43.67111],[-95.09984,43.67528],[-95.104,43.67528],[-95.104,43.68361],[-95.10817,43.68361],[-95.10817,43.70445],[-95.1165,43.70445]]]}}]}