{"type":"FeatureCollection","features":[{"type":"Feature","properties":{},"geometry":{"type":"Polygon","coordinates":[[[-94.15405,41.59259],[-94.15468,41.5962],[-94.15932,41.59732],[-94.16085,41.59989],[-94.16525,41.60211],[-94.16674,41.61086],[-94.16497,41.62074],[-94.16852,41.62348],[-94.16663,41.62772],[-94.16169,41.62884],[-94.16103,41.63124],[-94.15853,41.63106],[-94.15941,41.63256],[-94.15605,41.63283],[-94.14898,41.63741],[-94.1458,41.63633],[-94.14436,41.633],[-94.13535,41.62947],[-94.135,41.62508],[-94.13085,41.62076],[-94.13009,41.61563],[-94.1309,41.6113],[-94.1334,41.60912],[-94.13403,41.60124],[-94.1327,41.60027],[-94.13709,41.59872],[-94.1374,41.59376],[-94.14413,41.59293],[-94.14495,41.59],[-94.15037,41.59007],[-94.15405,41.59259]]]}}]}