{"type":"FeatureCollection","features":[{"type":"Feature","properties":{},"geometry":{"type":"Polygon","coordinates":[[[-94.95399,42.2335],[-94.95399,42.22933],[-94.95816,42.22933],[-94.95816,42.22516],[-94.96232,42.22516],[-94.96232,42.221],[-94.96649,42.221],[-94.96649,42.21266],[-94.97066,42.21266],[-94.97066,42.2085],[-94.96649,42.2085],[-94.96649,42.18766],[-94.97066,42.18766],[-94.97066,42.18349],[-94.96649,42.18349],[-94.96649,42.17516],[-94.97066,42.17516],[-94.97066,42.17933],[-94.97483,42.17933],[-94.97483,42.18349],[-94.98733,42.18349],[-94.98733,42.18766],[-95.02066,42.18766],[-95.02066,42.19183],[-95.03733,42.19183],[-95.03733,42.196],[-95.04566,42.196],[-95.04566,42.18766],[-95.04983,42.18766],[-95.04983,42.17099],[-95.054,42.17099],[-95.054,42.16683],[-95.05817,42.16683],[-95.05817,42.16266],[-95.06233,42.16266],[-95.06233,42.15016],[-95.04566,42.15016],[-95.04566,42.13766],[-95.03733,42.13766],[-95.03733,42.12516],[-95.03316,42.12516],[-95.03316,42.12099],[-95.03733,42.12099],[-95.03733,42.11682],[-95.0415,42.11682],[-95.0415,42.11266],[-95.04566,42.11266],[-95.04566,42.09182],[-95.0415,42.09182],[-95.0415,42.08765],[-95.03316,42.08765],[-95.03316,42.07515],[-95.03733,42.07515],[-95.03733,42.07099],[-95.0415,42.07099],[-95.0415,42.06682],[-95.054,42.06682],[-95.054,42.05848],[-95.05817,42.05848],[-95.05817,42.05015],[-95.054,42.05015],[-95.054,42.04598],[-95.0415,42.04598],[-95.0415,42.03765],[-95.03733,42.03765],[-95.03733,42.04182],[-95.03316,42.04182],[-95.03316,42.03765],[-95.029,42.03765],[-95.029,42.02932],[-95.02483,42.02932],[-95.02483,42.02098],[-95.02066,42.02098],[-95.02066,42.01681],[-95.0165,42.01681],[-95.0165,42.00848],[-95.01233,42.00848],[-95.01233,42.00431],[-95.00816,42.00431],[-95.00816,41.99598],[-94.99983,41.99598],[-94.99983,41.99181],[-94.98733,41.99181],[-94.98733,41.97098],[-94.98316,41.97098],[-94.98316,41.96264],[-94.97899,41.96264],[-94.97899,41.95848],[-94.97066,41.95848],[-94.97066,41.95431],[-94.96649,41.95431],[-94.96649,41.94598],[-94.96232,41.94598],[-94.96232,41.93347],[-94.95816,41.93347],[-94.95816,41.92931],[-94.94566,41.92931],[-94.94566,41.92097],[-94.93732,41.92097],[-94.93732,41.91681],[-94.92899,41.91681],[-94.92899,41.91264],[-94.92065,41.91264],[-94.92065,41.92097],[-94.91232,41.92097],[-94.91232,41.91681],[-94.90399,41.91681],[-94.90399,41.91264],[-94.89982,41.91264],[-94.89982,41.90431],[-94.88732,41.90431],[-94.88732,41.90014],[-94.87482,41.90014],[-94.87482,41.89597],[-94.86648,41.89597],[-94.86648,41.8918],[-94.86232,41.8918],[-94.86232,41.88764],[-94.85815,41.88764],[-94.85815,41.8793],[-94.84565,41.8793],[-94.84565,41.87514],[-94.83731,41.87514],[-94.83731,41.86264],[-94.84148,41.86264],[-94.84148,41.85013],[-94.83731,41.85013],[-94.83731,41.83347],[-94.82065,41.83347],[-94.82065,41.82513],[-94.80815,41.82513],[-94.80815,41.82097],[-94.80398,41.82097],[-94.80398,41.80846],[-94.79981,41.80846],[-94.79981,41.8043],[-94.79148,41.8043],[-94.79148,41.80013],[-94.78731,41.80013],[-94.78731,41.7918],[-94.77898,41.7918],[-94.77898,41.78763],[-94.77481,41.78763],[-94.77481,41.7793],[-94.77898,41.7793],[-94.77898,41.77513],[-94.75814,41.77513],[-94.75814,41.77096],[-94.75397,41.77096],[-94.75397,41.76263],[-94.74981,41.76263],[-94.74981,41.74596],[-94.74147,41.74596],[-94.74147,41.73763],[-94.73731,41.73763],[-94.73731,41.72929],[-94.73314,41.72929],[-94.73314,41.72512],[-94.72897,41.72512],[-94.72897,41.72096],[-94.72481,41.72096],[-94.72481,41.71262],[-94.72064,41.71262],[-94.72064,41.70429],[-94.71647,41.70429],[-94.71647,41.69596],[-94.70814,41.69596],[-94.70814,41.68762],[-94.6998,41.68762],[-94.6998,41.67929],[-94.69564,41.67929],[-94.69564,41.67512],[-94.6873,41.67512],[-94.6873,41.65429],[-94.68314,41.65429],[-94.68314,41.65012],[-94.67897,41.65012],[-94.67897,41.64595],[-94.6748,41.64595],[-94.6748,41.64178],[-94.65813,41.64178],[-94.65813,41.62512],[-94.6498,41.62512],[-94.6498,41.61678],[-94.63313,41.61678],[-94.63313,41.60845],[-94.62896,41.60845],[-94.62896,41.60428],[-94.60813,41.60428],[-94.60813,41.60011],[-94.60396,41.60011],[-94.60396,41.59595],[-94.59146,41.59595],[-94.59146,41.60011],[-94.58313,41.60011],[-94.58313,41.59595],[-94.57063,41.59595],[-94.57063,41.58761],[-94.55813,41.58761],[-94.55813,41.58345],[-94.55396,41.58345],[-94.55396,41.57511],[-94.54146,41.57511],[-94.54146,41.56678],[-94.53312,41.56678],[-94.53312,41.56261],[-94.52896,41.56261],[-94.52896,41.55428],[-94.52479,41.55428],[-94.52479,41.55011],[-94.51646,41.55011],[-94.51646,41.54178],[-94.51229,41.54178],[-94.51229,41.53761],[-94.50395,41.53761],[-94.50395,41.53344],[-94.49145,41.53344],[-94.49145,41.52928],[-94.48729,41.52928],[-94.48729,41.53344],[-94.48312,41.53344],[-94.48312,41.52511],[-94.47479,41.52511],[-94.47479,41.51677],[-94.46228,41.51677],[-94.46228,41.53344],[-94.45395,41.53344],[-94.45395,41.52928],[-94.44145,41.52928],[-94.44145,41.52511],[-94.43728,41.52511],[-94.43728,41.52094],[-94.43312,41.52094],[-94.43312,41.52511],[-94.42895,41.52511],[-94.42895,41.52928],[-94.42478,41.52928],[-94.42478,41.53344],[-94.41645,41.53344],[-94.41645,41.52928],[-94.41228,41.52928],[-94.41228,41.52511],[-94.39978,41.52511],[-94.39978,41.52094],[-94.39145,41.52094],[-94.39145,41.52511],[-94.37061,41.52511],[-94.37061,41.52094],[-94.36644,41.52094],[-94.36644,41.51677],[-94.36228,41.51677],[-94.36228,41.51261],[-94.33727,41.51261],[-94.33727,41.50427],[-94.33311,41.50427],[-94.33311,41.50011],[-94.32477,41.50011],[-94.32477,41.49594],[-94.31227,41.49594],[-94.31227,41.48344],[-94.2956,41.48344],[-94.2956,41.48761],[-94.2831,41.48761],[-94.2831,41.49594],[-94.27894,41.49594],[-94.27894,41.50427],[-94.27477,41.50427],[-94.27477,41.50844],[-94.2706,41.50844],[-94.2706,41.51677],[-94.2581,41.51677],[-94.2581,41.52094],[-94.24977,41.52094],[-94.24977,41.52511],[-94.2456,41.52511],[-94.2456,41.52928],[-94.24143,41.52928],[-94.24143,41.53344],[-94.23727,41.53344],[-94.23727,41.54178],[-94.2331,41.54178],[-94.2331,41.54594],[-94.22893,41.54594],[-94.22893,41.55011],[-94.21643,41.55011],[-94.21643,41.55428],[-94.2081,41.55428],[-94.2081,41.54594],[-94.19976,41.54594],[-94.19976,41.55011],[-94.18726,41.55011],[-94.18726,41.54594],[-94.17476,41.54594],[-94.17476,41.55428],[-94.16226,41.55428],[-94.16226,41.55844],[-94.15393,41.55844],[-94.15393,41.56678],[-94.14976,41.56678],[-94.14976,41.57095],[-94.13726,41.57095],[-94.13726,41.57928],[-94.13309,41.57928],[-94.13309,41.58761],[-94.13726,41.58761],[-94.13726,41.59595],[-94.14143,41.59595],[-94.14143,41.60011],[-94.13726,41.60011],[-94.13726,41.61262],[-94.14143,41.61262],[-94.14143,41.61678],[-94.13726,41.61678],[-94.13726,41.62095],[-94.14143,41.62095],[-94.14143,41.62512],[-94.14559,41.62512],[-94.14559,41.62928],[-94.15393,41.62928],[-94.15393,41.63345],[-94.16226,41.63345],[-94.16226,41.63762],[-94.16643,41.63762],[-94.16643,41.63345],[-94.1831,41.63345],[-94.1831,41.63762],[-94.18726,41.63762],[-94.18726,41.65012],[-94.19143,41.65012],[-94.19143,41.65845],[-94.1956,41.65845],[-94.1956,41.66262],[-94.19143,41.66262],[-94.19143,41.67929],[-94.1956,41.67929],[-94.1956,41.68345],[-94.21227,41.68345],[-94.21227,41.68762],[-94.2206,41.68762],[-94.2206,41.68345],[-94.2331,41.68345],[-94.2331,41.70846],[-94.22893,41.70846],[-94.22893,41.71679],[-94.2206,41.71679],[-94.2206,41.72096],[-94.21643,41.72096],[-94.21643,41.73346],[-94.2206,41.73346],[-94.2206,41.74596],[-94.21643,41.74596],[-94.21643,41.75013],[-94.2206,41.75013],[-94.2206,41.75429],[-94.21643,41.75429],[-94.21643,41.76263],[-94.2206,41.76263],[-94.2206,41.76679],[-94.22477,41.76679],[-94.22477,41.77513],[-94.2331,41.77513],[-94.2331,41.7793],[-94.2581,41.7793],[-94.2581,41.78346],[-94.26227,41.78346],[-94.26227,41.78763],[-94.26644,41.78763],[-94.26644,41.7918],[-94.2706,41.7918],[-94.2706,41.79596],[-94.27477,41.79596],[-94.27477,41.8043],[-94.27894,41.8043],[-94.27894,41.80846],[-94.29144,41.80846],[-94.29144,41.81263],[-94.2956,41.81263],[-94.2956,41.82097],[-94.29977,41.82097],[-94.29977,41.82513],[-94.30394,41.82513],[-94.30394,41.8293],[-94.30811,41.8293],[-94.30811,41.82513],[-94.32061,41.82513],[-94.32061,41.82097],[-94.32894,41.82097],[-94.32894,41.82513],[-94.34561,41.82513],[-94.34561,41.8293],[-94.34978,41.8293],[-94.34978,41.83347],[-94.35394,41.83347],[-94.35394,41.83763],[-94.35811,41.83763],[-94.35811,41.8418],[-94.36228,41.8418],[-94.36228,41.84597],[-94.36644,41.84597],[-94.36644,41.8418],[-94.37061,41.8418],[-94.37061,41.84597],[-94.37895,41.84597],[-94.37895,41.8543],[-94.38311,41.8543],[-94.38311,41.86264],[-94.38728,41.86264],[-94.38728,41.8668],[-94.38311,41.8668],[-94.38311,41.87097],[-94.38728,41.87097],[-94.38728,41.87514],[-94.39561,41.87514],[-94.39561,41.8793],[-94.40811,41.8793],[-94.40811,41.88347],[-94.41228,41.88347],[-94.41228,41.88764],[-94.41645,41.88764],[-94.41645,41.91681],[-94.42478,41.91681],[-94.42478,41.93347],[-94.42895,41.93347],[-94.42895,41.94598],[-94.42478,41.94598],[-94.42478,41.95848],[-94.42895,41.95848],[-94.42895,41.96264],[-94.43728,41.96264],[-94.43728,41.96681],[-94.44145,41.96681],[-94.44145,41.96264],[-94.46228,41.96264],[-94.46228,41.96681],[-94.47062,41.96681],[-94.47062,41.97514],[-94.48312,41.97514],[-94.48312,41.97931],[-94.48729,41.97931],[-94.48729,41.98348],[-94.49145,41.98348],[-94.49145,41.98765],[-94.48729,41.98765],[-94.48729,41.99598],[-94.49562,41.99598],[-94.49562,42.00015],[-94.49979,42.00015],[-94.49979,42.00431],[-94.52479,42.00431],[-94.52479,42.00848],[-94.53312,42.00848],[-94.53312,42.01265],[-94.54563,42.01265],[-94.54563,42.00431],[-94.54979,42.00431],[-94.54979,41.99598],[-94.54563,41.99598],[-94.54563,41.99181],[-94.54979,41.99181],[-94.54979,41.97931],[-94.55396,41.97931],[-94.55396,41.98765],[-94.56229,41.98765],[-94.56229,41.99181],[-94.56646,41.99181],[-94.56646,42.00431],[-94.57063,42.00431],[-94.57063,42.00848],[-94.57479,42.00848],[-94.57479,42.01265],[-94.57896,42.01265],[-94.57896,42.02932],[-94.58313,42.02932],[-94.58313,42.03348],[-94.58729,42.03348],[-94.58729,42.03765],[-94.59563,42.03765],[-94.59563,42.04182],[-94.60813,42.04182],[-94.60813,42.03765],[-94.6123,42.03765],[-94.6123,42.03348],[-94.61646,42.03348],[-94.61646,42.02932],[-94.62063,42.02932],[-94.62063,42.02515],[-94.6248,42.02515],[-94.6248,42.02098],[-94.62896,42.02098],[-94.62896,42.01681],[-94.6373,42.01681],[-94.6373,42.01265],[-94.64147,42.01265],[-94.64147,42.00848],[-94.64563,42.00848],[-94.64563,42.01681],[-94.65397,42.01681],[-94.65397,42.02515],[-94.65813,42.02515],[-94.65813,42.03348],[-94.6623,42.03348],[-94.6623,42.03765],[-94.66647,42.03765],[-94.66647,42.04598],[-94.67063,42.04598],[-94.67063,42.05015],[-94.67897,42.05015],[-94.67897,42.05432],[-94.68314,42.05432],[-94.68314,42.04598],[-94.6873,42.04598],[-94.6873,42.05015],[-94.69564,42.05015],[-94.69564,42.05432],[-94.6998,42.05432],[-94.6998,42.05848],[-94.70397,42.05848],[-94.70397,42.06265],[-94.70814,42.06265],[-94.70814,42.06682],[-94.71231,42.06682],[-94.71231,42.07099],[-94.71647,42.07099],[-94.71647,42.07515],[-94.72064,42.07515],[-94.72064,42.07099],[-94.72481,42.07099],[-94.72481,42.07515],[-94.72897,42.07515],[-94.72897,42.07932],[-94.73314,42.07932],[-94.73314,42.07515],[-94.74147,42.07515],[-94.74147,42.08349],[-94.73731,42.08349],[-94.73731,42.08765],[-94.73314,42.08765],[-94.73314,42.09182],[-94.72064,42.09182],[-94.72064,42.10015],[-94.72897,42.10015],[-94.72897,42.10849],[-94.73731,42.10849],[-94.73731,42.11682],[-94.74981,42.11682],[-94.74981,42.12099],[-94.75814,42.12099],[-94.75814,42.11682],[-94.76648,42.11682],[-94.76648,42.12099],[-94.77898,42.12099],[-94.77898,42.11682],[-94.78314,42.11682],[-94.78314,42.12099],[-94.78731,42.12099],[-94.78731,42.12516],[-94.78314,42.12516],[-94.78314,42.12932],[-94.78731,42.12932],[-94.78731,42.13766],[-94.79148,42.13766],[-94.79148,42.14182],[-94.79981,42.14182],[-94.79981,42.14599],[-94.80815,42.14599],[-94.80815,42.15433],[-94.81648,42.15433],[-94.81648,42.15849],[-94.82065,42.15849],[-94.82065,42.16266],[-94.82481,42.16266],[-94.82481,42.16683],[-94.82898,42.16683],[-94.82898,42.16266],[-94.84565,42.16266],[-94.84565,42.16683],[-94.85398,42.16683],[-94.85398,42.17099],[-94.86648,42.17099],[-94.86648,42.17516],[-94.87482,42.17516],[-94.87482,42.17933],[-94.88315,42.17933],[-94.88315,42.18349],[-94.88732,42.18349],[-94.88732,42.18766],[-94.89149,42.18766],[-94.89149,42.19183],[-94.90399,42.19183],[-94.90399,42.196],[-94.90815,42.196],[-94.90815,42.20016],[-94.91232,42.20016],[-94.91232,42.20433],[-94.91649,42.20433],[-94.91649,42.2085],[-94.92065,42.2085],[-94.92065,42.21683],[-94.92482,42.21683],[-94.92482,42.221],[-94.93316,42.221],[-94.93316,42.22516],[-94.94149,42.22516],[-94.94149,42.22933],[-94.94982,42.22933],[-94.94982,42.2335],[-94.95399,42.2335]]]}}]}