{"type":"FeatureCollection","features":[{"type":"Feature","properties":{},"geometry":{"type":"Polygon","coordinates":[[[-94.89149,42.93355],[-94.89149,42.92939],[-94.89982,42.92939],[-94.89982,42.92522],[-94.90815,42.92522],[-94.90815,42.92939],[-94.91649,42.92939],[-94.91649,42.92522],[-94.93316,42.92522],[-94.93316,42.92105],[-94.93732,42.92105],[-94.93732,42.91689],[-94.94566,42.91689],[-94.94566,42.91272],[-94.94982,42.91272],[-94.94982,42.90855],[-94.95399,42.90855],[-94.95399,42.90439],[-94.95816,42.90439],[-94.95816,42.90022],[-94.96649,42.90022],[-94.96649,42.89605],[-94.97066,42.89605],[-94.97066,42.89188],[-94.97899,42.89188],[-94.97899,42.88772],[-94.98733,42.88772],[-94.98733,42.88355],[-94.99149,42.88355],[-94.99149,42.88772],[-94.99566,42.88772],[-94.99566,42.89188],[-95.01233,42.89188],[-95.01233,42.88772],[-95.02066,42.88772],[-95.02066,42.89188],[-95.06233,42.89188],[-95.06233,42.90022],[-95.0665,42.90022],[-95.0665,42.90439],[-95.07067,42.90439],[-95.07067,42.90855],[-95.0665,42.90855],[-95.0665,42.91689],[-95.079,42.91689],[-95.079,42.91272],[-95.08317,42.91272],[-95.08317,42.90855],[-95.08733,42.90855],[-95.08733,42.90439],[-95.09567,42.90439],[-95.09567,42.89605],[-95.09984,42.89605],[-95.09984,42.88772],[-95.10817,42.88772],[-95.10817,42.87938],[-95.11234,42.87938],[-95.11234,42.87522],[-95.14151,42.87522],[-95.14151,42.88355],[-95.14567,42.88355],[-95.14567,42.87938],[-95.16234,42.87938],[-95.16234,42.87522],[-95.16651,42.87522],[-95.16651,42.87105],[-95.17068,42.87105],[-95.17068,42.85855],[-95.18318,42.85855],[-95.18318,42.86272],[-95.18734,42.86272],[-95.18734,42.86688],[-95.19151,42.86688],[-95.19151,42.87105],[-95.19568,42.87105],[-95.19568,42.87938],[-95.22068,42.87938],[-95.22068,42.88355],[-95.22485,42.88355],[-95.22485,42.87522],[-95.24151,42.87522],[-95.24151,42.87105],[-95.24568,42.87105],[-95.24568,42.86688],[-95.24985,42.86688],[-95.24985,42.85855],[-95.26235,42.85855],[-95.26235,42.85438],[-95.27068,42.85438],[-95.27068,42.84188],[-95.27902,42.84188],[-95.27902,42.82521],[-95.27485,42.82521],[-95.27485,42.81271],[-95.27902,42.81271],[-95.27902,42.80854],[-95.27485,42.80854],[-95.27485,42.80021],[-95.27068,42.80021],[-95.27068,42.77521],[-95.26652,42.77521],[-95.26652,42.76687],[-95.26235,42.76687],[-95.26235,42.75854],[-95.25818,42.75854],[-95.25818,42.75437],[-95.25401,42.75437],[-95.25401,42.74604],[-95.24985,42.74604],[-95.24985,42.73771],[-95.24568,42.73771],[-95.24568,42.7252],[-95.23735,42.7252],[-95.23735,42.70854],[-95.22901,42.70854],[-95.22901,42.70437],[-95.22485,42.70437],[-95.22485,42.69604],[-95.22068,42.69604],[-95.22068,42.68353],[-95.21651,42.68353],[-95.21651,42.67937],[-95.21234,42.67937],[-95.21234,42.67103],[-95.21651,42.67103],[-95.21651,42.66687],[-95.22068,42.66687],[-95.22068,42.6627],[-95.24151,42.6627],[-95.24151,42.66687],[-95.24568,42.66687],[-95.24568,42.67103],[-95.24985,42.67103],[-95.24985,42.6752],[-95.25401,42.6752],[-95.25401,42.67937],[-95.25818,42.67937],[-95.25818,42.68353],[-95.26235,42.68353],[-95.26235,42.6877],[-95.26652,42.6877],[-95.26652,42.69187],[-95.27068,42.69187],[-95.27068,42.69604],[-95.27902,42.69604],[-95.27902,42.70437],[-95.28318,42.70437],[-95.28318,42.7127],[-95.28735,42.7127],[-95.28735,42.71687],[-95.29152,42.71687],[-95.29152,42.7252],[-95.30402,42.7252],[-95.30402,42.72104],[-95.30819,42.72104],[-95.30819,42.7127],[-95.31235,42.7127],[-95.31235,42.70854],[-95.31652,42.70854],[-95.31652,42.69604],[-95.31235,42.69604],[-95.31235,42.68353],[-95.31652,42.68353],[-95.31652,42.67937],[-95.30819,42.67937],[-95.30819,42.67103],[-95.30402,42.67103],[-95.30402,42.66687],[-95.29985,42.66687],[-95.29985,42.65853],[-95.28735,42.65853],[-95.28735,42.64603],[-95.29152,42.64603],[-95.29152,42.6377],[-95.28735,42.6377],[-95.28735,42.63353],[-95.28318,42.63353],[-95.28318,42.62936],[-95.27902,42.62936],[-95.27902,42.6252],[-95.27485,42.6252],[-95.27485,42.6127],[-95.26235,42.6127],[-95.26235,42.60853],[-95.25818,42.60853],[-95.25818,42.60436],[-95.24985,42.60436],[-95.24985,42.60853],[-95.24151,42.60853],[-95.24151,42.60436],[-95.22901,42.60436],[-95.22901,42.60019],[-95.19151,42.60019],[-95.19151,42.59603],[-95.18318,42.59603],[-95.18318,42.59186],[-95.17901,42.59186],[-95.17901,42.58769],[-95.16651,42.58769],[-95.16651,42.57936],[-95.16234,42.57936],[-95.16234,42.57519],[-95.15817,42.57519],[-95.15817,42.56269],[-95.15401,42.56269],[-95.15401,42.54186],[-95.14567,42.54186],[-95.14567,42.53352],[-95.14151,42.53352],[-95.14151,42.51685],[-95.14567,42.51685],[-95.14567,42.50019],[-95.14151,42.50019],[-95.14151,42.49602],[-95.13734,42.49602],[-95.13734,42.48769],[-95.13317,42.48769],[-95.13317,42.48352],[-95.129,42.48352],[-95.129,42.47518],[-95.12484,42.47518],[-95.12484,42.44602],[-95.12067,42.44602],[-95.12067,42.41268],[-95.1165,42.41268],[-95.1165,42.40435],[-95.12067,42.40435],[-95.12067,42.39184],[-95.12484,42.39184],[-95.12484,42.38768],[-95.12067,42.38768],[-95.12067,42.36684],[-95.1165,42.36684],[-95.1165,42.35851],[-95.10817,42.35851],[-95.10817,42.35434],[-95.104,42.35434],[-95.104,42.35017],[-95.09984,42.35017],[-95.09984,42.34184],[-95.104,42.34184],[-95.104,42.32517],[-95.10817,42.32517],[-95.10817,42.3085],[-95.09984,42.3085],[-95.09984,42.30017],[-95.104,42.30017],[-95.104,42.296],[-95.09984,42.296],[-95.09984,42.29184],[-95.104,42.29184],[-95.104,42.28767],[-95.09567,42.28767],[-95.09567,42.2835],[-95.0915,42.2835],[-95.0915,42.271],[-95.08733,42.271],[-95.08733,42.26267],[-95.08317,42.26267],[-95.08317,42.2585],[-95.079,42.2585],[-95.079,42.22516],[-95.07483,42.22516],[-95.07483,42.221],[-95.0665,42.221],[-95.0665,42.21683],[-95.054,42.21683],[-95.054,42.21266],[-95.04983,42.21266],[-95.04983,42.2085],[-95.0415,42.2085],[-95.0415,42.196],[-95.04566,42.196],[-95.04566,42.18766],[-95.04983,42.18766],[-95.04983,42.17099],[-95.054,42.17099],[-95.054,42.16683],[-95.05817,42.16683],[-95.05817,42.16266],[-95.06233,42.16266],[-95.06233,42.15016],[-95.04566,42.15016],[-95.04566,42.13766],[-95.03733,42.13766],[-95.03733,42.12516],[-95.03316,42.12516],[-95.03316,42.12099],[-95.03733,42.12099],[-95.03733,42.11682],[-95.0415,42.11682],[-95.0415,42.11266],[-95.04566,42.11266],[-95.04566,42.09182],[-95.0415,42.09182],[-95.0415,42.08765],[-95.03316,42.08765],[-95.03316,42.07515],[-95.03733,42.07515],[-95.03733,42.07099],[-95.0415,42.07099],[-95.0415,42.06682],[-95.054,42.06682],[-95.054,42.05848],[-95.05817,42.05848],[-95.05817,42.05015],[-95.054,42.05015],[-95.054,42.04598],[-95.0415,42.04598],[-95.0415,42.03765],[-95.03733,42.03765],[-95.03733,42.04182],[-95.03316,42.04182],[-95.03316,42.03765],[-95.029,42.03765],[-95.029,42.02932],[-95.02483,42.02932],[-95.02483,42.02098],[-95.02066,42.02098],[-95.02066,42.01681],[-95.0165,42.01681],[-95.0165,42.00848],[-95.01233,42.00848],[-95.01233,42.00431],[-95.00816,42.00431],[-95.00816,41.99598],[-94.99983,41.99598],[-94.99983,41.99181],[-94.98733,41.99181],[-94.98733,41.97098],[-94.98316,41.97098],[-94.98316,41.96264],[-94.97899,41.96264],[-94.97899,41.95848],[-94.97066,41.95848],[-94.97066,41.95431],[-94.96649,41.95431],[-94.96649,41.94598],[-94.96232,41.94598],[-94.96232,41.93347],[-94.95816,41.93347],[-94.95816,41.92931],[-94.94566,41.92931],[-94.94566,41.92097],[-94.93732,41.92097],[-94.93732,41.91681],[-94.92899,41.91681],[-94.92899,41.91264],[-94.92065,41.91264],[-94.92065,41.92097],[-94.91232,41.92097],[-94.91232,41.91681],[-94.90399,41.91681],[-94.90399,41.91264],[-94.89982,41.91264],[-94.89982,41.90431],[-94.88732,41.90431],[-94.88732,41.90014],[-94.87482,41.90014],[-94.87482,41.89597],[-94.86648,41.89597],[-94.86648,41.8918],[-94.86232,41.8918],[-94.86232,41.88764],[-94.85815,41.88764],[-94.85815,41.8793],[-94.84565,41.8793],[-94.84565,41.87514],[-94.83731,41.87514],[-94.83731,41.86264],[-94.84148,41.86264],[-94.84148,41.85013],[-94.83731,41.85013],[-94.83731,41.83347],[-94.82065,41.83347],[-94.82065,41.82513],[-94.80815,41.82513],[-94.80815,41.82097],[-94.80398,41.82097],[-94.80398,41.80846],[-94.79981,41.80846],[-94.79981,41.8043],[-94.79148,41.8043],[-94.79148,41.80013],[-94.78731,41.80013],[-94.78731,41.7918],[-94.77898,41.7918],[-94.77898,41.78763],[-94.77481,41.78763],[-94.77481,41.7793],[-94.77898,41.7793],[-94.77898,41.77513],[-94.75814,41.77513],[-94.75814,41.77096],[-94.75397,41.77096],[-94.75397,41.76263],[-94.74981,41.76263],[-94.74981,41.74596],[-94.74147,41.74596],[-94.74147,41.73763],[-94.73731,41.73763],[-94.73731,41.72929],[-94.73314,41.72929],[-94.73314,41.72512],[-94.72897,41.72512],[-94.72897,41.72096],[-94.72481,41.72096],[-94.72481,41.71262],[-94.72064,41.71262],[-94.72064,41.70429],[-94.71647,41.70429],[-94.71647,41.69596],[-94.70814,41.69596],[-94.70814,41.68762],[-94.6998,41.68762],[-94.6998,41.67929],[-94.69564,41.67929],[-94.69564,41.67512],[-94.6873,41.67512],[-94.6873,41.65429],[-94.68314,41.65429],[-94.68314,41.65012],[-94.67897,41.65012],[-94.67897,41.64595],[-94.6748,41.64595],[-94.6748,41.64178],[-94.65813,41.64178],[-94.65813,41.62512],[-94.6498,41.62512],[-94.6498,41.61678],[-94.63313,41.61678],[-94.63313,41.60845],[-94.62896,41.60845],[-94.62896,41.60428],[-94.60813,41.60428],[-94.60813,41.60011],[-94.60396,41.60011],[-94.60396,41.59595],[-94.59146,41.59595],[-94.59146,41.60011],[-94.58313,41.60011],[-94.58313,41.59595],[-94.57063,41.59595],[-94.57063,41.58761],[-94.55813,41.58761],[-94.55813,41.58345],[-94.55396,41.58345],[-94.55396,41.57511],[-94.54146,41.57511],[-94.54146,41.56678],[-94.53312,41.56678],[-94.53312,41.56261],[-94.52896,41.56261],[-94.52896,41.55428],[-94.52479,41.55428],[-94.52479,41.55011],[-94.51646,41.55011],[-94.51646,41.54178],[-94.51229,41.54178],[-94.51229,41.53761],[-94.50395,41.53761],[-94.50395,41.53344],[-94.49145,41.53344],[-94.49145,41.52928],[-94.48729,41.52928],[-94.48729,41.53344],[-94.48312,41.53344],[-94.48312,41.52511],[-94.47479,41.52511],[-94.47479,41.51677],[-94.46228,41.51677],[-94.46228,41.53344],[-94.45395,41.53344],[-94.45395,41.52928],[-94.44145,41.52928],[-94.44145,41.52511],[-94.43728,41.52511],[-94.43728,41.52094],[-94.43312,41.52094],[-94.43312,41.52511],[-94.42895,41.52511],[-94.42895,41.52928],[-94.42478,41.52928],[-94.42478,41.53344],[-94.41645,41.53344],[-94.41645,41.52928],[-94.41228,41.52928],[-94.41228,41.52511],[-94.39978,41.52511],[-94.39978,41.52094],[-94.39145,41.52094],[-94.39145,41.52511],[-94.37061,41.52511],[-94.37061,41.52094],[-94.36644,41.52094],[-94.36644,41.51677],[-94.36228,41.51677],[-94.36228,41.51261],[-94.33727,41.51261],[-94.33727,41.50427],[-94.33311,41.50427],[-94.33311,41.50011],[-94.32477,41.50011],[-94.32477,41.49594],[-94.31227,41.49594],[-94.31227,41.48344],[-94.2956,41.48344],[-94.2956,41.48761],[-94.2831,41.48761],[-94.2831,41.49594],[-94.27894,41.49594],[-94.27894,41.50427],[-94.27477,41.50427],[-94.27477,41.50844],[-94.2706,41.50844],[-94.2706,41.51677],[-94.2581,41.51677],[-94.2581,41.52094],[-94.24977,41.52094],[-94.24977,41.52511],[-94.24143,41.52511],[-94.24143,41.52094],[-94.22477,41.52094],[-94.22477,41.51677],[-94.2081,41.51677],[-94.2081,41.51261],[-94.20393,41.51261],[-94.20393,41.50844],[-94.17893,41.50844],[-94.17893,41.50427],[-94.17476,41.50427],[-94.17476,41.50011],[-94.15809,41.50011],[-94.15809,41.50427],[-94.14976,41.50427],[-94.14976,41.49594],[-94.14143,41.49594],[-94.14143,41.49177],[-94.13726,41.49177],[-94.13726,41.49594],[-94.13309,41.49594],[-94.13309,41.49177],[-94.12892,41.49177],[-94.12892,41.48761],[-94.11226,41.48761],[-94.11226,41.48344],[-94.10809,41.48344],[-94.10809,41.47927],[-94.08309,41.47927],[-94.08309,41.48344],[-94.07892,41.48344],[-94.07892,41.47927],[-94.07475,41.47927],[-94.07475,41.4751],[-94.06642,41.4751],[-94.06642,41.47094],[-94.05809,41.47094],[-94.05809,41.4751],[-94.04142,41.4751],[-94.04142,41.47094],[-94.03308,41.47094],[-94.03308,41.4751],[-94.02892,41.4751],[-94.02892,41.47927],[-94.01642,41.47927],[-94.01642,41.4751],[-94.00808,41.4751],[-94.00808,41.47927],[-93.99975,41.47927],[-93.99975,41.48761],[-93.99558,41.48761],[-93.99558,41.49594],[-93.97475,41.49594],[-93.97475,41.50011],[-93.97891,41.50011],[-93.97891,41.51261],[-93.97475,41.51261],[-93.97475,41.52928],[-93.96641,41.52928],[-93.96641,41.53344],[-93.96224,41.53344],[-93.96224,41.53761],[-93.95808,41.53761],[-93.95808,41.54594],[-93.95391,41.54594],[-93.95391,41.55011],[-93.94974,41.55011],[-93.94974,41.55844],[-93.94558,41.55844],[-93.94558,41.56261],[-93.93724,41.56261],[-93.93724,41.57095],[-93.92891,41.57095],[-93.92891,41.57928],[-93.93308,41.57928],[-93.93308,41.58345],[-93.93724,41.58345],[-93.93724,41.59178],[-93.94558,41.59178],[-93.94558,41.59595],[-93.94974,41.59595],[-93.94974,41.60428],[-93.95391,41.60428],[-93.95391,41.61262],[-93.95808,41.61262],[-93.95808,41.61678],[-93.95391,41.61678],[-93.95391,41.62512],[-93.94974,41.62512],[-93.94974,41.62928],[-93.94141,41.62928],[-93.94141,41.63345],[-93.93724,41.63345],[-93.93724,41.63762],[-93.94141,41.63762],[-93.94141,41.64595],[-93.94558,41.64595],[-93.94558,41.65012],[-93.94974,41.65012],[-93.94974,41.65845],[-93.95391,41.65845],[-93.95391,41.66262],[-93.96224,41.66262],[-93.96224,41.66679],[-93.96641,41.66679],[-93.96641,41.67095],[-93.96224,41.67095],[-93.96224,41.67512],[-93.96641,41.67512],[-93.96641,41.68345],[-93.97058,41.68345],[-93.97058,41.68762],[-93.97475,41.68762],[-93.97475,41.69179],[-93.97891,41.69179],[-93.97891,41.70012],[-93.98725,41.70012],[-93.98725,41.70429],[-93.99141,41.70429],[-93.99141,41.70846],[-94.00391,41.70846],[-94.00391,41.71262],[-94.00808,41.71262],[-94.00808,41.72512],[-94.01642,41.72512],[-94.01642,41.73346],[-94.02058,41.73346],[-94.02058,41.74179],[-94.02475,41.74179],[-94.02475,41.75429],[-94.02892,41.75429],[-94.02892,41.76263],[-94.03308,41.76263],[-94.03308,41.76679],[-94.03725,41.76679],[-94.03725,41.77096],[-94.04559,41.77096],[-94.04559,41.77513],[-94.04975,41.77513],[-94.04975,41.77096],[-94.05392,41.77096],[-94.05392,41.77513],[-94.06225,41.77513],[-94.06225,41.78346],[-94.06642,41.78346],[-94.06642,41.78763],[-94.07059,41.78763],[-94.07059,41.7918],[-94.07475,41.7918],[-94.07475,41.80846],[-94.07059,41.80846],[-94.07059,41.81263],[-94.07475,41.81263],[-94.07475,41.8168],[-94.07059,41.8168],[-94.07059,41.8293],[-94.08309,41.8293],[-94.08309,41.83763],[-94.09559,41.83763],[-94.09559,41.84597],[-94.09976,41.84597],[-94.09976,41.8543],[-94.10392,41.8543],[-94.10392,41.86264],[-94.10809,41.86264],[-94.10809,41.87097],[-94.11226,41.87097],[-94.11226,41.87514],[-94.10809,41.87514],[-94.10809,41.88347],[-94.11226,41.88347],[-94.11226,41.88764],[-94.11642,41.88764],[-94.11642,41.90431],[-94.12059,41.90431],[-94.12059,41.91264],[-94.12476,41.91264],[-94.12476,41.91681],[-94.14143,41.91681],[-94.14143,41.91264],[-94.14559,41.91264],[-94.14559,41.90847],[-94.14976,41.90847],[-94.14976,41.91264],[-94.17059,41.91264],[-94.17059,41.91681],[-94.17476,41.91681],[-94.17476,41.92097],[-94.1831,41.92097],[-94.1831,41.92514],[-94.18726,41.92514],[-94.18726,41.92931],[-94.1831,41.92931],[-94.1831,41.93347],[-94.18726,41.93347],[-94.18726,41.94598],[-94.19143,41.94598],[-94.19143,41.95014],[-94.1956,41.95014],[-94.1956,41.97098],[-94.2081,41.97098],[-94.2081,41.97931],[-94.21643,41.97931],[-94.21643,41.98348],[-94.2206,41.98348],[-94.2206,41.97931],[-94.23727,41.97931],[-94.23727,41.97514],[-94.24143,41.97514],[-94.24143,41.97098],[-94.25393,41.97098],[-94.25393,41.97931],[-94.2581,41.97931],[-94.2581,41.98348],[-94.26227,41.98348],[-94.26227,41.98765],[-94.26644,41.98765],[-94.26644,41.99598],[-94.2706,41.99598],[-94.2706,42.00015],[-94.26644,42.00015],[-94.26644,42.01681],[-94.26227,42.01681],[-94.26227,42.02098],[-94.2581,42.02098],[-94.2581,42.02515],[-94.26227,42.02515],[-94.26227,42.03348],[-94.2581,42.03348],[-94.2581,42.04598],[-94.25393,42.04598],[-94.25393,42.05848],[-94.24977,42.05848],[-94.24977,42.06265],[-94.2456,42.06265],[-94.2456,42.07932],[-94.24977,42.07932],[-94.24977,42.08765],[-94.24143,42.08765],[-94.24143,42.10849],[-94.2456,42.10849],[-94.2456,42.11682],[-94.2331,42.11682],[-94.2331,42.12516],[-94.23727,42.12516],[-94.23727,42.13766],[-94.2331,42.13766],[-94.2331,42.14182],[-94.22893,42.14182],[-94.22893,42.14599],[-94.22477,42.14599],[-94.22477,42.15016],[-94.21643,42.15016],[-94.21643,42.17099],[-94.2206,42.17099],[-94.2206,42.17933],[-94.22477,42.17933],[-94.22477,42.18349],[-94.2206,42.18349],[-94.2206,42.196],[-94.22477,42.196],[-94.22477,42.20016],[-94.21643,42.20016],[-94.21643,42.20433],[-94.2206,42.20433],[-94.2206,42.2085],[-94.22477,42.2085],[-94.22477,42.21266],[-94.2206,42.21266],[-94.2206,42.22933],[-94.22893,42.22933],[-94.22893,42.24183],[-94.22477,42.24183],[-94.22477,42.246],[-94.2206,42.246],[-94.2206,42.25017],[-94.21643,42.25017],[-94.21643,42.25433],[-94.20393,42.25433],[-94.20393,42.25017],[-94.19976,42.25017],[-94.19976,42.25433],[-94.1956,42.25433],[-94.1956,42.2585],[-94.19976,42.2585],[-94.19976,42.271],[-94.20393,42.271],[-94.20393,42.27934],[-94.19976,42.27934],[-94.19976,42.2835],[-94.19143,42.2835],[-94.19143,42.296],[-94.18726,42.296],[-94.18726,42.30017],[-94.1831,42.30017],[-94.1831,42.30434],[-94.18726,42.30434],[-94.18726,42.3085],[-94.1831,42.3085],[-94.1831,42.31267],[-94.18726,42.31267],[-94.18726,42.31684],[-94.1831,42.31684],[-94.1831,42.32517],[-94.18726,42.32517],[-94.18726,42.32101],[-94.1956,42.32101],[-94.1956,42.32517],[-94.20393,42.32517],[-94.20393,42.32934],[-94.21643,42.32934],[-94.21643,42.33351],[-94.22893,42.33351],[-94.22893,42.32934],[-94.2331,42.32934],[-94.2331,42.32517],[-94.24143,42.32517],[-94.24143,42.33351],[-94.24977,42.33351],[-94.24977,42.33767],[-94.26227,42.33767],[-94.26227,42.34184],[-94.2706,42.34184],[-94.2706,42.34601],[-94.27477,42.34601],[-94.27477,42.35434],[-94.27894,42.35434],[-94.27894,42.36268],[-94.2831,42.36268],[-94.2831,42.37101],[-94.2956,42.37101],[-94.2956,42.37518],[-94.30811,42.37518],[-94.30811,42.37101],[-94.32061,42.37101],[-94.32061,42.37518],[-94.32477,42.37518],[-94.32477,42.37934],[-94.32894,42.37934],[-94.32894,42.38351],[-94.33311,42.38351],[-94.33311,42.38768],[-94.33727,42.38768],[-94.33727,42.39601],[-94.34144,42.39601],[-94.34144,42.39184],[-94.35811,42.39184],[-94.35811,42.39601],[-94.35394,42.39601],[-94.35394,42.40435],[-94.35811,42.40435],[-94.35811,42.40851],[-94.36228,42.40851],[-94.36228,42.41268],[-94.35811,42.41268],[-94.35811,42.43351],[-94.36228,42.43351],[-94.36228,42.42935],[-94.37478,42.42935],[-94.37478,42.43351],[-94.37895,42.43351],[-94.37895,42.43768],[-94.38311,42.43768],[-94.38311,42.44185],[-94.39978,42.44185],[-94.39978,42.43768],[-94.40395,42.43768],[-94.40395,42.43351],[-94.41228,42.43351],[-94.41228,42.44185],[-94.42061,42.44185],[-94.42061,42.45435],[-94.42895,42.45435],[-94.42895,42.45852],[-94.43312,42.45852],[-94.43312,42.46268],[-94.43728,42.46268],[-94.43728,42.46685],[-94.45812,42.46685],[-94.45812,42.46268],[-94.46228,42.46268],[-94.46228,42.45852],[-94.47062,42.45852],[-94.47062,42.45435],[-94.47479,42.45435],[-94.47479,42.44602],[-94.48312,42.44602],[-94.48312,42.45018],[-94.48729,42.45018],[-94.48729,42.45435],[-94.49562,42.45435],[-94.49562,42.45852],[-94.49979,42.45852],[-94.49979,42.46685],[-94.49562,42.46685],[-94.49562,42.47102],[-94.49145,42.47102],[-94.49145,42.48352],[-94.48729,42.48352],[-94.48729,42.49185],[-94.50812,42.49185],[-94.50812,42.49602],[-94.51229,42.49602],[-94.51229,42.51269],[-94.51646,42.51269],[-94.51646,42.52102],[-94.51229,42.52102],[-94.51229,42.52519],[-94.50812,42.52519],[-94.50812,42.52936],[-94.51229,42.52936],[-94.51229,42.53352],[-94.50812,42.53352],[-94.50812,42.54186],[-94.51646,42.54186],[-94.51646,42.54602],[-94.52479,42.54602],[-94.52479,42.55019],[-94.52896,42.55019],[-94.52896,42.55436],[-94.55396,42.55436],[-94.55396,42.55852],[-94.55813,42.55852],[-94.55813,42.56269],[-94.56646,42.56269],[-94.56646,42.55852],[-94.57479,42.55852],[-94.57479,42.56269],[-94.58313,42.56269],[-94.58313,42.56686],[-94.59563,42.56686],[-94.59563,42.57103],[-94.5998,42.57103],[-94.5998,42.57519],[-94.60813,42.57519],[-94.60813,42.57936],[-94.61646,42.57936],[-94.61646,42.58353],[-94.6373,42.58353],[-94.6373,42.58769],[-94.64563,42.58769],[-94.64563,42.59186],[-94.6498,42.59186],[-94.6498,42.59603],[-94.65813,42.59603],[-94.65813,42.60019],[-94.6623,42.60019],[-94.6623,42.60436],[-94.67063,42.60436],[-94.67063,42.60853],[-94.68314,42.60853],[-94.68314,42.61686],[-94.6873,42.61686],[-94.6873,42.62103],[-94.69147,42.62103],[-94.69147,42.6252],[-94.70397,42.6252],[-94.70397,42.62936],[-94.72897,42.62936],[-94.72897,42.61686],[-94.74981,42.61686],[-94.74981,42.62103],[-94.75397,42.62103],[-94.75397,42.62936],[-94.75814,42.62936],[-94.75814,42.63353],[-94.75397,42.63353],[-94.75397,42.6627],[-94.75814,42.6627],[-94.75814,42.66687],[-94.76231,42.66687],[-94.76231,42.67103],[-94.76648,42.67103],[-94.76648,42.6752],[-94.77064,42.6752],[-94.77064,42.67937],[-94.77481,42.67937],[-94.77481,42.68353],[-94.77064,42.68353],[-94.77064,42.71687],[-94.76648,42.71687],[-94.76648,42.7252],[-94.76231,42.7252],[-94.76231,42.72937],[-94.76648,42.72937],[-94.76648,42.73354],[-94.75814,42.73354],[-94.75814,42.73771],[-94.75397,42.73771],[-94.75397,42.74187],[-94.74981,42.74187],[-94.74981,42.74604],[-94.74564,42.74604],[-94.74564,42.75854],[-94.74981,42.75854],[-94.74981,42.76687],[-94.75397,42.76687],[-94.75397,42.77104],[-94.75814,42.77104],[-94.75814,42.77938],[-94.75397,42.77938],[-94.75397,42.78354],[-94.76231,42.78354],[-94.76231,42.79188],[-94.76648,42.79188],[-94.76648,42.80021],[-94.77064,42.80021],[-94.77064,42.80854],[-94.77898,42.80854],[-94.77898,42.81688],[-94.78731,42.81688],[-94.78731,42.82105],[-94.79564,42.82105],[-94.79564,42.82521],[-94.79981,42.82521],[-94.79981,42.82105],[-94.80398,42.82105],[-94.80398,42.83771],[-94.80815,42.83771],[-94.80815,42.84188],[-94.81231,42.84188],[-94.81231,42.85438],[-94.81648,42.85438],[-94.81648,42.86272],[-94.81231,42.86272],[-94.81231,42.86688],[-94.80815,42.86688],[-94.80815,42.87105],[-94.81648,42.87105],[-94.81648,42.87522],[-94.82065,42.87522],[-94.82065,42.87938],[-94.82481,42.87938],[-94.82481,42.88355],[-94.82898,42.88355],[-94.82898,42.89605],[-94.83315,42.89605],[-94.83315,42.91272],[-94.83731,42.91272],[-94.83731,42.91689],[-94.84148,42.91689],[-94.84148,42.92105],[-94.84565,42.92105],[-94.84565,42.92522],[-94.84982,42.92522],[-94.84982,42.92939],[-94.86648,42.92939],[-94.86648,42.93355],[-94.89149,42.93355]]]}}]}