{"type":"FeatureCollection","features":[{"type":"Feature","properties":{},"geometry":{"type":"Polygon","coordinates":[[[-94.99061,42.35259],[-94.99463,42.35641],[-94.99397,42.35978],[-94.99735,42.35988],[-95.00111,42.36342],[-95.00008,42.36981],[-95.00273,42.37301],[-95.00002,42.37577],[-94.99962,42.3794],[-95.00111,42.38224],[-95.00499,42.38316],[-95.00481,42.38596],[-95.00704,42.38538],[-95.00744,42.38758],[-95.01504,42.39052],[-95.01216,42.39507],[-95.01661,42.39676],[-95.01709,42.39923],[-95.02693,42.39693],[-95.0291,42.40259],[-95.03551,42.40513],[-95.04225,42.41188],[-95.04295,42.41482],[-95.04644,42.41626],[-95.0434,42.41975],[-95.04517,42.42227],[-95.05031,42.42201],[-95.05082,42.4179],[-95.05214,42.41748],[-95.05626,42.4177],[-95.05788,42.41963],[-95.05787,42.42361],[-95.06047,42.42749],[-95.05554,42.42883],[-95.05532,42.43081],[-95.06137,42.43601],[-95.05822,42.44046],[-95.06084,42.44244],[-95.05937,42.4442],[-95.06364,42.45461],[-95.06218,42.46125],[-95.06973,42.46392],[-95.07012,42.4669],[-95.07954,42.47622],[-95.07911,42.48074],[-95.08591,42.48652],[-95.08687,42.48988],[-95.08975,42.49144],[-95.09541,42.48931],[-95.09741,42.49086],[-95.10024,42.49028],[-95.10432,42.49541],[-95.11321,42.49771],[-95.11741,42.49509],[-95.12162,42.49553],[-95.12574,42.49224],[-95.13152,42.49133],[-95.13456,42.4912],[-95.13978,42.49611],[-95.14016,42.50322],[-95.14284,42.50495],[-95.13645,42.51502],[-95.13729,42.51732],[-95.13456,42.52126],[-95.13464,42.52402],[-95.14174,42.53389],[-95.13812,42.53715],[-95.13933,42.5408],[-95.14682,42.53986],[-95.14765,42.54107],[-95.14626,42.54349],[-95.14968,42.54605],[-95.14583,42.55148],[-95.15134,42.55622],[-95.15122,42.56451],[-95.15311,42.5662],[-95.14605,42.56798],[-95.14981,42.57925],[-95.14753,42.5809],[-95.1502,42.58428],[-95.14855,42.58615],[-95.1512,42.5883],[-95.15134,42.59062],[-95.16712,42.58988],[-95.16592,42.58802],[-95.17163,42.58592],[-95.17968,42.58946],[-95.18037,42.59322],[-95.18967,42.59719],[-95.20326,42.59541],[-95.2075,42.59716],[-95.22555,42.59859],[-95.23908,42.60619],[-95.24613,42.60455],[-95.25017,42.60089],[-95.25601,42.60494],[-95.26054,42.60453],[-95.26506,42.60811],[-95.27068,42.60932],[-95.2689,42.61628],[-95.26654,42.61843],[-95.26748,42.6208],[-95.26979,42.62354],[-95.28043,42.62655],[-95.28765,42.6322],[-95.28829,42.63923],[-95.28442,42.64462],[-95.28511,42.64787],[-95.29511,42.65491],[-95.29765,42.65868],[-95.2981,42.66262],[-95.30182,42.66632],[-95.30148,42.66949],[-95.30352,42.67285],[-95.31196,42.67558],[-95.3139,42.67986],[-95.31448,42.68123],[-95.30982,42.68384],[-95.31225,42.68888],[-95.30996,42.6899],[-95.31121,42.69719],[-95.31009,42.70001],[-95.31259,42.70378],[-95.30511,42.70895],[-95.30175,42.70927],[-95.30055,42.71335],[-95.30257,42.71667],[-95.30623,42.71786],[-95.30599,42.72011],[-95.29907,42.72292],[-95.28913,42.72368],[-95.28867,42.72031],[-95.28262,42.71396],[-95.27869,42.70522],[-95.2756,42.70196],[-95.27567,42.69471],[-95.26612,42.69224],[-95.26514,42.6888],[-95.26618,42.68687],[-95.23739,42.65933],[-95.22568,42.661],[-95.22089,42.65964],[-95.20707,42.66764],[-95.20655,42.67047],[-95.20889,42.6726],[-95.20797,42.6732],[-95.20975,42.67716],[-95.20507,42.67874],[-95.20475,42.68034],[-95.20985,42.68051],[-95.21695,42.684],[-95.2236,42.69458],[-95.22328,42.70246],[-95.2301,42.70423],[-95.23207,42.70734],[-95.23003,42.70929],[-95.2329,42.7133],[-95.22945,42.71839],[-95.24425,42.72648],[-95.24709,42.73113],[-95.24354,42.73667],[-95.2514,42.74355],[-95.25067,42.75033],[-95.25513,42.75526],[-95.25044,42.75593],[-95.24738,42.75996],[-95.23575,42.76298],[-95.23593,42.76648],[-95.22641,42.77043],[-95.22474,42.7731],[-95.22338,42.77765],[-95.22532,42.78226],[-95.22384,42.78434],[-95.22611,42.79824],[-95.22383,42.80225],[-95.22797,42.80777],[-95.24094,42.81497],[-95.23903,42.82175],[-95.24112,42.82446],[-95.23746,42.82826],[-95.22401,42.83045],[-95.22088,42.83569],[-95.22172,42.83794],[-95.21757,42.84056],[-95.21875,42.84257],[-95.21611,42.84349],[-95.21092,42.8417],[-95.20496,42.84475],[-95.19806,42.84545],[-95.1974,42.8474],[-95.19147,42.84551],[-95.18492,42.84571],[-95.17442,42.85052],[-95.17263,42.8536],[-95.16472,42.85346],[-95.16343,42.85509],[-95.16339,42.86323],[-95.16102,42.86422],[-95.15859,42.87281],[-95.1438,42.87071],[-95.13367,42.87411],[-95.12648,42.87152],[-95.12579,42.86935],[-95.1192,42.86908],[-95.11667,42.87132],[-95.1174,42.87245],[-95.10875,42.87559],[-95.09767,42.87232],[-95.09127,42.87611],[-95.07821,42.87675],[-95.07094,42.88242],[-95.07128,42.88457],[-95.06777,42.88592],[-95.0694,42.88807],[-95.06571,42.88948],[-95.06266,42.88795],[-95.05824,42.89226],[-95.05463,42.89093],[-95.05217,42.88635],[-95.04691,42.88534],[-95.03929,42.88961],[-95.02713,42.88624],[-95.02388,42.88667],[-95.02014,42.88457],[-95.0216,42.88245],[-95.01228,42.87771],[-95.00736,42.883],[-95.00463,42.88389],[-95.00667,42.8864],[-95.00558,42.89281],[-95.00752,42.895],[-95.00344,42.89799],[-95.00321,42.90035],[-95.005,42.90153],[-94.99986,42.90932],[-94.99909,42.91499],[-94.99495,42.91585],[-94.99209,42.91943],[-94.98671,42.91202],[-94.98473,42.91173],[-94.97932,42.91409],[-94.97093,42.91472],[-94.96773,42.91802],[-94.96439,42.9177],[-94.9628,42.91444],[-94.96378,42.91106],[-94.95094,42.90991],[-94.94521,42.90434],[-94.94525,42.90191],[-94.9417,42.90135],[-94.9373,42.90803],[-94.93917,42.91145],[-94.93754,42.91483],[-94.93251,42.9129],[-94.9299,42.91501],[-94.92906,42.9213],[-94.92035,42.92388],[-94.91455,42.93252],[-94.91023,42.93166],[-94.90902,42.92833],[-94.90144,42.92409],[-94.89584,42.9238],[-94.89544,42.9255],[-94.89013,42.92839],[-94.88766,42.92812],[-94.88014,42.93225],[-94.8763,42.9305],[-94.86458,42.9295],[-94.85725,42.93167],[-94.85544,42.93656],[-94.85137,42.93607],[-94.84516,42.93045],[-94.84256,42.92383],[-94.84345,42.92146],[-94.83955,42.91789],[-94.84072,42.91633],[-94.83951,42.90948],[-94.83748,42.90642],[-94.83066,42.9067],[-94.82448,42.89926],[-94.83026,42.89606],[-94.82977,42.8938],[-94.82642,42.89132],[-94.82649,42.88816],[-94.82877,42.88565],[-94.82455,42.88393],[-94.82803,42.88116],[-94.82832,42.87887],[-94.82108,42.876],[-94.814,42.86902],[-94.8079,42.86905],[-94.80615,42.86695],[-94.80658,42.86072],[-94.80234,42.85842],[-94.80225,42.85704],[-94.80495,42.85592],[-94.81411,42.85374],[-94.8131,42.85235],[-94.81544,42.84983],[-94.81468,42.84403],[-94.81104,42.84359],[-94.81206,42.83682],[-94.79699,42.83346],[-94.7954,42.83011],[-94.797,42.82032],[-94.79398,42.81619],[-94.79425,42.8141],[-94.78666,42.8107],[-94.78226,42.81339],[-94.77645,42.81247],[-94.77238,42.8138],[-94.76999,42.81227],[-94.77052,42.80922],[-94.76283,42.80408],[-94.76179,42.79957],[-94.76312,42.79656],[-94.75972,42.79045],[-94.76,42.78624],[-94.75055,42.77958],[-94.74814,42.77086],[-94.73793,42.76641],[-94.73719,42.7593],[-94.73527,42.75717],[-94.73586,42.75095],[-94.74208,42.75038],[-94.74043,42.74764],[-94.74388,42.74607],[-94.74784,42.73123],[-94.75537,42.73018],[-94.76011,42.72653],[-94.76308,42.72682],[-94.76355,42.72347],[-94.76856,42.71908],[-94.76751,42.71603],[-94.75895,42.71148],[-94.75693,42.70241],[-94.75236,42.69868],[-94.75168,42.69571],[-94.74656,42.69396],[-94.74901,42.69045],[-94.75178,42.68953],[-94.76385,42.68908],[-94.76757,42.68257],[-94.76745,42.67961],[-94.7658,42.67866],[-94.76941,42.67439],[-94.7682,42.67215],[-94.759,42.66951],[-94.75568,42.6665],[-94.75693,42.66341],[-94.75579,42.66152],[-94.75654,42.65231],[-94.75918,42.64648],[-94.75124,42.64444],[-94.75485,42.64174],[-94.75248,42.64061],[-94.74983,42.63575],[-94.75099,42.63113],[-94.75525,42.62776],[-94.75506,42.62481],[-94.75676,42.62308],[-94.75377,42.61829],[-94.75575,42.61443],[-94.74101,42.60605],[-94.75157,42.59631],[-94.75153,42.59423],[-94.75657,42.5884],[-94.76425,42.58645],[-94.76526,42.58428],[-94.77028,42.58208],[-94.76887,42.57942],[-94.77293,42.57724],[-94.76999,42.5752],[-94.77394,42.56737],[-94.76572,42.5658],[-94.76433,42.56279],[-94.76485,42.55921],[-94.76738,42.55951],[-94.76986,42.55602],[-94.77156,42.55027],[-94.77074,42.54763],[-94.77288,42.54374],[-94.77776,42.54203],[-94.78031,42.54468],[-94.78314,42.5437],[-94.78924,42.53714],[-94.80779,42.53113],[-94.80781,42.52389],[-94.81504,42.5206],[-94.81237,42.51412],[-94.809,42.5105],[-94.81467,42.5053],[-94.81414,42.50377],[-94.81917,42.49583],[-94.82319,42.49214],[-94.82382,42.48501],[-94.82197,42.47958],[-94.82712,42.47616],[-94.82968,42.47721],[-94.83106,42.47596],[-94.82796,42.47269],[-94.82783,42.46969],[-94.83592,42.46822],[-94.83643,42.46396],[-94.83461,42.46216],[-94.83652,42.45832],[-94.83273,42.45599],[-94.83422,42.45288],[-94.83261,42.45074],[-94.84205,42.44694],[-94.84275,42.4453],[-94.85529,42.44334],[-94.851,42.43832],[-94.85393,42.4369],[-94.8551,42.43436],[-94.86109,42.43327],[-94.86479,42.42635],[-94.87601,42.42869],[-94.87825,42.42518],[-94.88615,42.42344],[-94.88824,42.42614],[-94.89515,42.42851],[-94.90095,42.42307],[-94.91195,42.42296],[-94.91368,42.41991],[-94.91339,42.41502],[-94.91871,42.41148],[-94.90989,42.39706],[-94.9114,42.39287],[-94.91531,42.39111],[-94.91547,42.38678],[-94.92425,42.38573],[-94.92696,42.3913],[-94.92593,42.39628],[-94.93004,42.39881],[-94.94027,42.39801],[-94.9403,42.40769],[-94.94393,42.41168],[-94.94852,42.40987],[-94.94907,42.40363],[-94.95476,42.3998],[-94.95419,42.39091],[-94.96936,42.39256],[-94.97101,42.3947],[-94.97403,42.3945],[-94.97351,42.39255],[-94.98072,42.38812],[-94.981,42.37811],[-94.98361,42.37499],[-94.98008,42.36773],[-94.98141,42.36385],[-94.97868,42.36146],[-94.98284,42.36119],[-94.98876,42.35699],[-94.98835,42.35391],[-94.99061,42.35259]]]}}]}