{"type":"FeatureCollection","features":[{"type":"Feature","properties":{},"geometry":{"type":"Polygon","coordinates":[[[-90.49003,41.91212],[-90.49305,41.91181],[-90.49366,41.90887],[-90.50044,41.90532],[-90.50586,41.9048],[-90.51453,41.90884],[-90.51716,41.91244],[-90.52561,41.91203],[-90.52953,41.91769],[-90.5504,41.92167],[-90.55316,41.92667],[-90.55315,41.93028],[-90.55731,41.93593],[-90.56472,41.93658],[-90.57194,41.94487],[-90.57137,41.94754],[-90.57904,41.95216],[-90.58691,41.9487],[-90.59765,41.94787],[-90.61049,41.94868],[-90.61161,41.9511],[-90.61421,41.95161],[-90.62179,41.94696],[-90.63433,41.9499],[-90.63716,41.94767],[-90.64182,41.94753],[-90.64338,41.94529],[-90.64758,41.94451],[-90.64522,41.94244],[-90.64629,41.94034],[-90.6448,41.93718],[-90.6475,41.93401],[-90.66991,41.93403],[-90.67296,41.93163],[-90.68003,41.94084],[-90.68494,41.94197],[-90.68543,41.94349],[-90.69199,41.9463],[-90.70371,41.94652],[-90.70994,41.94975],[-90.70854,41.95234],[-90.71573,41.95721],[-90.73127,41.96086],[-90.73328,41.96392],[-90.74226,41.96106],[-90.74747,41.96247],[-90.74826,41.96491],[-90.75177,41.96695],[-90.76266,41.96646],[-90.76501,41.96924],[-90.77433,41.97418],[-90.77379,41.97856],[-90.77735,41.98217],[-90.7755,41.98375],[-90.77616,41.98607],[-90.7822,41.98899],[-90.78693,41.98914],[-90.79015,41.98742],[-90.80144,41.99207],[-90.80604,41.99184],[-90.80747,41.99393],[-90.81338,41.99617],[-90.81253,41.99828],[-90.81469,42.0032],[-90.81274,42.00416],[-90.81248,42.00635],[-90.81502,42.00889],[-90.82421,42.01272],[-90.83127,42.01112],[-90.83995,42.01227],[-90.84059,42.00854],[-90.84469,42.00736],[-90.84426,42.00349],[-90.84703,41.99802],[-90.85601,41.99503],[-90.86593,41.99629],[-90.87018,41.9936],[-90.87833,41.9942],[-90.88033,41.99206],[-90.89445,41.99618],[-90.90068,42.00455],[-90.90406,42.00461],[-90.90874,42.008],[-90.9114,42.01633],[-90.91363,42.01869],[-90.92371,42.01843],[-90.93079,42.01656],[-90.93297,42.01403],[-90.936,42.01489],[-90.94127,42.01341],[-90.95908,42.01823],[-90.95918,42.02021],[-90.96281,42.0226],[-90.96169,42.0253],[-90.96347,42.02655],[-90.96025,42.03057],[-90.96181,42.03274],[-90.96095,42.03612],[-90.96973,42.03974],[-90.9766,42.0398],[-90.98756,42.03644],[-90.99166,42.04017],[-90.99537,42.03998],[-90.99737,42.03795],[-91.00337,42.04072],[-91.01033,42.04045],[-91.01275,42.04243],[-91.01641,42.0423],[-91.0303,42.0372],[-91.03623,42.03887],[-91.03663,42.04066],[-91.04026,42.04189],[-91.04586,42.0419],[-91.0564,42.03827],[-91.05434,42.03531],[-91.05616,42.03309],[-91.0619,42.03413],[-91.06481,42.03254],[-91.07334,42.03294],[-91.07968,42.0364],[-91.07948,42.03808],[-91.08253,42.04067],[-91.0865,42.04101],[-91.08818,42.04532],[-91.09718,42.04727],[-91.10299,42.04571],[-91.10663,42.0428],[-91.11688,42.04659],[-91.1162,42.05229],[-91.12607,42.0583],[-91.12777,42.06173],[-91.13446,42.06602],[-91.14514,42.07075],[-91.15015,42.07141],[-91.15306,42.07432],[-91.15926,42.07719],[-91.16236,42.07685],[-91.16896,42.08123],[-91.17952,42.0829],[-91.18103,42.0861],[-91.18501,42.08764],[-91.18852,42.09221],[-91.1985,42.09693],[-91.20212,42.10202],[-91.22385,42.11205],[-91.22906,42.11665],[-91.22842,42.11896],[-91.24093,42.12542],[-91.24674,42.13265],[-91.25165,42.13585],[-91.24919,42.1368],[-91.24635,42.14254],[-91.25339,42.1472],[-91.25452,42.15225],[-91.26146,42.15635],[-91.26584,42.16259],[-91.27777,42.16426],[-91.28275,42.16979],[-91.28303,42.17318],[-91.29882,42.18367],[-91.30217,42.19052],[-91.29988,42.19259],[-91.30212,42.19643],[-91.30078,42.19798],[-91.30427,42.19938],[-91.30422,42.20133],[-91.31031,42.20211],[-91.31583,42.20583],[-91.31542,42.20898],[-91.31945,42.21078],[-91.32829,42.21144],[-91.33015,42.21598],[-91.33715,42.21809],[-91.34584,42.22512],[-91.35025,42.22424],[-91.35388,42.22054],[-91.36123,42.21949],[-91.36935,42.22482],[-91.38104,42.2245],[-91.38787,42.22741],[-91.38818,42.22986],[-91.38628,42.23137],[-91.38828,42.23428],[-91.38651,42.23678],[-91.38777,42.23897],[-91.39969,42.24485],[-91.39953,42.2496],[-91.40241,42.25283],[-91.40263,42.25582],[-91.40781,42.25983],[-91.40813,42.26804],[-91.4139,42.27616],[-91.41463,42.28413],[-91.41744,42.28833],[-91.41146,42.29649],[-91.42348,42.30306],[-91.42974,42.30214],[-91.43655,42.30516],[-91.43774,42.3095],[-91.43571,42.31239],[-91.44716,42.3185],[-91.44765,42.32059],[-91.45156,42.32327],[-91.45806,42.32391],[-91.46897,42.32915],[-91.4704,42.3316],[-91.47667,42.3325],[-91.47969,42.33541],[-91.49092,42.33769],[-91.49269,42.34086],[-91.49879,42.34309],[-91.5004,42.34697],[-91.51293,42.35149],[-91.51229,42.3579],[-91.51646,42.36248],[-91.51277,42.36576],[-91.51376,42.36729],[-91.5113,42.37045],[-91.50707,42.37155],[-91.50861,42.37874],[-91.50439,42.38462],[-91.50614,42.39014],[-91.50334,42.39394],[-91.50489,42.39646],[-91.51151,42.39937],[-91.51416,42.40323],[-91.51252,42.40552],[-91.51337,42.40737],[-91.52067,42.41065],[-91.52443,42.40976],[-91.53262,42.4138],[-91.53458,42.41262],[-91.53927,42.41351],[-91.54874,42.42],[-91.54953,42.42207],[-91.55793,42.42671],[-91.56065,42.42974],[-91.56084,42.43231],[-91.56862,42.43653],[-91.56823,42.44203],[-91.56633,42.44444],[-91.56712,42.44856],[-91.56959,42.45026],[-91.57643,42.44926],[-91.58616,42.45228],[-91.59782,42.45122],[-91.60786,42.45505],[-91.61397,42.4516],[-91.61392,42.44639],[-91.61646,42.44464],[-91.628,42.44445],[-91.62956,42.44763],[-91.63675,42.45146],[-91.63657,42.45341],[-91.65127,42.46283],[-91.65336,42.46786],[-91.65661,42.46996],[-91.65984,42.47587],[-91.66626,42.47904],[-91.67073,42.48402],[-91.67491,42.49356],[-91.67748,42.49365],[-91.67976,42.49829],[-91.68963,42.50779],[-91.6884,42.51042],[-91.69127,42.51426],[-91.68823,42.51707],[-91.69,42.52276],[-91.69596,42.52985],[-91.69446,42.53253],[-91.70294,42.5438],[-91.70639,42.54587],[-91.70576,42.54751],[-91.71212,42.55175],[-91.7081,42.55726],[-91.6965,42.55865],[-91.68784,42.56356],[-91.68705,42.57026],[-91.6847,42.57286],[-91.68419,42.57625],[-91.68071,42.57757],[-91.68756,42.58586],[-91.69208,42.58612],[-91.69547,42.58881],[-91.70563,42.58956],[-91.70551,42.59175],[-91.70995,42.5946],[-91.71505,42.60558],[-91.72607,42.6131],[-91.72934,42.62102],[-91.72926,42.62593],[-91.72514,42.62713],[-91.72511,42.63248],[-91.72145,42.63602],[-91.72859,42.64144],[-91.7283,42.64401],[-91.73346,42.65157],[-91.73747,42.65414],[-91.74908,42.6572],[-91.75252,42.66108],[-91.75486,42.66477],[-91.75337,42.67131],[-91.75583,42.67919],[-91.76594,42.68274],[-91.76568,42.68703],[-91.76928,42.69114],[-91.77079,42.69983],[-91.77473,42.70217],[-91.77986,42.71117],[-91.78471,42.71493],[-91.78597,42.71698],[-91.78488,42.71896],[-91.77757,42.72515],[-91.77607,42.72821],[-91.77014,42.73137],[-91.76759,42.73545],[-91.76265,42.73738],[-91.75038,42.7381],[-91.74276,42.74191],[-91.73911,42.74125],[-91.7362,42.7347],[-91.73108,42.7307],[-91.72689,42.7301],[-91.72116,42.72466],[-91.71273,42.72415],[-91.70731,42.72792],[-91.6984,42.73043],[-91.69792,42.73584],[-91.6899,42.73593],[-91.67296,42.7424],[-91.67056,42.74739],[-91.65532,42.74875],[-91.65153,42.75116],[-91.64419,42.75047],[-91.63995,42.74576],[-91.62805,42.7439],[-91.62362,42.74145],[-91.62016,42.73342],[-91.60984,42.72594],[-91.60017,42.7228],[-91.58895,42.72389],[-91.58266,42.72075],[-91.57182,42.72063],[-91.57165,42.7152],[-91.56421,42.71012],[-91.5678,42.70275],[-91.56292,42.69829],[-91.56332,42.69212],[-91.55688,42.69117],[-91.55184,42.68652],[-91.54515,42.68475],[-91.54345,42.68641],[-91.53115,42.68215],[-91.52392,42.68223],[-91.52029,42.68016],[-91.51896,42.68105],[-91.51328,42.67874],[-91.50255,42.67815],[-91.48742,42.6742],[-91.47994,42.67635],[-91.46896,42.67463],[-91.46166,42.67921],[-91.45802,42.67855],[-91.44926,42.67153],[-91.44299,42.67157],[-91.43862,42.66524],[-91.43244,42.66451],[-91.42631,42.66025],[-91.41551,42.65798],[-91.41342,42.65467],[-91.40602,42.65093],[-91.40415,42.64576],[-91.38791,42.64061],[-91.38855,42.63661],[-91.39357,42.63008],[-91.39313,42.62696],[-91.39096,42.62591],[-91.38862,42.6201],[-91.36788,42.61518],[-91.366,42.60771],[-91.36113,42.60614],[-91.35789,42.6022],[-91.36008,42.5976],[-91.36381,42.59594],[-91.3597,42.58882],[-91.35498,42.58984],[-91.34423,42.58881],[-91.33786,42.58207],[-91.33762,42.57969],[-91.32905,42.57472],[-91.31887,42.57178],[-91.31799,42.57054],[-91.31941,42.56852],[-91.30995,42.56916],[-91.29977,42.56571],[-91.2823,42.56723],[-91.27842,42.57112],[-91.27927,42.57491],[-91.27598,42.57678],[-91.27366,42.58149],[-91.26974,42.58153],[-91.26583,42.58417],[-91.25116,42.58222],[-91.2482,42.58394],[-91.24833,42.58588],[-91.24339,42.58812],[-91.23946,42.58503],[-91.21964,42.59126],[-91.219,42.59225],[-91.22181,42.59368],[-91.22202,42.59601],[-91.21941,42.59835],[-91.22048,42.59991],[-91.21899,42.603],[-91.22277,42.60623],[-91.22231,42.60837],[-91.22975,42.61503],[-91.22782,42.61706],[-91.22171,42.61737],[-91.22053,42.6206],[-91.21139,42.62483],[-91.20783,42.62051],[-91.20997,42.61659],[-91.20864,42.6107],[-91.2042,42.61041],[-91.20011,42.60695],[-91.20303,42.6003],[-91.20072,42.59811],[-91.19039,42.59703],[-91.1868,42.59168],[-91.17921,42.59489],[-91.17563,42.5933],[-91.17302,42.59572],[-91.1667,42.59694],[-91.16608,42.59844],[-91.1632,42.59767],[-91.15696,42.60225],[-91.15336,42.60119],[-91.15182,42.60246],[-91.15235,42.6069],[-91.14825,42.60599],[-91.14554,42.60761],[-91.13668,42.60334],[-91.12566,42.60181],[-91.12448,42.60047],[-91.1194,42.60234],[-91.10981,42.60251],[-91.1057,42.60177],[-91.1053,42.59958],[-91.10233,42.59888],[-91.09876,42.60061],[-91.0924,42.59863],[-91.09186,42.60218],[-91.08831,42.60439],[-91.08164,42.60495],[-91.08238,42.60807],[-91.07514,42.61145],[-91.07402,42.6189],[-91.07155,42.61792],[-91.06626,42.61915],[-91.06621,42.62506],[-91.06064,42.62696],[-91.05695,42.63089],[-91.05116,42.62728],[-91.04461,42.62827],[-91.04582,42.63033],[-91.0434,42.63494],[-91.03494,42.63607],[-91.03394,42.63689],[-91.03503,42.63843],[-91.03272,42.63881],[-91.03115,42.64149],[-91.02802,42.64177],[-91.02572,42.64502],[-91.01942,42.64786],[-91.01865,42.65147],[-91.01246,42.65111],[-91.00566,42.64721],[-91.00365,42.64955],[-90.99519,42.64988],[-90.98878,42.64714],[-90.98318,42.63974],[-90.97978,42.63815],[-90.98084,42.63491],[-90.9882,42.62681],[-90.98824,42.62533],[-90.97727,42.61682],[-90.98324,42.6127],[-90.98159,42.60811],[-90.98467,42.60738],[-90.99077,42.60052],[-90.99569,42.60134],[-91.00231,42.59871],[-91.00359,42.59645],[-91.00788,42.59484],[-91.00674,42.59134],[-91.01378,42.59081],[-91.01621,42.58768],[-91.01555,42.58657],[-91.02052,42.5841],[-91.02383,42.57612],[-91.02616,42.57555],[-91.02601,42.57434],[-91.01969,42.56957],[-91.02074,42.56864],[-91.01955,42.56454],[-91.01284,42.56282],[-91.00741,42.55665],[-91.00058,42.55429],[-90.99906,42.55058],[-90.99666,42.54907],[-90.99634,42.54613],[-90.9903,42.5402],[-90.9836,42.53712],[-90.97607,42.53695],[-90.97569,42.53359],[-90.9724,42.5307],[-90.96379,42.52868],[-90.95973,42.52369],[-90.96037,42.51995],[-90.96274,42.51929],[-90.97287,42.51948],[-90.97562,42.51727],[-90.98405,42.51818],[-90.98585,42.51604],[-90.98523,42.51204],[-90.99283,42.50857],[-90.99425,42.50645],[-90.99373,42.50362],[-90.99675,42.50198],[-90.99732,42.49973],[-91.01504,42.49653],[-91.01136,42.48972],[-91.01121,42.48321],[-91.0092,42.48045],[-91.01083,42.47991],[-91.01324,42.47321],[-91.0114,42.47072],[-91.01173,42.46577],[-91.01663,42.46272],[-91.02166,42.45029],[-91.01961,42.45009],[-91.01582,42.44605],[-91.01645,42.44495],[-91.0135,42.44309],[-90.99703,42.44021],[-90.98684,42.44316],[-90.97703,42.44239],[-90.97061,42.43973],[-90.96216,42.44061],[-90.96233,42.44236],[-90.95358,42.44409],[-90.95282,42.44828],[-90.93072,42.44475],[-90.92783,42.44788],[-90.92901,42.45074],[-90.91856,42.44791],[-90.90739,42.44989],[-90.90552,42.44804],[-90.89949,42.44833],[-90.89818,42.44565],[-90.8952,42.44565],[-90.89052,42.45434],[-90.88413,42.45623],[-90.86945,42.45592],[-90.86724,42.45971],[-90.86206,42.46037],[-90.85983,42.46364],[-90.84967,42.46482],[-90.85117,42.45833],[-90.84427,42.44848],[-90.83696,42.44792],[-90.8253,42.4516],[-90.82217,42.45124],[-90.81618,42.4471],[-90.81669,42.44562],[-90.81444,42.44433],[-90.80993,42.43651],[-90.81027,42.43467],[-90.80406,42.43075],[-90.80736,42.42776],[-90.81962,42.42412],[-90.82994,42.42372],[-90.82769,42.4145],[-90.82956,42.41302],[-90.82937,42.40931],[-90.82476,42.40444],[-90.82194,42.39873],[-90.82265,42.39759],[-90.81819,42.39231],[-90.81849,42.38897],[-90.81475,42.38641],[-90.81355,42.38249],[-90.79514,42.36832],[-90.78353,42.371],[-90.78176,42.37318],[-90.78376,42.37807],[-90.78108,42.38196],[-90.7741,42.384],[-90.76384,42.39393],[-90.75546,42.39573],[-90.75461,42.39947],[-90.7483,42.40029],[-90.75046,42.40417],[-90.74942,42.40742],[-90.74464,42.40982],[-90.73946,42.40955],[-90.7283,42.41467],[-90.72491,42.41425],[-90.721,42.41048],[-90.71517,42.41041],[-90.70741,42.40726],[-90.70061,42.40206],[-90.69136,42.40039],[-90.68771,42.39819],[-90.6856,42.39261],[-90.67975,42.3889],[-90.6783,42.38857],[-90.67132,42.39521],[-90.66648,42.39677],[-90.66235,42.39544],[-90.6604,42.39213],[-90.66356,42.38879],[-90.65683,42.38607],[-90.65909,42.38271],[-90.6555,42.37898],[-90.64982,42.37692],[-90.64907,42.37232],[-90.65655,42.36992],[-90.65652,42.36618],[-90.66424,42.35956],[-90.66359,42.35668],[-90.66584,42.35275],[-90.67408,42.34782],[-90.67436,42.34607],[-90.67026,42.34497],[-90.667,42.33943],[-90.66064,42.33652],[-90.66243,42.33351],[-90.6606,42.33221],[-90.66107,42.33037],[-90.66554,42.32773],[-90.6656,42.32603],[-90.66109,42.32247],[-90.65608,42.32367],[-90.64976,42.32048],[-90.64246,42.32475],[-90.63677,42.32009],[-90.62727,42.31808],[-90.62484,42.31999],[-90.6201,42.3178],[-90.61678,42.31992],[-90.61387,42.3153],[-90.61084,42.31389],[-90.60238,42.31153],[-90.59804,42.31284],[-90.59233,42.30869],[-90.59711,42.30203],[-90.59226,42.29552],[-90.59722,42.2916],[-90.59434,42.28755],[-90.59002,42.28656],[-90.58922,42.27927],[-90.57928,42.27699],[-90.57567,42.27459],[-90.57508,42.27163],[-90.57822,42.27031],[-90.57996,42.26034],[-90.57576,42.25775],[-90.57183,42.25936],[-90.57011,42.25536],[-90.55623,42.24753],[-90.55783,42.24369],[-90.55682,42.24218],[-90.54953,42.2416],[-90.55049,42.23794],[-90.54393,42.22914],[-90.54405,42.2274],[-90.53987,42.22688],[-90.53813,42.22339],[-90.53472,42.22231],[-90.53074,42.21811],[-90.53194,42.2169],[-90.52999,42.21431],[-90.53029,42.21123],[-90.52326,42.20846],[-90.52076,42.20509],[-90.52183,42.20328],[-90.51854,42.19542],[-90.52122,42.1915],[-90.51856,42.18866],[-90.51844,42.18494],[-90.52485,42.18252],[-90.52815,42.17782],[-90.52534,42.17544],[-90.52449,42.17059],[-90.51803,42.16792],[-90.51226,42.16103],[-90.50779,42.16142],[-90.50436,42.15976],[-90.49277,42.16467],[-90.47112,42.16327],[-90.46773,42.16854],[-90.46185,42.16845],[-90.46216,42.17078],[-90.45734,42.17125],[-90.45481,42.17443],[-90.44249,42.17283],[-90.44009,42.17541],[-90.42951,42.17359],[-90.42547,42.16769],[-90.41936,42.16329],[-90.40465,42.16072],[-90.40452,42.16308],[-90.397,42.16529],[-90.39334,42.17194],[-90.38897,42.17348],[-90.3851,42.17079],[-90.37815,42.17139],[-90.37585,42.17005],[-90.37481,42.16749],[-90.37724,42.15921],[-90.37646,42.15707],[-90.36354,42.15544],[-90.35444,42.15713],[-90.34908,42.15508],[-90.34486,42.15803],[-90.34172,42.15771],[-90.33824,42.16269],[-90.33596,42.16337],[-90.33457,42.1625],[-90.3377,42.15701],[-90.33468,42.15521],[-90.33062,42.14523],[-90.33451,42.14074],[-90.33018,42.13544],[-90.3196,42.13003],[-90.31455,42.12965],[-90.30895,42.13173],[-90.3045,42.13163],[-90.30208,42.12991],[-90.30104,42.12452],[-90.30228,42.12293],[-90.30023,42.12123],[-90.30125,42.11795],[-90.30328,42.11718],[-90.30044,42.10968],[-90.30326,42.10201],[-90.30756,42.10045],[-90.30616,42.09786],[-90.30975,42.09617],[-90.30778,42.09146],[-90.31259,42.09087],[-90.31386,42.0885],[-90.31159,42.08518],[-90.31624,42.08406],[-90.31792,42.0797],[-90.32167,42.0781],[-90.32263,42.07267],[-90.33138,42.06849],[-90.33339,42.06895],[-90.33629,42.06477],[-90.33418,42.05792],[-90.33591,42.05589],[-90.33459,42.05422],[-90.33577,42.04863],[-90.33128,42.04294],[-90.32944,42.03653],[-90.34039,42.02585],[-90.33897,42.02017],[-90.33284,42.01977],[-90.32787,42.01297],[-90.32941,42.00993],[-90.32722,42.00699],[-90.32663,42.00032],[-90.33072,41.99616],[-90.33157,41.99229],[-90.32898,41.99087],[-90.33072,41.9876],[-90.32867,41.98662],[-90.32722,41.98297],[-90.33649,41.97866],[-90.34115,41.97827],[-90.3425,41.97627],[-90.35259,41.97629],[-90.34567,41.96461],[-90.34511,41.96143],[-90.34645,41.95949],[-90.35013,41.95711],[-90.35338,41.95925],[-90.35774,41.95848],[-90.36865,41.96314],[-90.37091,41.96205],[-90.37394,41.96513],[-90.39267,41.96705],[-90.40199,41.96059],[-90.41666,41.95911],[-90.41654,41.95758],[-90.42004,41.95667],[-90.41956,41.95448],[-90.42199,41.95363],[-90.42186,41.95228],[-90.42758,41.95085],[-90.42857,41.94693],[-90.43695,41.94423],[-90.43702,41.9412],[-90.43986,41.93978],[-90.43914,41.93775],[-90.44081,41.93356],[-90.44602,41.93119],[-90.44828,41.92564],[-90.45874,41.92351],[-90.46434,41.92447],[-90.46912,41.9275],[-90.47374,41.92598],[-90.48093,41.92812],[-90.48397,41.92666],[-90.48494,41.9256],[-90.48165,41.91902],[-90.48791,41.91882],[-90.49003,41.91212]],[[-91.44667,42.48822],[-91.44681,42.48953],[-91.44406,42.49039],[-91.43258,42.49056],[-91.42972,42.49296],[-91.42315,42.4922],[-91.41832,42.49594],[-91.41437,42.50263],[-91.41876,42.50667],[-91.41863,42.51057],[-91.4305,42.51321],[-91.43699,42.51095],[-91.44812,42.51534],[-91.45298,42.51393],[-91.45821,42.50708],[-91.45742,42.50519],[-91.46173,42.50376],[-91.46182,42.49678],[-91.45858,42.49583],[-91.45754,42.49092],[-91.45142,42.48529],[-91.44857,42.48583],[-91.44667,42.48822]]]}}]}