{"type":"FeatureCollection","features":[{"type":"Feature","properties":{},"geometry":{"type":"Polygon","coordinates":[[[-95.58217,40.87453],[-95.5876,40.87714],[-95.59906,40.87533],[-95.60457,40.88037],[-95.6119,40.88197],[-95.62721,40.89161],[-95.64129,40.89208],[-95.65147,40.89704],[-95.65144,40.89942],[-95.65515,40.90294],[-95.65923,40.90339],[-95.66054,40.90495],[-95.6623,40.90939],[-95.66247,40.92067],[-95.66725,40.92304],[-95.67211,40.93108],[-95.66936,40.93639],[-95.66824,40.9445],[-95.66864,40.94693],[-95.67177,40.94935],[-95.67158,40.95669],[-95.67047,40.95943],[-95.66833,40.96014],[-95.66863,40.96309],[-95.66656,40.96565],[-95.66913,40.97344],[-95.66377,40.97718],[-95.66393,40.98],[-95.66842,40.98384],[-95.66922,40.98933],[-95.67197,40.9922],[-95.66985,40.99524],[-95.66993,40.9984],[-95.6652,40.99879],[-95.65895,41.00324],[-95.66464,41.01575],[-95.66465,41.02733],[-95.6705,41.03581],[-95.66949,41.03795],[-95.67281,41.04445],[-95.6717,41.05061],[-95.67493,41.05533],[-95.67453,41.05767],[-95.67822,41.06081],[-95.67789,41.0627],[-95.67416,41.0637],[-95.67086,41.07686],[-95.66526,41.07778],[-95.66076,41.08113],[-95.65978,41.08632],[-95.66269,41.09231],[-95.66259,41.09911],[-95.65996,41.10229],[-95.66224,41.10633],[-95.66099,41.10926],[-95.663,41.11234],[-95.66817,41.11383],[-95.67195,41.11693],[-95.67173,41.12215],[-95.65998,41.12814],[-95.65816,41.13189],[-95.65978,41.13605],[-95.65688,41.13819],[-95.65397,41.14515],[-95.65419,41.14922],[-95.65732,41.1551],[-95.64987,41.16371],[-95.64595,41.16415],[-95.64538,41.17029],[-95.64175,41.17288],[-95.64157,41.17539],[-95.63709,41.17679],[-95.63432,41.18341],[-95.63575,41.18449],[-95.6356,41.18727],[-95.63859,41.18867],[-95.63848,41.19288],[-95.64271,41.19684],[-95.64247,41.20329],[-95.64813,41.21061],[-95.64389,41.21425],[-95.64851,41.22024],[-95.64904,41.22311],[-95.64715,41.22663],[-95.64867,41.23066],[-95.65209,41.23303],[-95.65243,41.23897],[-95.6489,41.24163],[-95.64857,41.24824],[-95.65057,41.24991],[-95.64895,41.25255],[-95.64982,41.25447],[-95.6469,41.25748],[-95.64686,41.2663],[-95.64223,41.26881],[-95.64252,41.27164],[-95.63782,41.27319],[-95.63721,41.27481],[-95.63538,41.29531],[-95.63445,41.29676],[-95.63038,41.29658],[-95.62473,41.29911],[-95.62343,41.30305],[-95.61845,41.30366],[-95.61647,41.31345],[-95.61811,41.31494],[-95.61815,41.31907],[-95.6139,41.32686],[-95.60971,41.3258],[-95.6052,41.33186],[-95.60644,41.33393],[-95.60374,41.33893],[-95.60416,41.34304],[-95.6,41.34546],[-95.60164,41.35241],[-95.5989,41.35216],[-95.59292,41.35612],[-95.58742,41.36159],[-95.58712,41.36362],[-95.58,41.36532],[-95.5802,41.36359],[-95.57702,41.36144],[-95.57231,41.36384],[-95.56959,41.36642],[-95.56644,41.37802],[-95.5646,41.37947],[-95.55305,41.38039],[-95.5525,41.38974],[-95.5467,41.3903],[-95.54617,41.39257],[-95.54278,41.39403],[-95.54305,41.40353],[-95.53733,41.40332],[-95.52721,41.40683],[-95.5266,41.40945],[-95.52028,41.41165],[-95.51775,41.4143],[-95.52151,41.41884],[-95.51491,41.42388],[-95.51533,41.42838],[-95.51204,41.43503],[-95.50821,41.43455],[-95.50675,41.43597],[-95.5078,41.44107],[-95.51294,41.44432],[-95.5132,41.44591],[-95.51023,41.44902],[-95.51046,41.45301],[-95.50635,41.45422],[-95.50244,41.45686],[-95.5014,41.45974],[-95.497,41.46138],[-95.50002,41.46704],[-95.49901,41.46994],[-95.49564,41.47238],[-95.49778,41.47614],[-95.49779,41.47865],[-95.49468,41.48176],[-95.49734,41.48657],[-95.49581,41.49892],[-95.48653,41.50482],[-95.48081,41.50638],[-95.47747,41.51321],[-95.47352,41.51524],[-95.47067,41.51988],[-95.46449,41.52291],[-95.46483,41.52691],[-95.46054,41.53098],[-95.46075,41.53844],[-95.45612,41.54088],[-95.45689,41.54309],[-95.45301,41.54627],[-95.45425,41.54869],[-95.45251,41.55221],[-95.45481,41.55665],[-95.44909,41.56234],[-95.44919,41.56535],[-95.45182,41.56816],[-95.44873,41.57194],[-95.45007,41.57341],[-95.44436,41.57714],[-95.44941,41.5827],[-95.44876,41.58906],[-95.44411,41.59195],[-95.44114,41.59654],[-95.43206,41.60234],[-95.43138,41.6052],[-95.43283,41.60659],[-95.4254,41.6115],[-95.42224,41.61588],[-95.42262,41.61868],[-95.41711,41.63319],[-95.41863,41.63718],[-95.40551,41.64436],[-95.40238,41.65078],[-95.40397,41.65527],[-95.40295,41.65801],[-95.3948,41.66575],[-95.39442,41.66794],[-95.39058,41.66886],[-95.38789,41.67986],[-95.38502,41.68218],[-95.38206,41.6886],[-95.38158,41.69432],[-95.38414,41.70013],[-95.38322,41.70323],[-95.38471,41.70488],[-95.38938,41.70541],[-95.3938,41.71284],[-95.39713,41.71442],[-95.39653,41.72058],[-95.40308,41.72335],[-95.41094,41.73285],[-95.40639,41.73809],[-95.40382,41.73769],[-95.39273,41.74207],[-95.38791,41.7491],[-95.38751,41.75248],[-95.38984,41.75495],[-95.39025,41.75806],[-95.38671,41.7617],[-95.39216,41.76486],[-95.39274,41.76667],[-95.3972,41.76657],[-95.39718,41.76925],[-95.38938,41.77185],[-95.38727,41.77613],[-95.38839,41.77726],[-95.38529,41.77914],[-95.38164,41.77896],[-95.3806,41.78222],[-95.3769,41.78396],[-95.37346,41.78243],[-95.36888,41.7851],[-95.36615,41.78466],[-95.36354,41.78877],[-95.36535,41.7927],[-95.36866,41.79287],[-95.36918,41.79569],[-95.37364,41.79648],[-95.37477,41.79832],[-95.37383,41.80306],[-95.37664,41.80553],[-95.38412,41.8078],[-95.38011,41.81077],[-95.38044,41.81342],[-95.38452,41.81628],[-95.38291,41.81775],[-95.38481,41.82448],[-95.38215,41.82489],[-95.37981,41.82829],[-95.38102,41.82952],[-95.38014,41.83338],[-95.37661,41.83458],[-95.38106,41.84421],[-95.37857,41.84676],[-95.38307,41.85309],[-95.38634,41.85369],[-95.38403,41.85929],[-95.38858,41.86456],[-95.39959,41.8646],[-95.4015,41.87156],[-95.40392,41.8744],[-95.40157,41.87645],[-95.40167,41.87902],[-95.39711,41.88059],[-95.39506,41.88366],[-95.39671,41.8854],[-95.39435,41.88722],[-95.39398,41.89014],[-95.38509,41.89482],[-95.38479,41.89764],[-95.38122,41.89644],[-95.37386,41.89839],[-95.36881,41.89273],[-95.36776,41.8946],[-95.35989,41.89805],[-95.36032,41.89945],[-95.35449,41.90511],[-95.35014,41.90363],[-95.34618,41.90572],[-95.34355,41.90873],[-95.34387,41.91138],[-95.33895,41.91423],[-95.33981,41.91635],[-95.3328,41.92189],[-95.32412,41.92013],[-95.322,41.92505],[-95.31644,41.9233],[-95.30866,41.92714],[-95.30671,41.92554],[-95.29943,41.92763],[-95.29128,41.92558],[-95.28851,41.93153],[-95.28863,41.93603],[-95.28922,41.9386],[-95.29673,41.94393],[-95.29512,41.94426],[-95.29508,41.94652],[-95.29906,41.94895],[-95.29683,41.95404],[-95.28641,41.95578],[-95.28328,41.95986],[-95.27515,41.95945],[-95.27339,41.95732],[-95.26485,41.95605],[-95.25259,41.95905],[-95.2512,41.96022],[-95.25425,41.96373],[-95.25346,41.96527],[-95.25601,41.96984],[-95.25146,41.97231],[-95.25206,41.97629],[-95.24799,41.98078],[-95.24988,41.98254],[-95.24726,41.98381],[-95.24837,41.98702],[-95.24053,41.98576],[-95.23689,41.98779],[-95.23865,41.99037],[-95.23646,41.99166],[-95.23008,41.98803],[-95.22649,41.98958],[-95.21863,41.98776],[-95.21673,41.98945],[-95.21804,41.99301],[-95.21328,41.99526],[-95.20934,41.99617],[-95.19982,41.99449],[-95.20003,41.99822],[-95.20233,42.00018],[-95.20163,42.00229],[-95.19822,42.00306],[-95.19563,42.00682],[-95.19586,42.00907],[-95.18604,42.01017],[-95.18373,42.01215],[-95.18388,42.01575],[-95.17884,42.01578],[-95.17815,42.01833],[-95.17367,42.01785],[-95.17431,42.02117],[-95.17284,42.02169],[-95.16856,42.02016],[-95.16763,42.01704],[-95.16472,42.01783],[-95.15968,42.01495],[-95.15654,42.01653],[-95.14959,42.01376],[-95.14167,42.02035],[-95.13651,42.01976],[-95.13224,42.01665],[-95.12657,42.01737],[-95.12775,42.02126],[-95.12418,42.02192],[-95.12072,42.02514],[-95.11837,42.02487],[-95.11277,42.02988],[-95.09656,42.02521],[-95.0923,42.02562],[-95.08647,42.02292],[-95.08106,42.02552],[-95.07064,42.02336],[-95.06651,42.02445],[-95.06382,42.02757],[-95.05968,42.02736],[-95.06161,42.03118],[-95.0595,42.0318],[-95.05878,42.03739],[-95.04967,42.03882],[-95.04634,42.04281],[-95.04325,42.04112],[-95.0416,42.04195],[-95.02301,42.03225],[-95.02181,42.02978],[-95.02299,42.02812],[-95.01947,42.02012],[-95.01176,42.01287],[-95.0115,42.00887],[-95.00535,42.00438],[-95.004,42.00031],[-95.00647,41.99656],[-94.99878,41.99159],[-94.99499,41.9922],[-94.98749,41.98964],[-94.98059,41.98461],[-94.98317,41.98123],[-94.98151,41.97868],[-94.98208,41.97559],[-94.97819,41.97244],[-94.97709,41.96822],[-94.98309,41.96469],[-94.97589,41.96068],[-94.97377,41.95617],[-94.96906,41.95578],[-94.96724,41.95412],[-94.96778,41.95049],[-94.96192,41.94298],[-94.96335,41.94034],[-94.95808,41.93752],[-94.95398,41.93229],[-94.95498,41.92947],[-94.95881,41.9281],[-94.95781,41.92412],[-94.9639,41.92426],[-94.96928,41.92233],[-94.97012,41.91919],[-94.97318,41.91773],[-94.97796,41.91904],[-94.99603,41.91236],[-94.991,41.90776],[-94.99524,41.90093],[-94.98928,41.89904],[-94.9827,41.89407],[-94.98323,41.89223],[-94.97625,41.88325],[-94.979,41.88139],[-94.97489,41.87745],[-94.9714,41.87811],[-94.97138,41.87515],[-94.96459,41.87054],[-94.96535,41.86867],[-94.95797,41.86485],[-94.96014,41.86247],[-94.957,41.86],[-94.95456,41.86027],[-94.95424,41.85705],[-94.94983,41.85159],[-94.94674,41.85195],[-94.94077,41.8474],[-94.93684,41.84713],[-94.93514,41.84374],[-94.93261,41.8432],[-94.92868,41.83888],[-94.92989,41.83376],[-94.92375,41.83111],[-94.91824,41.82343],[-94.92197,41.82034],[-94.91162,41.81272],[-94.91562,41.81249],[-94.92064,41.80169],[-94.92678,41.80317],[-94.93149,41.79853],[-94.93562,41.79717],[-94.93525,41.79489],[-94.94598,41.78989],[-94.9469,41.78835],[-94.94079,41.78374],[-94.94449,41.77921],[-94.94808,41.77693],[-94.95938,41.77595],[-94.9608,41.76955],[-94.96976,41.76708],[-94.96982,41.76306],[-94.97498,41.76265],[-94.97604,41.76016],[-94.97359,41.75643],[-94.97445,41.75328],[-94.97147,41.75025],[-94.97223,41.74726],[-94.96455,41.74486],[-94.9639,41.74268],[-94.96772,41.73651],[-94.96698,41.73354],[-94.97237,41.73044],[-94.97317,41.72716],[-94.96597,41.72203],[-94.96547,41.71681],[-94.97021,41.71626],[-94.97182,41.71445],[-94.97849,41.71648],[-94.98067,41.71132],[-94.98382,41.71099],[-94.98231,41.7073],[-94.98448,41.7046],[-94.99714,41.7059],[-95.00544,41.71186],[-95.01001,41.71333],[-95.0136,41.7108],[-95.01172,41.70859],[-95.01267,41.70687],[-95.01902,41.70379],[-95.03726,41.70571],[-95.03964,41.70729],[-95.0436,41.70334],[-95.04453,41.70104],[-95.04325,41.6993],[-95.0472,41.69404],[-95.05152,41.69526],[-95.0532,41.69353],[-95.05809,41.69414],[-95.0598,41.69297],[-95.06365,41.69552],[-95.07066,41.69546],[-95.07733,41.69303],[-95.08096,41.6896],[-95.08564,41.68859],[-95.10621,41.68915],[-95.10832,41.69315],[-95.11556,41.69344],[-95.12378,41.69097],[-95.12812,41.68835],[-95.13061,41.68458],[-95.13322,41.68415],[-95.13537,41.68146],[-95.13589,41.67634],[-95.14063,41.6753],[-95.14405,41.66669],[-95.14845,41.6658],[-95.14894,41.66383],[-95.15147,41.66272],[-95.1503,41.66063],[-95.15665,41.65657],[-95.15891,41.65228],[-95.16539,41.64981],[-95.16889,41.64614],[-95.16462,41.64168],[-95.17282,41.63427],[-95.17513,41.62999],[-95.17422,41.62632],[-95.17567,41.62403],[-95.17468,41.61922],[-95.16937,41.61733],[-95.16678,41.61247],[-95.17348,41.60958],[-95.17537,41.60549],[-95.17307,41.60179],[-95.17773,41.59694],[-95.18402,41.59623],[-95.18488,41.59111],[-95.19037,41.58749],[-95.18953,41.58305],[-95.19171,41.57957],[-95.19039,41.57804],[-95.19314,41.5774],[-95.19369,41.57511],[-95.1922,41.57433],[-95.1908,41.56611],[-95.19337,41.56278],[-95.19785,41.5606],[-95.19613,41.55154],[-95.20176,41.5493],[-95.20773,41.55134],[-95.21555,41.53236],[-95.21709,41.53198],[-95.22029,41.53566],[-95.22349,41.53661],[-95.23177,41.53581],[-95.23322,41.53997],[-95.24414,41.5377],[-95.25268,41.53012],[-95.2528,41.52305],[-95.24795,41.51701],[-95.24684,41.51223],[-95.24044,41.50865],[-95.23999,41.50286],[-95.23799,41.50113],[-95.23816,41.49739],[-95.24383,41.49359],[-95.24405,41.49056],[-95.24607,41.48965],[-95.24517,41.48617],[-95.2433,41.48517],[-95.24397,41.48347],[-95.23747,41.48156],[-95.23593,41.47454],[-95.23925,41.46937],[-95.23782,41.46664],[-95.22062,41.4586],[-95.2183,41.45089],[-95.2217,41.44669],[-95.22127,41.44125],[-95.22995,41.43599],[-95.23089,41.42973],[-95.23798,41.42317],[-95.23903,41.4191],[-95.2306,41.41531],[-95.23218,41.41145],[-95.23005,41.40666],[-95.23173,41.40192],[-95.23028,41.40002],[-95.22595,41.39926],[-95.22611,41.39599],[-95.23148,41.39347],[-95.2326,41.39084],[-95.23997,41.38481],[-95.25011,41.38197],[-95.25088,41.37844],[-95.24902,41.37546],[-95.25697,41.36683],[-95.25505,41.35971],[-95.25767,41.35862],[-95.25533,41.35468],[-95.25618,41.35061],[-95.25952,41.34741],[-95.25545,41.34395],[-95.25733,41.34124],[-95.25691,41.33805],[-95.25127,41.33516],[-95.25146,41.3311],[-95.2466,41.32582],[-95.24713,41.32348],[-95.24518,41.32208],[-95.24588,41.31896],[-95.2436,41.31518],[-95.24762,41.30974],[-95.2449,41.3052],[-95.24884,41.30113],[-95.24825,41.29494],[-95.2432,41.28781],[-95.24525,41.28478],[-95.24324,41.28165],[-95.23444,41.27902],[-95.23369,41.2742],[-95.23006,41.26896],[-95.23045,41.26308],[-95.2331,41.26131],[-95.23265,41.25893],[-95.23543,41.25633],[-95.23985,41.24165],[-95.23797,41.23895],[-95.23766,41.23227],[-95.23228,41.22718],[-95.23246,41.22191],[-95.2366,41.21851],[-95.23942,41.21823],[-95.24089,41.21342],[-95.25166,41.20455],[-95.25086,41.19531],[-95.25764,41.19412],[-95.25839,41.19051],[-95.26154,41.18904],[-95.26369,41.18985],[-95.26724,41.18466],[-95.27021,41.18572],[-95.27171,41.18132],[-95.26897,41.17674],[-95.27354,41.16743],[-95.27948,41.16234],[-95.28272,41.16209],[-95.28569,41.15676],[-95.28928,41.15489],[-95.29335,41.14952],[-95.29415,41.14244],[-95.29676,41.13794],[-95.30173,41.13513],[-95.29828,41.13073],[-95.30169,41.126],[-95.30077,41.12439],[-95.3024,41.11998],[-95.30682,41.11516],[-95.30667,41.1089],[-95.3135,41.10587],[-95.31617,41.09421],[-95.31894,41.09034],[-95.31767,41.08859],[-95.32129,41.08168],[-95.32053,41.08064],[-95.32389,41.07791],[-95.32881,41.07801],[-95.33472,41.07395],[-95.33882,41.07433],[-95.34341,41.06837],[-95.3488,41.05698],[-95.34907,41.05334],[-95.35184,41.05153],[-95.35311,41.04137],[-95.35675,41.03907],[-95.35632,41.0336],[-95.35785,41.03027],[-95.35971,41.02987],[-95.35939,41.02735],[-95.36367,41.01676],[-95.36655,41.01423],[-95.36586,41.01169],[-95.37204,41.00608],[-95.37859,41.00544],[-95.38286,41.00185],[-95.3838,40.9942],[-95.38571,40.98953],[-95.38837,40.98821],[-95.38464,40.98747],[-95.38518,40.98337],[-95.38895,40.98043],[-95.38947,40.97609],[-95.39448,40.9698],[-95.39959,40.96811],[-95.40255,40.96952],[-95.4065,40.96901],[-95.41685,40.97401],[-95.42115,40.97979],[-95.42583,40.97927],[-95.42666,40.97309],[-95.42966,40.97142],[-95.42684,40.96663],[-95.42811,40.96436],[-95.42539,40.95595],[-95.42721,40.95033],[-95.43086,40.9478],[-95.42895,40.9452],[-95.43263,40.93918],[-95.43047,40.93857],[-95.42978,40.93471],[-95.43533,40.93008],[-95.43481,40.92695],[-95.44016,40.9243],[-95.44392,40.92562],[-95.44569,40.92149],[-95.45717,40.91768],[-95.46462,40.9099],[-95.46412,40.90657],[-95.47452,40.90587],[-95.47626,40.9035],[-95.47556,40.89856],[-95.47712,40.89618],[-95.48716,40.89782],[-95.48942,40.89681],[-95.49515,40.88473],[-95.49426,40.87948],[-95.49951,40.87751],[-95.50554,40.8804],[-95.5133,40.8802],[-95.51758,40.87675],[-95.51882,40.87217],[-95.52649,40.86851],[-95.5332,40.87159],[-95.53824,40.86775],[-95.54001,40.86221],[-95.5434,40.86187],[-95.54446,40.86368],[-95.54754,40.86422],[-95.55542,40.87271],[-95.56505,40.87254],[-95.57426,40.8755],[-95.57696,40.87338],[-95.58217,40.87453]]]}}]}