{"type":"FeatureCollection","features":[{"type":"Feature","properties":{},"geometry":{"type":"Polygon","coordinates":[[[-95.39044,43.45478],[-95.39444,43.45208],[-95.41066,43.45395],[-95.4177,43.45179],[-95.42669,43.45375],[-95.42743,43.45235],[-95.42792,43.45464],[-95.42607,43.45679],[-95.42755,43.46238],[-95.43401,43.46749],[-95.4567,43.47182],[-95.45685,43.47427],[-95.45205,43.47744],[-95.44982,43.47706],[-95.44959,43.48105],[-95.44587,43.47998],[-95.44502,43.48264],[-95.44068,43.48356],[-95.44062,43.48605],[-95.44369,43.48867],[-95.43828,43.49188],[-95.43849,43.49387],[-95.42933,43.49191],[-95.42766,43.49394],[-95.43284,43.49985],[-95.41784,43.50104],[-95.41623,43.49933],[-95.40773,43.4989],[-95.38932,43.50239],[-95.38414,43.50018],[-95.37481,43.50002],[-95.37306,43.50263],[-95.36985,43.50254],[-95.37041,43.50383],[-95.36748,43.50583],[-95.35966,43.5035],[-95.35999,43.49959],[-95.35641,43.49839],[-95.35205,43.49308],[-95.34697,43.49153],[-95.34491,43.48802],[-95.3383,43.48896],[-95.33845,43.48692],[-95.33298,43.48349],[-95.33346,43.48084],[-95.33124,43.48118],[-95.32812,43.47822],[-95.33041,43.47178],[-95.32582,43.46686],[-95.32727,43.46283],[-95.32604,43.46208],[-95.33762,43.45611],[-95.33767,43.45327],[-95.34759,43.45539],[-95.35518,43.45282],[-95.35926,43.45497],[-95.36184,43.45274],[-95.36528,43.45363],[-95.36781,43.45637],[-95.36744,43.45469],[-95.37015,43.45331],[-95.38374,43.45199],[-95.39044,43.45478]]]}}]}