{"type":"FeatureCollection","features":[{"type":"Feature","properties":{},"geometry":{"type":"Polygon","coordinates":[[[-91.62873,42.77521],[-91.62873,42.76687],[-91.63289,42.76687],[-91.63289,42.76271],[-91.64123,42.76271],[-91.64123,42.76687],[-91.64539,42.76687],[-91.64539,42.76271],[-91.64956,42.76271],[-91.64956,42.75437],[-91.65789,42.75437],[-91.65789,42.75021],[-91.67039,42.75021],[-91.67039,42.74604],[-91.67873,42.74604],[-91.67873,42.74187],[-91.68706,42.74187],[-91.68706,42.73771],[-91.70373,42.73771],[-91.70373,42.73354],[-91.7079,42.73354],[-91.7079,42.72937],[-91.71206,42.72937],[-91.71206,42.7252],[-91.72873,42.7252],[-91.72873,42.73354],[-91.74123,42.73354],[-91.74123,42.74604],[-91.7579,42.74604],[-91.7579,42.74187],[-91.7704,42.74187],[-91.7704,42.73771],[-91.77457,42.73771],[-91.77457,42.73354],[-91.7829,42.73354],[-91.7829,42.7252],[-91.78707,42.7252],[-91.78707,42.7127],[-91.7829,42.7127],[-91.7829,42.70437],[-91.77874,42.70437],[-91.77874,42.7002],[-91.77457,42.7002],[-91.77457,42.69187],[-91.7704,42.69187],[-91.7704,42.68353],[-91.76207,42.68353],[-91.76207,42.6627],[-91.7579,42.6627],[-91.7579,42.65853],[-91.74123,42.65853],[-91.74123,42.65437],[-91.73707,42.65437],[-91.73707,42.6502],[-91.7329,42.6502],[-91.7329,42.6377],[-91.72873,42.6377],[-91.72873,42.63353],[-91.7329,42.63353],[-91.7329,42.62103],[-91.72873,42.62103],[-91.72873,42.6127],[-91.72457,42.6127],[-91.72457,42.60853],[-91.71623,42.60853],[-91.71623,42.60019],[-91.71206,42.60019],[-91.71206,42.59603],[-91.7079,42.59603],[-91.7079,42.59186],[-91.69123,42.59186],[-91.69123,42.58353],[-91.68706,42.58353],[-91.68706,42.57936],[-91.69123,42.57936],[-91.69123,42.56686],[-91.6954,42.56686],[-91.6954,42.56269],[-91.7079,42.56269],[-91.7079,42.55852],[-91.71206,42.55852],[-91.71206,42.55019],[-91.7079,42.55019],[-91.7079,42.54602],[-91.70373,42.54602],[-91.70373,42.53769],[-91.69956,42.53769],[-91.69956,42.53352],[-91.6954,42.53352],[-91.6954,42.52519],[-91.69123,42.52519],[-91.69123,42.50435],[-91.6829,42.50435],[-91.6829,42.49602],[-91.67873,42.49602],[-91.67873,42.48769],[-91.67039,42.48769],[-91.67039,42.47935],[-91.66206,42.47935],[-91.66206,42.47518],[-91.65789,42.47518],[-91.65789,42.46685],[-91.64956,42.46685],[-91.64956,42.45852],[-91.64123,42.45852],[-91.64123,42.45435],[-91.63706,42.45435],[-91.63706,42.45018],[-91.62039,42.45018],[-91.62039,42.45435],[-91.61622,42.45435],[-91.61622,42.45852],[-91.60789,42.45852],[-91.60789,42.45435],[-91.59539,42.45435],[-91.59539,42.45852],[-91.59122,42.45852],[-91.59122,42.45435],[-91.57455,42.45435],[-91.57455,42.43768],[-91.56622,42.43768],[-91.56622,42.43351],[-91.56205,42.43351],[-91.56205,42.42518],[-91.54955,42.42518],[-91.54955,42.41685],[-91.52872,42.41685],[-91.52872,42.41268],[-91.52038,42.41268],[-91.52038,42.40018],[-91.50788,42.40018],[-91.50788,42.39184],[-91.51205,42.39184],[-91.51205,42.37518],[-91.51622,42.37518],[-91.51622,42.35434],[-91.50788,42.35434],[-91.50788,42.35017],[-91.50371,42.35017],[-91.50371,42.34601],[-91.49538,42.34601],[-91.49538,42.34184],[-91.48288,42.34184],[-91.48288,42.33767],[-91.47455,42.33767],[-91.47455,42.32934],[-91.45788,42.32934],[-91.45788,42.32517],[-91.44121,42.32517],[-91.44121,42.31267],[-91.43704,42.31267],[-91.43704,42.3085],[-91.42454,42.3085],[-91.42454,42.30434],[-91.42037,42.30434],[-91.42037,42.30017],[-91.41621,42.30017],[-91.41621,42.296],[-91.41204,42.296],[-91.41204,42.29184],[-91.41621,42.29184],[-91.41621,42.28767],[-91.42037,42.28767],[-91.42037,42.2835],[-91.41621,42.2835],[-91.41621,42.27517],[-91.41204,42.27517],[-91.41204,42.26683],[-91.40787,42.26683],[-91.40787,42.2585],[-91.40371,42.2585],[-91.40371,42.246],[-91.39954,42.246],[-91.39954,42.24183],[-91.39121,42.24183],[-91.39121,42.23767],[-91.38704,42.23767],[-91.38704,42.2335],[-91.38287,42.2335],[-91.38287,42.22933],[-91.37037,42.22933],[-91.37037,42.22516],[-91.3537,42.22516],[-91.3537,42.22933],[-91.34954,42.22933],[-91.34954,42.22516],[-91.34537,42.22516],[-91.34537,42.221],[-91.33287,42.221],[-91.33287,42.21683],[-91.3287,42.21683],[-91.3287,42.21266],[-91.3162,42.21266],[-91.3162,42.2085],[-91.31203,42.2085],[-91.31203,42.20433],[-91.30787,42.20433],[-91.30787,42.18766],[-91.29953,42.18766],[-91.29953,42.18349],[-91.2912,42.18349],[-91.2912,42.17516],[-91.28286,42.17516],[-91.28286,42.17099],[-91.27453,42.17099],[-91.27453,42.16683],[-91.2662,42.16683],[-91.2662,42.15849],[-91.26203,42.15849],[-91.26203,42.15433],[-91.25786,42.15433],[-91.25786,42.15016],[-91.25369,42.15016],[-91.25369,42.14599],[-91.22453,42.14599],[-91.22453,42.13766],[-91.21202,42.13766],[-91.21202,42.14182],[-91.20369,42.14182],[-91.20369,42.13766],[-91.19536,42.13766],[-91.19536,42.13349],[-91.18702,42.13349],[-91.18702,42.12516],[-91.17036,42.12516],[-91.17036,42.11682],[-91.15369,42.11682],[-91.15369,42.11266],[-91.14952,42.11266],[-91.14952,42.10432],[-91.14535,42.10432],[-91.14535,42.10849],[-91.13285,42.10849],[-91.13285,42.10015],[-91.12868,42.10015],[-91.12868,42.08349],[-91.12452,42.08349],[-91.12452,42.07932],[-91.12868,42.07932],[-91.12868,42.07515],[-91.13285,42.07515],[-91.13285,42.07099],[-91.12868,42.07099],[-91.12868,42.06265],[-91.12035,42.06265],[-91.12035,42.05432],[-91.11618,42.05432],[-91.11618,42.05015],[-91.11202,42.05015],[-91.11202,42.05432],[-91.09535,42.05432],[-91.09535,42.05015],[-91.07451,42.05015],[-91.07451,42.03765],[-91.05785,42.03765],[-91.05785,42.04182],[-91.04534,42.04182],[-91.04534,42.04598],[-91.03701,42.04598],[-91.03701,42.04182],[-91.03284,42.04182],[-91.03284,42.04598],[-91.00368,42.04598],[-91.00368,42.04182],[-90.99534,42.04182],[-90.99534,42.04598],[-90.99117,42.04598],[-90.99117,42.04182],[-90.97451,42.04182],[-90.97451,42.04598],[-90.96617,42.04598],[-90.96617,42.02932],[-90.95367,42.02932],[-90.95367,42.02515],[-90.94534,42.02515],[-90.94534,42.02098],[-90.91617,42.02098],[-90.91617,42.01681],[-90.912,42.01681],[-90.912,42.00848],[-90.90367,42.00848],[-90.90367,42.00431],[-90.8995,42.00431],[-90.8995,42.00015],[-90.89117,42.00015],[-90.89117,41.99598],[-90.87866,41.99598],[-90.87866,42.00015],[-90.85783,42.00015],[-90.85783,42.00431],[-90.8495,42.00431],[-90.8495,42.01265],[-90.84533,42.01265],[-90.84533,42.01681],[-90.82866,42.01681],[-90.82866,42.02098],[-90.82449,42.02098],[-90.82449,42.01265],[-90.82033,42.01265],[-90.82033,42.00848],[-90.79532,42.00848],[-90.79532,41.99181],[-90.77866,41.99181],[-90.77866,41.97514],[-90.77449,41.97514],[-90.77449,41.97098],[-90.75365,41.97098],[-90.75365,41.96681],[-90.73699,41.96681],[-90.73699,41.96264],[-90.72449,41.96264],[-90.72449,41.95848],[-90.70365,41.95848],[-90.70365,41.96264],[-90.68698,41.96264],[-90.68698,41.95848],[-90.69115,41.95848],[-90.69115,41.95014],[-90.68698,41.95014],[-90.68698,41.94181],[-90.67865,41.94181],[-90.67865,41.93347],[-90.67032,41.93347],[-90.67032,41.93764],[-90.64948,41.93764],[-90.64948,41.94181],[-90.64531,41.94181],[-90.64531,41.95431],[-90.63281,41.95431],[-90.63281,41.95014],[-90.62448,41.95014],[-90.62448,41.95431],[-90.61198,41.95431],[-90.61198,41.95014],[-90.60781,41.95014],[-90.60781,41.95431],[-90.57864,41.95431],[-90.57864,41.95014],[-90.57447,41.95014],[-90.57447,41.94181],[-90.56197,41.94181],[-90.56197,41.93764],[-90.55364,41.93764],[-90.55364,41.94181],[-90.54947,41.94181],[-90.54947,41.92931],[-90.5453,41.92931],[-90.5453,41.92097],[-90.5328,41.92097],[-90.5328,41.91681],[-90.52447,41.91681],[-90.52447,41.91264],[-90.51614,41.91264],[-90.51614,41.90847],[-90.50364,41.90847],[-90.50364,41.91264],[-90.49947,41.91264],[-90.49947,41.91681],[-90.4953,41.91681],[-90.4953,41.92097],[-90.48697,41.92097],[-90.48697,41.93347],[-90.4828,41.93347],[-90.4828,41.92931],[-90.4578,41.92931],[-90.4578,41.93347],[-90.44946,41.93347],[-90.44946,41.93764],[-90.4453,41.93764],[-90.4453,41.94598],[-90.44113,41.94598],[-90.44113,41.95014],[-90.4328,41.95014],[-90.4328,41.95431],[-90.42029,41.95431],[-90.42029,41.95014],[-90.41196,41.95014],[-90.41196,41.95431],[-90.40779,41.95431],[-90.40779,41.95848],[-90.40363,41.95848],[-90.40363,41.96264],[-90.39529,41.96264],[-90.39529,41.96681],[-90.39113,41.96681],[-90.39113,41.97098],[-90.38696,41.97098],[-90.38696,41.97514],[-90.38279,41.97514],[-90.38279,41.97098],[-90.37446,41.97098],[-90.37446,41.96681],[-90.37029,41.96681],[-90.37029,41.96264],[-90.36612,41.96264],[-90.36612,41.96681],[-90.36196,41.96681],[-90.36196,41.96264],[-90.34946,41.96264],[-90.34946,41.97931],[-90.33696,41.97931],[-90.33696,41.98348],[-90.33279,41.98348],[-90.33279,42.00848],[-90.32862,42.00848],[-90.32862,42.01265],[-90.33279,42.01265],[-90.33279,42.01681],[-90.33696,42.01681],[-90.33696,42.02098],[-90.34112,42.02098],[-90.34112,42.03348],[-90.33696,42.03348],[-90.33696,42.03765],[-90.33279,42.03765],[-90.33279,42.04598],[-90.33696,42.04598],[-90.33696,42.05015],[-90.34112,42.05015],[-90.34112,42.06682],[-90.33696,42.06682],[-90.33696,42.07099],[-90.32862,42.07099],[-90.32862,42.07515],[-90.32445,42.07515],[-90.32445,42.08349],[-90.32029,42.08349],[-90.32029,42.09182],[-90.31612,42.09182],[-90.31612,42.09599],[-90.31195,42.09599],[-90.31195,42.10432],[-90.30362,42.10432],[-90.30362,42.11266],[-90.30779,42.11266],[-90.30779,42.14599],[-90.32029,42.14599],[-90.32029,42.15016],[-90.33279,42.15016],[-90.33279,42.15433],[-90.33696,42.15433],[-90.33696,42.16683],[-90.34529,42.16683],[-90.34529,42.17099],[-90.34946,42.17099],[-90.34946,42.17516],[-90.35362,42.17516],[-90.35362,42.17933],[-90.36612,42.17933],[-90.36612,42.17099],[-90.37862,42.17099],[-90.37862,42.17516],[-90.39529,42.17516],[-90.39529,42.17099],[-90.40779,42.17099],[-90.40779,42.16683],[-90.42029,42.16683],[-90.42029,42.17099],[-90.42446,42.17099],[-90.42446,42.17933],[-90.4328,42.17933],[-90.4328,42.17516],[-90.4453,42.17516],[-90.4453,42.17933],[-90.44946,42.17933],[-90.44946,42.16266],[-90.45363,42.16266],[-90.45363,42.15849],[-90.4578,42.15849],[-90.4578,42.16683],[-90.46196,42.16683],[-90.46196,42.17099],[-90.47863,42.17099],[-90.47863,42.16683],[-90.5078,42.16683],[-90.5078,42.16266],[-90.51614,42.16266],[-90.51614,42.17099],[-90.52447,42.17099],[-90.52447,42.17516],[-90.52864,42.17516],[-90.52864,42.18349],[-90.52447,42.18349],[-90.52447,42.2085],[-90.5328,42.2085],[-90.5328,42.21683],[-90.53697,42.21683],[-90.53697,42.22516],[-90.54114,42.22516],[-90.54114,42.22933],[-90.5453,42.22933],[-90.5453,42.2335],[-90.55364,42.2335],[-90.55364,42.24183],[-90.56197,42.24183],[-90.56197,42.25017],[-90.57031,42.25017],[-90.57031,42.25433],[-90.57447,42.25433],[-90.57447,42.2585],[-90.57864,42.2585],[-90.57864,42.26267],[-90.58281,42.26267],[-90.58281,42.26683],[-90.58697,42.26683],[-90.58697,42.271],[-90.58281,42.271],[-90.58281,42.27934],[-90.58697,42.27934],[-90.58697,42.2835],[-90.59531,42.2835],[-90.59531,42.28767],[-90.59948,42.28767],[-90.59948,42.31267],[-90.60364,42.31267],[-90.60364,42.31684],[-90.62031,42.31684],[-90.62031,42.32101],[-90.62864,42.32101],[-90.62864,42.32517],[-90.64531,42.32517],[-90.64531,42.32934],[-90.65365,42.32934],[-90.65365,42.32517],[-90.66198,42.32517],[-90.66198,42.32934],[-90.66615,42.32934],[-90.66615,42.34601],[-90.67032,42.34601],[-90.67032,42.35017],[-90.66615,42.35017],[-90.66615,42.36684],[-90.66198,42.36684],[-90.66198,42.37934],[-90.65781,42.37934],[-90.65781,42.38351],[-90.66198,42.38351],[-90.66198,42.38768],[-90.66615,42.38768],[-90.66615,42.40018],[-90.67032,42.40018],[-90.67032,42.39601],[-90.67865,42.39601],[-90.67865,42.39184],[-90.69115,42.39184],[-90.69115,42.40018],[-90.69532,42.40018],[-90.69532,42.40435],[-90.71198,42.40435],[-90.71198,42.40851],[-90.72032,42.40851],[-90.72032,42.41268],[-90.72449,42.41268],[-90.72449,42.41685],[-90.73699,42.41685],[-90.73699,42.41268],[-90.74949,42.41268],[-90.74949,42.40851],[-90.75365,42.40851],[-90.75365,42.40435],[-90.75782,42.40435],[-90.75782,42.40018],[-90.76199,42.40018],[-90.76199,42.39601],[-90.77032,42.39601],[-90.77032,42.39184],[-90.77449,42.39184],[-90.77449,42.38768],[-90.78282,42.38768],[-90.78282,42.38351],[-90.78699,42.38351],[-90.78699,42.37518],[-90.79949,42.37518],[-90.79949,42.37101],[-90.80366,42.37101],[-90.80366,42.37518],[-90.80783,42.37518],[-90.80783,42.37934],[-90.81616,42.37934],[-90.81616,42.39184],[-90.82033,42.39184],[-90.82033,42.39601],[-90.82449,42.39601],[-90.82449,42.40851],[-90.81616,42.40851],[-90.81616,42.41268],[-90.81199,42.41268],[-90.81199,42.41685],[-90.80783,42.41685],[-90.80783,42.42935],[-90.81199,42.42935],[-90.81199,42.43351],[-90.81616,42.43351],[-90.81616,42.44185],[-90.82033,42.44185],[-90.82033,42.45435],[-90.837,42.45435],[-90.837,42.45018],[-90.8495,42.45018],[-90.8495,42.45435],[-90.85366,42.45435],[-90.85366,42.46685],[-90.862,42.46685],[-90.862,42.46268],[-90.87033,42.46268],[-90.87033,42.45852],[-90.89533,42.45852],[-90.89533,42.45018],[-90.90367,42.45018],[-90.90367,42.44602],[-90.912,42.44602],[-90.912,42.45018],[-90.94534,42.45018],[-90.94534,42.44185],[-90.9495,42.44185],[-90.9495,42.43768],[-90.962,42.43768],[-90.962,42.44602],[-90.97451,42.44602],[-90.97451,42.44185],[-90.97867,42.44185],[-90.97867,42.44602],[-90.99534,42.44602],[-90.99534,42.45018],[-90.99951,42.45018],[-90.99951,42.44602],[-91.00368,42.44602],[-91.00368,42.44185],[-91.00784,42.44185],[-91.00784,42.44602],[-91.01201,42.44602],[-91.01201,42.44185],[-91.01618,42.44185],[-91.01618,42.43768],[-91.02451,42.43768],[-91.02451,42.44185],[-91.02034,42.44185],[-91.02034,42.44602],[-91.02451,42.44602],[-91.02451,42.46268],[-91.02034,42.46268],[-91.02034,42.47102],[-91.01618,42.47102],[-91.01618,42.47935],[-91.01201,42.47935],[-91.01201,42.48769],[-91.01618,42.48769],[-91.01618,42.50019],[-91.00784,42.50019],[-91.00784,42.50435],[-90.99951,42.50435],[-90.99951,42.51269],[-90.99534,42.51269],[-90.99534,42.51685],[-90.99117,42.51685],[-90.99117,42.52102],[-90.97867,42.52102],[-90.97867,42.52519],[-90.96617,42.52519],[-90.96617,42.53352],[-90.97451,42.53352],[-90.97451,42.53769],[-90.97867,42.53769],[-90.97867,42.54186],[-90.99117,42.54186],[-90.99117,42.54602],[-90.99951,42.54602],[-90.99951,42.55019],[-91.00368,42.55019],[-91.00368,42.55436],[-91.00784,42.55436],[-91.00784,42.55852],[-91.01618,42.55852],[-91.01618,42.56269],[-91.02034,42.56269],[-91.02034,42.56686],[-91.02451,42.56686],[-91.02451,42.57519],[-91.02868,42.57519],[-91.02868,42.58353],[-91.02451,42.58353],[-91.02451,42.58769],[-91.02034,42.58769],[-91.02034,42.59186],[-91.01201,42.59186],[-91.01201,42.60019],[-91.00368,42.60019],[-91.00368,42.60436],[-90.99534,42.60436],[-90.99534,42.60853],[-90.99117,42.60853],[-90.99117,42.6127],[-90.98701,42.6127],[-90.98701,42.62103],[-90.99117,42.62103],[-90.99117,42.6252],[-90.99534,42.6252],[-90.99534,42.6377],[-90.98701,42.6377],[-90.98701,42.64603],[-90.99117,42.64603],[-90.99117,42.6502],[-91.00368,42.6502],[-91.00368,42.65437],[-91.00784,42.65437],[-91.00784,42.6502],[-91.01201,42.6502],[-91.01201,42.65437],[-91.02451,42.65437],[-91.02451,42.6502],[-91.03284,42.6502],[-91.03284,42.64603],[-91.03701,42.64603],[-91.03701,42.64186],[-91.04118,42.64186],[-91.04118,42.6377],[-91.04534,42.6377],[-91.04534,42.63353],[-91.06201,42.63353],[-91.06201,42.6377],[-91.06618,42.6377],[-91.06618,42.63353],[-91.07035,42.63353],[-91.07035,42.6252],[-91.07451,42.6252],[-91.07451,42.60853],[-91.08285,42.60853],[-91.08285,42.6127],[-91.09118,42.6127],[-91.09118,42.60853],[-91.09535,42.60853],[-91.09535,42.60436],[-91.09952,42.60436],[-91.09952,42.60019],[-91.10368,42.60019],[-91.10368,42.60436],[-91.10785,42.60436],[-91.10785,42.60019],[-91.11202,42.60019],[-91.11202,42.60436],[-91.14119,42.60436],[-91.14119,42.60853],[-91.15369,42.60853],[-91.15369,42.60436],[-91.15785,42.60436],[-91.15785,42.59603],[-91.16202,42.59603],[-91.16202,42.60019],[-91.17869,42.60019],[-91.17869,42.59603],[-91.19952,42.59603],[-91.19952,42.60019],[-91.20786,42.60019],[-91.20786,42.6127],[-91.21202,42.6127],[-91.21202,42.62103],[-91.22036,42.62103],[-91.22036,42.61686],[-91.22453,42.61686],[-91.22453,42.59186],[-91.23703,42.59186],[-91.23703,42.58769],[-91.25369,42.58769],[-91.25369,42.58353],[-91.25786,42.58353],[-91.25786,42.57936],[-91.26203,42.57936],[-91.26203,42.57103],[-91.27453,42.57103],[-91.27453,42.57519],[-91.28703,42.57519],[-91.28703,42.57103],[-91.31203,42.57103],[-91.31203,42.57519],[-91.32453,42.57519],[-91.32453,42.57936],[-91.33704,42.57936],[-91.33704,42.58353],[-91.3412,42.58353],[-91.3412,42.58769],[-91.34537,42.58769],[-91.34537,42.59186],[-91.37037,42.59186],[-91.37037,42.60019],[-91.36204,42.60019],[-91.36204,42.6127],[-91.37037,42.6127],[-91.37037,42.62103],[-91.37454,42.62103],[-91.37454,42.61686],[-91.38287,42.61686],[-91.38287,42.62103],[-91.39121,42.62103],[-91.39121,42.6252],[-91.39537,42.6252],[-91.39537,42.64603],[-91.40371,42.64603],[-91.40371,42.6502],[-91.40787,42.6502],[-91.40787,42.65437],[-91.41204,42.65437],[-91.41204,42.65853],[-91.41621,42.65853],[-91.41621,42.6627],[-91.42871,42.6627],[-91.42871,42.66687],[-91.43704,42.66687],[-91.43704,42.67103],[-91.44121,42.67103],[-91.44121,42.6752],[-91.46205,42.6752],[-91.46205,42.68353],[-91.46621,42.68353],[-91.46621,42.67937],[-91.51622,42.67937],[-91.51622,42.68353],[-91.53705,42.68353],[-91.53705,42.6877],[-91.55372,42.6877],[-91.55372,42.69187],[-91.56205,42.69187],[-91.56205,42.69604],[-91.57039,42.69604],[-91.57039,42.70854],[-91.57455,42.70854],[-91.57455,42.7127],[-91.57872,42.7127],[-91.57872,42.71687],[-91.57455,42.71687],[-91.57455,42.72937],[-91.57872,42.72937],[-91.57872,42.73354],[-91.58289,42.73354],[-91.58289,42.74187],[-91.58705,42.74187],[-91.58705,42.73771],[-91.60372,42.73771],[-91.60372,42.76687],[-91.62039,42.76687],[-91.62039,42.77521],[-91.62873,42.77521]]]}}]}