{"type":"FeatureCollection","features":[{"type":"Feature","properties":{},"geometry":{"type":"Polygon","coordinates":[[[-91.2662,42.74604],[-91.2662,42.74187],[-91.27036,42.74187],[-91.27036,42.73771],[-91.27453,42.73771],[-91.27453,42.7252],[-91.27036,42.7252],[-91.27036,42.71687],[-91.27453,42.71687],[-91.27453,42.7127],[-91.2787,42.7127],[-91.2787,42.7002],[-91.27453,42.7002],[-91.27453,42.69604],[-91.27036,42.69604],[-91.27036,42.69187],[-91.2662,42.69187],[-91.2662,42.6877],[-91.23703,42.6877],[-91.23703,42.69187],[-91.22036,42.69187],[-91.22036,42.70437],[-91.22453,42.70437],[-91.22453,42.70854],[-91.22869,42.70854],[-91.22869,42.7127],[-91.23286,42.7127],[-91.23286,42.72104],[-91.23703,42.72104],[-91.23703,42.72937],[-91.25786,42.72937],[-91.25786,42.74187],[-91.26203,42.74187],[-91.26203,42.74604],[-91.2662,42.74604]]]}}]}