{"type":"FeatureCollection","features":[{"type":"Feature","properties":{},"geometry":{"type":"Polygon","coordinates":[[[-94.17207,41.57011],[-94.17256,41.56595],[-94.17082,41.56186],[-94.16621,41.56018],[-94.16792,41.55782],[-94.16472,41.55435],[-94.16505,41.55015],[-94.16871,41.54943],[-94.18071,41.54097],[-94.19209,41.54723],[-94.19692,41.54247],[-94.20474,41.54519],[-94.20844,41.5489],[-94.21233,41.54939],[-94.21777,41.54719],[-94.22428,41.54924],[-94.23337,41.54834],[-94.23584,41.54287],[-94.23313,41.53721],[-94.23552,41.53496],[-94.23579,41.53136],[-94.24138,41.52819],[-94.24095,41.52241],[-94.24546,41.52184],[-94.25017,41.51507],[-94.26729,41.50962],[-94.27229,41.50517],[-94.27192,41.49873],[-94.27481,41.49811],[-94.27749,41.49976],[-94.28444,41.49768],[-94.2946,41.49878],[-94.30439,41.50372],[-94.30911,41.504],[-94.3203,41.50237],[-94.32913,41.49895],[-94.33618,41.50708],[-94.34537,41.5108],[-94.35847,41.51264],[-94.36852,41.52012],[-94.36997,41.52291],[-94.37792,41.52325],[-94.39819,41.5194],[-94.40988,41.52316],[-94.41911,41.52944],[-94.42228,41.52804],[-94.42562,41.52368],[-94.43512,41.52039],[-94.44077,41.52689],[-94.45619,41.53373],[-94.46029,41.54121],[-94.46823,41.53917],[-94.47129,41.53419],[-94.4807,41.53201],[-94.4842,41.52875],[-94.49617,41.52719],[-94.49951,41.53252],[-94.50942,41.53645],[-94.51177,41.54382],[-94.51532,41.54567],[-94.51636,41.5486],[-94.52001,41.54756],[-94.52116,41.55047],[-94.52994,41.55904],[-94.5304,41.56161],[-94.53516,41.56359],[-94.53416,41.5668],[-94.53989,41.57011],[-94.54785,41.56917],[-94.54908,41.57309],[-94.55209,41.57458],[-94.55089,41.57992],[-94.55465,41.58038],[-94.56384,41.5885],[-94.57538,41.59365],[-94.57666,41.59603],[-94.58255,41.59207],[-94.58968,41.59375],[-94.5952,41.5922],[-94.60105,41.59404],[-94.60776,41.60066],[-94.61315,41.60162],[-94.61429,41.6002],[-94.6244,41.60245],[-94.62837,41.60516],[-94.62928,41.61296],[-94.633,41.61319],[-94.63393,41.61622],[-94.64123,41.61573],[-94.6476,41.62004],[-94.65434,41.62139],[-94.65532,41.625],[-94.65256,41.62788],[-94.65051,41.62755],[-94.65034,41.63061],[-94.65279,41.63193],[-94.6526,41.63408],[-94.65708,41.63845],[-94.66496,41.63762],[-94.66804,41.64083],[-94.66977,41.63992],[-94.67271,41.64191],[-94.68044,41.65268],[-94.67725,41.65739],[-94.67971,41.66013],[-94.67893,41.66413],[-94.68083,41.66792],[-94.68747,41.67057],[-94.68864,41.67417],[-94.69474,41.6793],[-94.69544,41.68282],[-94.71342,41.69238],[-94.71277,41.701],[-94.71686,41.70232],[-94.71736,41.70404],[-94.7153,41.70656],[-94.71668,41.70914],[-94.7155,41.71058],[-94.72138,41.71364],[-94.72028,41.71556],[-94.72237,41.72153],[-94.72799,41.7214],[-94.73042,41.72355],[-94.7304,41.72621],[-94.73373,41.72926],[-94.73237,41.73344],[-94.73527,41.73824],[-94.73446,41.74322],[-94.74063,41.74297],[-94.74708,41.74681],[-94.74394,41.75194],[-94.7469,41.75433],[-94.74787,41.75751],[-94.74526,41.75973],[-94.74855,41.76629],[-94.7514,41.76754],[-94.75493,41.77255],[-94.7596,41.771],[-94.77191,41.77498],[-94.77249,41.77646],[-94.7711,41.77957],[-94.76914,41.77999],[-94.76907,41.78216],[-94.7759,41.78515],[-94.78233,41.79041],[-94.78312,41.79278],[-94.78825,41.79499],[-94.78624,41.79705],[-94.78987,41.8006],[-94.78995,41.80252],[-94.79635,41.80657],[-94.79955,41.81085],[-94.8003,41.81434],[-94.7991,41.81675],[-94.79474,41.81973],[-94.79591,41.82298],[-94.80025,41.82471],[-94.80724,41.82059],[-94.81242,41.82249],[-94.81266,41.8271],[-94.81473,41.83025],[-94.82472,41.83858],[-94.8276,41.84529],[-94.83184,41.84768],[-94.83001,41.85459],[-94.83085,41.85787],[-94.829,41.85973],[-94.83614,41.8715],[-94.84167,41.87341],[-94.84256,41.87594],[-94.85464,41.88378],[-94.85683,41.8837],[-94.85927,41.88806],[-94.85724,41.89109],[-94.85943,41.89301],[-94.86551,41.89344],[-94.8811,41.90176],[-94.88616,41.90053],[-94.89444,41.90264],[-94.89503,41.90632],[-94.89702,41.90806],[-94.89431,41.9093],[-94.89716,41.91379],[-94.90304,41.9132],[-94.90547,41.91756],[-94.91251,41.91946],[-94.91708,41.91655],[-94.91463,41.91425],[-94.92403,41.91219],[-94.9407,41.91799],[-94.94326,41.9229],[-94.94692,41.92449],[-94.94798,41.92682],[-94.95367,41.92837],[-94.95498,41.92947],[-94.95398,41.93229],[-94.95808,41.93752],[-94.96335,41.94034],[-94.96192,41.94298],[-94.96778,41.95049],[-94.96724,41.95412],[-94.96906,41.95578],[-94.97377,41.95617],[-94.97589,41.96068],[-94.98309,41.96469],[-94.97709,41.96822],[-94.97819,41.97244],[-94.98208,41.97559],[-94.98151,41.97868],[-94.98317,41.98123],[-94.98059,41.98461],[-94.98749,41.98964],[-94.99499,41.9922],[-94.99878,41.99159],[-95.00647,41.99656],[-95.004,42.00031],[-95.00535,42.00438],[-95.0115,42.00887],[-95.01176,42.01287],[-95.01947,42.02012],[-95.02299,42.02812],[-95.02181,42.02978],[-95.02301,42.03225],[-95.05076,42.0456],[-95.05314,42.05392],[-95.05001,42.0554],[-95.0515,42.05698],[-95.05011,42.06054],[-95.03977,42.06065],[-95.04077,42.06464],[-95.0316,42.0699],[-95.02943,42.06919],[-95.02514,42.07082],[-95.0279,42.07395],[-95.02835,42.07998],[-95.03434,42.08375],[-95.03477,42.08725],[-95.03905,42.08859],[-95.04023,42.09125],[-95.04274,42.09214],[-95.04175,42.09479],[-95.03979,42.09532],[-95.03862,42.09962],[-95.04083,42.10235],[-95.03703,42.10357],[-95.03839,42.10484],[-95.03708,42.10657],[-95.03851,42.1074],[-95.03666,42.10966],[-95.0372,42.11156],[-95.03448,42.11443],[-95.02796,42.11556],[-95.02698,42.12233],[-95.03182,42.12439],[-95.03423,42.1266],[-95.03382,42.13016],[-95.04013,42.13414],[-95.04112,42.13633],[-95.03871,42.13944],[-95.03951,42.14382],[-95.04268,42.14618],[-95.05561,42.14752],[-95.06487,42.15748],[-95.05971,42.1604],[-95.05382,42.16098],[-95.05132,42.16663],[-95.04571,42.16637],[-95.0492,42.16957],[-95.04501,42.16983],[-95.042,42.17253],[-95.04162,42.17648],[-95.03908,42.17868],[-95.04088,42.18213],[-95.03447,42.18865],[-95.02113,42.18817],[-95.01767,42.18691],[-95.01813,42.18525],[-95.01481,42.18233],[-95.0107,42.18481],[-95.00468,42.18374],[-95.00343,42.18519],[-94.99528,42.18235],[-94.98868,42.18682],[-94.98301,42.18182],[-94.98142,42.18311],[-94.97483,42.18081],[-94.97447,42.17892],[-94.97231,42.1783],[-94.97233,42.17431],[-94.96608,42.17477],[-94.96011,42.17251],[-94.95884,42.18053],[-94.96398,42.18445],[-94.96264,42.19011],[-94.96091,42.19154],[-94.9662,42.20291],[-94.9632,42.20537],[-94.96508,42.20716],[-94.96457,42.20912],[-94.94651,42.21231],[-94.93774,42.21165],[-94.93507,42.20854],[-94.93015,42.20695],[-94.92165,42.20101],[-94.92154,42.19727],[-94.91276,42.18977],[-94.9031,42.18765],[-94.89626,42.18379],[-94.88861,42.18372],[-94.88081,42.17952],[-94.87437,42.17912],[-94.87034,42.17456],[-94.86522,42.17267],[-94.85899,42.16725],[-94.85466,42.16812],[-94.84943,42.16417],[-94.85022,42.163],[-94.84446,42.16071],[-94.83754,42.15839],[-94.83022,42.16077],[-94.82688,42.16011],[-94.824,42.1574],[-94.81695,42.15643],[-94.80734,42.14865],[-94.80087,42.14635],[-94.8011,42.14452],[-94.7983,42.14126],[-94.79302,42.1409],[-94.791,42.13665],[-94.7862,42.13616],[-94.78367,42.13369],[-94.78513,42.13153],[-94.77904,42.12712],[-94.77357,42.12814],[-94.76922,42.1259],[-94.76787,42.12306],[-94.76343,42.12282],[-94.76172,42.12133],[-94.76457,42.11676],[-94.76388,42.1137],[-94.756,42.11238],[-94.73484,42.11552],[-94.73342,42.10683],[-94.72547,42.10506],[-94.72194,42.10048],[-94.71927,42.09958],[-94.71983,42.09798],[-94.71696,42.09468],[-94.71845,42.09092],[-94.71669,42.08932],[-94.71819,42.08789],[-94.71747,42.08637],[-94.72133,42.08465],[-94.72992,42.08742],[-94.73329,42.07993],[-94.73955,42.07693],[-94.73887,42.07425],[-94.73329,42.07029],[-94.72165,42.07269],[-94.71701,42.07003],[-94.71238,42.06968],[-94.7086,42.06606],[-94.71008,42.06019],[-94.70436,42.05579],[-94.69259,42.05098],[-94.68808,42.0473],[-94.68094,42.04872],[-94.68124,42.04348],[-94.67582,42.03836],[-94.66518,42.03303],[-94.66294,42.03044],[-94.65722,42.03114],[-94.65474,42.02565],[-94.64951,42.02145],[-94.64942,42.02022],[-94.65457,42.01869],[-94.65229,42.01562],[-94.6466,42.01401],[-94.64263,42.01077],[-94.63382,42.01091],[-94.62912,42.01473],[-94.61582,42.01857],[-94.61094,42.02611],[-94.6127,42.02977],[-94.60999,42.03466],[-94.5952,42.03394],[-94.5917,42.03154],[-94.58008,42.02857],[-94.57659,42.02938],[-94.57246,42.02688],[-94.57676,42.02381],[-94.5737,42.02024],[-94.5766,42.01808],[-94.57707,42.01549],[-94.58035,42.01408],[-94.5724,42.00764],[-94.56017,42.00335],[-94.56011,42.00148],[-94.56274,42.00124],[-94.56316,41.99959],[-94.56112,41.99268],[-94.56435,41.9916],[-94.56692,41.98501],[-94.55153,41.98147],[-94.54711,41.97326],[-94.54323,41.97107],[-94.53935,41.97276],[-94.53451,41.97088],[-94.53463,41.96933],[-94.52996,41.9653],[-94.53189,41.96061],[-94.53004,41.95705],[-94.5327,41.95583],[-94.53242,41.95257],[-94.5215,41.95069],[-94.52006,41.94655],[-94.51576,41.94703],[-94.50809,41.94357],[-94.50839,41.93955],[-94.50004,41.93428],[-94.49867,41.93122],[-94.4947,41.93083],[-94.49334,41.92912],[-94.48824,41.92917],[-94.48488,41.92296],[-94.47658,41.91998],[-94.47395,41.91059],[-94.4689,41.90763],[-94.4631,41.89982],[-94.45255,41.89646],[-94.45028,41.89536],[-94.45031,41.8937],[-94.44418,41.89302],[-94.4406,41.89469],[-94.43015,41.89165],[-94.42446,41.88645],[-94.4099,41.8826],[-94.41002,41.87751],[-94.40498,41.87909],[-94.4002,41.8744],[-94.39276,41.87523],[-94.38529,41.8723],[-94.38077,41.86695],[-94.38218,41.85548],[-94.37841,41.85167],[-94.37392,41.85025],[-94.37285,41.84403],[-94.36707,41.83849],[-94.36419,41.83898],[-94.36213,41.83632],[-94.35803,41.8349],[-94.34861,41.83418],[-94.35106,41.82879],[-94.34668,41.82578],[-94.34624,41.82331],[-94.33595,41.82305],[-94.32698,41.81772],[-94.31072,41.82032],[-94.30996,41.82548],[-94.30701,41.82746],[-94.30508,41.83201],[-94.29947,41.8341],[-94.2924,41.83363],[-94.29208,41.83028],[-94.28682,41.82448],[-94.28268,41.82498],[-94.27907,41.81965],[-94.27261,41.81786],[-94.27053,41.81361],[-94.27096,41.81075],[-94.27908,41.80472],[-94.27612,41.80039],[-94.27235,41.80003],[-94.271,41.79458],[-94.26635,41.79417],[-94.26163,41.78992],[-94.25953,41.7856],[-94.26229,41.78153],[-94.24577,41.77643],[-94.23358,41.77774],[-94.22988,41.77325],[-94.21944,41.76935],[-94.22118,41.76479],[-94.21656,41.76165],[-94.21894,41.75902],[-94.21456,41.75614],[-94.21515,41.74729],[-94.21041,41.74324],[-94.21099,41.74039],[-94.2149,41.73886],[-94.21486,41.7366],[-94.21923,41.73154],[-94.21504,41.728],[-94.21815,41.72649],[-94.21607,41.72251],[-94.21714,41.72142],[-94.20786,41.71769],[-94.21879,41.71577],[-94.2216,41.71374],[-94.22093,41.71172],[-94.22583,41.71013],[-94.22341,41.70401],[-94.2259,41.70329],[-94.2261,41.69589],[-94.23157,41.6939],[-94.22712,41.68929],[-94.23206,41.68834],[-94.23336,41.68614],[-94.23055,41.68054],[-94.22457,41.67522],[-94.22011,41.67923],[-94.22291,41.68185],[-94.2209,41.68286],[-94.21647,41.68112],[-94.20086,41.68046],[-94.1973,41.6783],[-94.19127,41.67817],[-94.18844,41.6766],[-94.18108,41.67845],[-94.17924,41.67668],[-94.18159,41.67352],[-94.17432,41.67234],[-94.17002,41.66712],[-94.17165,41.66568],[-94.17103,41.66422],[-94.17398,41.66242],[-94.17263,41.66055],[-94.17383,41.65469],[-94.17732,41.65402],[-94.18019,41.65657],[-94.18751,41.65441],[-94.18705,41.65026],[-94.18458,41.64874],[-94.18291,41.6449],[-94.18348,41.64095],[-94.18043,41.63918],[-94.178,41.63433],[-94.16827,41.63339],[-94.16513,41.63586],[-94.16286,41.63573],[-94.15818,41.6317],[-94.16103,41.63124],[-94.16169,41.62884],[-94.16663,41.62772],[-94.16852,41.62348],[-94.16497,41.62074],[-94.16506,41.61609],[-94.16663,41.61428],[-94.16631,41.6045],[-94.15932,41.59732],[-94.15468,41.5962],[-94.15405,41.59259],[-94.14978,41.58818],[-94.15264,41.58464],[-94.15223,41.58313],[-94.1562,41.58094],[-94.15465,41.57913],[-94.15558,41.57658],[-94.16254,41.57646],[-94.16894,41.57229],[-94.17093,41.57261],[-94.17207,41.57011]]]}}]}