{"type":"FeatureCollection","features":[{"type":"Feature","properties":{},"geometry":{"type":"Polygon","coordinates":[[[-93.81505,42.42661],[-93.81465,42.42859],[-93.81839,42.43214],[-93.829,42.43812],[-93.83568,42.43754],[-93.83564,42.43155],[-93.84787,42.43318],[-93.85608,42.42712],[-93.86802,42.42962],[-93.87114,42.42861],[-93.87736,42.43029],[-93.88063,42.42891],[-93.8859,42.43493],[-93.89701,42.43494],[-93.90403,42.43762],[-93.90552,42.44595],[-93.90962,42.44921],[-93.91105,42.4558],[-93.91026,42.4632],[-93.91233,42.47464],[-93.91088,42.48048],[-93.91516,42.48666],[-93.91297,42.48995],[-93.92643,42.49205],[-93.93696,42.49866],[-93.9416,42.50808],[-93.94096,42.51264],[-93.94245,42.51684],[-93.9466,42.52253],[-93.95034,42.52365],[-93.94884,42.52597],[-93.95375,42.53018],[-93.95164,42.53392],[-93.95421,42.53651],[-93.9579,42.53502],[-93.96629,42.54024],[-93.96671,42.54259],[-93.96308,42.54305],[-93.96221,42.54581],[-93.96597,42.54543],[-93.96537,42.55053],[-93.96168,42.55122],[-93.9642,42.55344],[-93.96304,42.55506],[-93.96444,42.55721],[-93.96875,42.55969],[-93.97265,42.55934],[-93.97925,42.56569],[-93.9781,42.57083],[-93.9836,42.56946],[-93.9896,42.57115],[-93.98968,42.5736],[-93.98685,42.57505],[-93.98769,42.57924],[-93.98386,42.58254],[-93.9839,42.5842],[-93.98979,42.58661],[-93.99352,42.58533],[-93.99597,42.58735],[-93.99491,42.59604],[-93.99588,42.599],[-93.99941,42.60019],[-94.00245,42.60348],[-94.00216,42.60732],[-94.01009,42.60805],[-94.01699,42.60366],[-94.01951,42.60515],[-94.01745,42.61338],[-94.01871,42.62191],[-94.01548,42.623],[-94.01437,42.62755],[-94.01676,42.63033],[-94.01369,42.6335],[-94.01736,42.63528],[-94.0153,42.63713],[-94.01543,42.63947],[-94.01778,42.64004],[-94.01895,42.64387],[-94.01779,42.64661],[-94.02151,42.65142],[-94.02506,42.65222],[-94.02816,42.64937],[-94.03531,42.64824],[-94.03583,42.6511],[-94.03403,42.65419],[-94.0392,42.65688],[-94.04172,42.65677],[-94.0422,42.65476],[-94.04572,42.65469],[-94.05182,42.65881],[-94.05615,42.65741],[-94.06035,42.65964],[-94.0666,42.65822],[-94.06944,42.66076],[-94.06948,42.66853],[-94.07363,42.66819],[-94.07637,42.67153],[-94.0775,42.67955],[-94.08048,42.68178],[-94.0777,42.68945],[-94.06769,42.69139],[-94.06432,42.69509],[-94.06548,42.6977],[-94.06159,42.69937],[-94.05696,42.69788],[-94.0483,42.6984],[-94.04857,42.70341],[-94.04626,42.70756],[-94.05447,42.71016],[-94.05639,42.71254],[-94.04953,42.71542],[-94.04869,42.71825],[-94.05972,42.72558],[-94.05829,42.72699],[-94.05937,42.72928],[-94.06262,42.73028],[-94.06413,42.73267],[-94.06878,42.7333],[-94.06871,42.73495],[-94.07161,42.73712],[-94.05928,42.74221],[-94.06707,42.74766],[-94.0656,42.74864],[-94.06484,42.75501],[-94.07182,42.76099],[-94.07702,42.7604],[-94.07915,42.76503],[-94.07439,42.76911],[-94.07769,42.77023],[-94.07615,42.77291],[-94.07786,42.77353],[-94.07622,42.77596],[-94.07089,42.77595],[-94.06362,42.77281],[-94.05451,42.77351],[-94.05516,42.77491],[-94.0517,42.77657],[-94.04432,42.77707],[-94.03793,42.78201],[-94.03843,42.78435],[-94.03623,42.78607],[-94.0193,42.77957],[-94.00676,42.78029],[-94.01391,42.78854],[-94.01311,42.79032],[-94.01604,42.79154],[-94.01944,42.7966],[-94.01832,42.80168],[-94.02356,42.80403],[-94.03282,42.80205],[-94.03716,42.8042],[-94.03645,42.80707],[-94.04404,42.81544],[-94.04283,42.82219],[-94.05113,42.82307],[-94.05855,42.82684],[-94.0714,42.82299],[-94.07571,42.82449],[-94.07772,42.82897],[-94.08174,42.82975],[-94.08112,42.83264],[-94.0827,42.83486],[-94.07999,42.83795],[-94.08024,42.84697],[-94.07871,42.84745],[-94.08392,42.85166],[-94.08097,42.85454],[-94.0787,42.86194],[-94.0795,42.86458],[-94.0876,42.87146],[-94.08725,42.87457],[-94.08792,42.87717],[-94.09006,42.87757],[-94.09026,42.88224],[-94.08849,42.88639],[-94.08591,42.8867],[-94.08761,42.89058],[-94.08033,42.90143],[-94.08385,42.90287],[-94.09079,42.91337],[-94.09643,42.9141],[-94.09999,42.91643],[-94.10301,42.91575],[-94.10497,42.91761],[-94.10374,42.91835],[-94.10689,42.9204],[-94.11477,42.92102],[-94.1147,42.92321],[-94.11867,42.92662],[-94.1176,42.9298],[-94.1201,42.93435],[-94.12065,42.9396],[-94.12814,42.94268],[-94.1285,42.95101],[-94.13117,42.95297],[-94.13194,42.95926],[-94.13729,42.96357],[-94.13692,42.96708],[-94.1431,42.97046],[-94.14195,42.97241],[-94.14647,42.97932],[-94.13781,42.98062],[-94.13614,42.98259],[-94.13871,42.98497],[-94.13998,42.99132],[-94.13839,42.99398],[-94.14873,43.00233],[-94.14829,43.0261],[-94.14979,43.03095],[-94.14852,43.03752],[-94.13831,43.03756],[-94.1339,43.03561],[-94.12831,43.03739],[-94.1245,43.03583],[-94.12077,43.03685],[-94.11155,43.03565],[-94.11026,43.03763],[-94.10466,43.03646],[-94.10449,43.04071],[-94.10086,43.04096],[-94.09707,43.04555],[-94.09796,43.06089],[-94.08953,43.06202],[-94.08867,43.06571],[-94.08152,43.06386],[-94.07555,43.06521],[-94.07813,43.07191],[-94.07497,43.07571],[-94.0782,43.07756],[-94.0757,43.08017],[-94.07884,43.08252],[-94.07367,43.08644],[-94.07601,43.08859],[-94.06462,43.08695],[-94.06326,43.08878],[-94.05817,43.08934],[-94.05181,43.08624],[-94.0497,43.0913],[-94.04217,43.09319],[-94.03847,43.09707],[-94.03,43.09743],[-94.03075,43.10631],[-94.02785,43.10761],[-94.02826,43.11024],[-94.02446,43.11392],[-94.01433,43.11837],[-94.00126,43.11741],[-93.98864,43.1191],[-93.98511,43.11613],[-93.98075,43.11653],[-93.97819,43.11342],[-93.97418,43.11177],[-93.95763,43.11984],[-93.95394,43.11951],[-93.9561,43.13195],[-93.95453,43.13699],[-93.9525,43.13797],[-93.95307,43.13979],[-93.94068,43.14313],[-93.93812,43.14882],[-93.93081,43.14751],[-93.91689,43.14909],[-93.9146,43.14725],[-93.90705,43.14788],[-93.89668,43.15424],[-93.8894,43.15333],[-93.88373,43.15548],[-93.87165,43.15528],[-93.86908,43.14891],[-93.86509,43.14755],[-93.86195,43.14378],[-93.84669,43.13836],[-93.84058,43.13354],[-93.83888,43.12412],[-93.8247,43.121],[-93.81229,43.10945],[-93.80281,43.10352],[-93.79984,43.09448],[-93.78943,43.08866],[-93.79094,43.0838],[-93.78337,43.08034],[-93.78072,43.07324],[-93.77906,43.07242],[-93.78017,43.06555],[-93.77475,43.0609],[-93.77537,43.05664],[-93.76905,43.05297],[-93.76612,43.04689],[-93.75954,43.03919],[-93.7597,43.03483],[-93.7542,43.0325],[-93.75643,43.02926],[-93.75224,43.01842],[-93.75389,43.01375],[-93.75386,43.00287],[-93.75126,42.99824],[-93.75102,42.99235],[-93.74717,42.98973],[-93.74196,42.99017],[-93.73901,42.98729],[-93.74214,42.98109],[-93.7382,42.97913],[-93.74105,42.97616],[-93.73891,42.97443],[-93.74567,42.97022],[-93.74425,42.967],[-93.73709,42.9655],[-93.73665,42.96335],[-93.73985,42.96088],[-93.73969,42.95715],[-93.73742,42.94755],[-93.73471,42.94449],[-93.73913,42.93953],[-93.74084,42.93268],[-93.73676,42.9289],[-93.73221,42.92836],[-93.73215,42.92561],[-93.72645,42.91961],[-93.7254,42.91422],[-93.72239,42.91341],[-93.72049,42.91072],[-93.72432,42.90945],[-93.72647,42.90622],[-93.7255,42.90138],[-93.72862,42.89896],[-93.72435,42.89716],[-93.7135,42.89622],[-93.70861,42.8986],[-93.70391,42.89632],[-93.70365,42.89337],[-93.70163,42.89246],[-93.70352,42.89083],[-93.70299,42.88936],[-93.69103,42.89204],[-93.68731,42.88609],[-93.6812,42.88529],[-93.68769,42.87926],[-93.69044,42.87956],[-93.69392,42.86967],[-93.69238,42.86607],[-93.69418,42.86285],[-93.69769,42.86094],[-93.69732,42.85717],[-93.69501,42.85633],[-93.69021,42.84812],[-93.69965,42.84446],[-93.70299,42.8411],[-93.69976,42.83815],[-93.70019,42.83445],[-93.69687,42.83148],[-93.69819,42.82865],[-93.70164,42.82741],[-93.69685,42.8234],[-93.6978,42.81979],[-93.69594,42.81849],[-93.69539,42.81378],[-93.69946,42.81321],[-93.6953,42.81103],[-93.69391,42.80831],[-93.69346,42.80569],[-93.69499,42.80385],[-93.68997,42.80284],[-93.69021,42.80142],[-93.68276,42.80042],[-93.68225,42.79797],[-93.68045,42.79728],[-93.68058,42.79465],[-93.68336,42.79294],[-93.67986,42.78803],[-93.67909,42.78072],[-93.68337,42.77726],[-93.68735,42.78006],[-93.69295,42.77882],[-93.69528,42.7735],[-93.69466,42.77133],[-93.69163,42.77054],[-93.68941,42.76726],[-93.69099,42.76233],[-93.68921,42.75653],[-93.68526,42.75324],[-93.68779,42.7486],[-93.68027,42.74466],[-93.67935,42.74209],[-93.67518,42.73978],[-93.67431,42.73658],[-93.65651,42.73289],[-93.65128,42.72849],[-93.65448,42.72299],[-93.64942,42.71439],[-93.66036,42.70937],[-93.6579,42.70711],[-93.65914,42.70558],[-93.65815,42.70405],[-93.66244,42.70025],[-93.66708,42.70015],[-93.67319,42.6975],[-93.6744,42.69236],[-93.67202,42.69093],[-93.67031,42.68499],[-93.67116,42.68361],[-93.66848,42.68232],[-93.6627,42.67411],[-93.66818,42.65815],[-93.65807,42.65898],[-93.64759,42.66473],[-93.64685,42.6602],[-93.64235,42.65613],[-93.6432,42.65295],[-93.64011,42.64985],[-93.64321,42.64879],[-93.64645,42.64265],[-93.64579,42.64045],[-93.64181,42.63853],[-93.64211,42.62884],[-93.63598,42.62524],[-93.63712,42.60824],[-93.6428,42.60843],[-93.65105,42.60402],[-93.65448,42.59975],[-93.65403,42.59609],[-93.65627,42.59335],[-93.65629,42.58935],[-93.66449,42.58655],[-93.66908,42.58209],[-93.66778,42.57856],[-93.65871,42.57355],[-93.65878,42.57194],[-93.65085,42.57219],[-93.64917,42.56733],[-93.65313,42.55927],[-93.66077,42.55062],[-93.66619,42.54153],[-93.66555,42.5397],[-93.66044,42.53712],[-93.66028,42.53501],[-93.66294,42.53432],[-93.66325,42.53213],[-93.66044,42.5307],[-93.65947,42.52724],[-93.66448,42.52238],[-93.67065,42.52147],[-93.6783,42.50313],[-93.6827,42.49947],[-93.68192,42.49502],[-93.68467,42.49142],[-93.69055,42.48962],[-93.69081,42.48431],[-93.68778,42.47853],[-93.69493,42.47777],[-93.70205,42.46975],[-93.70152,42.45833],[-93.69867,42.45582],[-93.70275,42.44856],[-93.70195,42.44465],[-93.70781,42.42956],[-93.70982,42.42611],[-93.71467,42.42281],[-93.71602,42.41859],[-93.72309,42.41241],[-93.72362,42.40916],[-93.72576,42.40736],[-93.72895,42.40518],[-93.7473,42.40522],[-93.74797,42.39962],[-93.75215,42.3986],[-93.75425,42.40007],[-93.75423,42.39657],[-93.75901,42.39407],[-93.75325,42.39205],[-93.75568,42.38895],[-93.75548,42.38616],[-93.75697,42.38487],[-93.76576,42.38444],[-93.7719,42.38723],[-93.77056,42.38963],[-93.77158,42.39113],[-93.78228,42.40027],[-93.78238,42.40864],[-93.78808,42.41245],[-93.78997,42.41894],[-93.7875,42.42753],[-93.79504,42.42649],[-93.7964,42.4294],[-93.80193,42.43106],[-93.80679,42.43035],[-93.8067,42.42858],[-93.81288,42.4255],[-93.81505,42.42661]],[[-93.82961,43.09667],[-93.83049,43.09417],[-93.82751,43.0902],[-93.83094,43.09039],[-93.83615,43.08768],[-93.8349,43.08563],[-93.83849,43.08275],[-93.83235,43.07433],[-93.82484,43.07147],[-93.82401,43.06664],[-93.81891,43.06387],[-93.8155,43.06483],[-93.81685,43.06894],[-93.81462,43.07268],[-93.81744,43.07694],[-93.81448,43.08558],[-93.8158,43.09754],[-93.82358,43.09794],[-93.82477,43.09525],[-93.8267,43.09866],[-93.82961,43.09667]]]}}]}