{"type":"FeatureCollection","features":[{"type":"Feature","properties":{},"geometry":{"type":"Polygon","coordinates":[[[-91.02451,42.65437],[-91.02451,42.6502],[-91.03284,42.6502],[-91.03284,42.64603],[-91.03701,42.64603],[-91.03701,42.64186],[-91.04118,42.64186],[-91.04118,42.6377],[-91.04534,42.6377],[-91.04534,42.63353],[-91.06201,42.63353],[-91.06201,42.6377],[-91.06618,42.6377],[-91.06618,42.63353],[-91.07035,42.63353],[-91.07035,42.6252],[-91.07451,42.6252],[-91.07451,42.60853],[-91.08285,42.60853],[-91.08285,42.6127],[-91.09118,42.6127],[-91.09118,42.60853],[-91.09535,42.60853],[-91.09535,42.60436],[-91.09952,42.60436],[-91.09952,42.60019],[-91.10368,42.60019],[-91.10368,42.60436],[-91.10785,42.60436],[-91.10785,42.60019],[-91.11202,42.60019],[-91.11202,42.60436],[-91.14119,42.60436],[-91.14119,42.60853],[-91.15369,42.60853],[-91.15369,42.60436],[-91.15785,42.60436],[-91.15785,42.59603],[-91.16202,42.59603],[-91.16202,42.60019],[-91.17869,42.60019],[-91.17869,42.59603],[-91.19952,42.59603],[-91.19952,42.60019],[-91.20786,42.60019],[-91.20786,42.6127],[-91.21202,42.6127],[-91.21202,42.62103],[-91.22036,42.62103],[-91.22036,42.61686],[-91.22453,42.61686],[-91.22453,42.59186],[-91.23703,42.59186],[-91.23703,42.58769],[-91.25369,42.58769],[-91.25369,42.58353],[-91.25786,42.58353],[-91.25786,42.57936],[-91.26203,42.57936],[-91.26203,42.57103],[-91.24119,42.57103],[-91.24119,42.56269],[-91.22869,42.56269],[-91.22869,42.55436],[-91.22453,42.55436],[-91.22453,42.55019],[-91.22036,42.55019],[-91.22036,42.54186],[-91.22453,42.54186],[-91.22453,42.53769],[-91.22869,42.53769],[-91.22869,42.51269],[-91.22453,42.51269],[-91.22453,42.50852],[-91.21619,42.50852],[-91.21619,42.50435],[-91.21202,42.50435],[-91.21202,42.50019],[-91.20786,42.50019],[-91.20786,42.49602],[-91.20369,42.49602],[-91.20369,42.48769],[-91.19952,42.48769],[-91.19952,42.48352],[-91.19119,42.48352],[-91.19119,42.47935],[-91.18702,42.47935],[-91.18702,42.47518],[-91.18286,42.47518],[-91.18286,42.47935],[-91.16202,42.47935],[-91.16202,42.47518],[-91.15369,42.47518],[-91.15369,42.47102],[-91.14952,42.47102],[-91.14952,42.46685],[-91.14535,42.46685],[-91.14535,42.47102],[-91.14119,42.47102],[-91.14119,42.47518],[-91.13702,42.47518],[-91.13702,42.47935],[-91.13285,42.47935],[-91.13285,42.47518],[-91.12868,42.47518],[-91.12868,42.47102],[-91.12452,42.47102],[-91.12452,42.45852],[-91.12035,42.45852],[-91.12035,42.45435],[-91.11618,42.45435],[-91.11618,42.45018],[-91.09535,42.45018],[-91.09535,42.45435],[-91.09118,42.45435],[-91.09118,42.45018],[-91.06618,42.45018],[-91.06618,42.44602],[-91.05368,42.44602],[-91.05368,42.45435],[-91.04118,42.45435],[-91.04118,42.45018],[-91.02868,42.45018],[-91.02868,42.45435],[-91.02451,42.45435],[-91.02451,42.46268],[-91.02034,42.46268],[-91.02034,42.47102],[-91.01618,42.47102],[-91.01618,42.47935],[-91.01201,42.47935],[-91.01201,42.48769],[-91.01618,42.48769],[-91.01618,42.50019],[-91.00784,42.50019],[-91.00784,42.50435],[-90.99951,42.50435],[-90.99951,42.51269],[-90.99534,42.51269],[-90.99534,42.51685],[-90.99117,42.51685],[-90.99117,42.52102],[-90.97867,42.52102],[-90.97867,42.52519],[-90.96617,42.52519],[-90.96617,42.53352],[-90.97451,42.53352],[-90.97451,42.53769],[-90.97867,42.53769],[-90.97867,42.54186],[-90.99117,42.54186],[-90.99117,42.54602],[-90.99951,42.54602],[-90.99951,42.55019],[-91.00368,42.55019],[-91.00368,42.55436],[-91.00784,42.55436],[-91.00784,42.55852],[-91.01618,42.55852],[-91.01618,42.56269],[-91.02034,42.56269],[-91.02034,42.56686],[-91.02451,42.56686],[-91.02451,42.57519],[-91.02868,42.57519],[-91.02868,42.58353],[-91.02451,42.58353],[-91.02451,42.58769],[-91.02034,42.58769],[-91.02034,42.59186],[-91.01201,42.59186],[-91.01201,42.60019],[-91.00368,42.60019],[-91.00368,42.60436],[-90.99534,42.60436],[-90.99534,42.60853],[-90.99117,42.60853],[-90.99117,42.6127],[-90.98701,42.6127],[-90.98701,42.62103],[-90.99117,42.62103],[-90.99117,42.6252],[-90.99534,42.6252],[-90.99534,42.6377],[-90.98701,42.6377],[-90.98701,42.64603],[-90.99117,42.64603],[-90.99117,42.6502],[-91.00368,42.6502],[-91.00368,42.65437],[-91.00784,42.65437],[-91.00784,42.6502],[-91.01201,42.6502],[-91.01201,42.65437],[-91.02451,42.65437]]]}}]}