{"type":"FeatureCollection","features":[{"type":"Feature","properties":{},"geometry":{"type":"Polygon","coordinates":[[[-91.19054,41.18181],[-91.19524,41.18074],[-91.19801,41.18208],[-91.21708,41.18237],[-91.22083,41.18687],[-91.22391,41.18737],[-91.22659,41.19036],[-91.23226,41.18952],[-91.2326,41.19236],[-91.24999,41.19299],[-91.25151,41.19028],[-91.25018,41.18321],[-91.26647,41.18439],[-91.26963,41.18309],[-91.28369,41.18311],[-91.28471,41.17609],[-91.29157,41.173],[-91.30585,41.17584],[-91.31993,41.17563],[-91.32715,41.17942],[-91.32797,41.18333],[-91.3376,41.18617],[-91.34726,41.18612],[-91.35036,41.17954],[-91.35808,41.17699],[-91.36136,41.17347],[-91.36445,41.17347],[-91.37538,41.16741],[-91.38515,41.17064],[-91.39348,41.1704],[-91.39491,41.17226],[-91.40045,41.17365],[-91.40089,41.17597],[-91.40297,41.17669],[-91.40718,41.17424],[-91.40587,41.17024],[-91.40945,41.16778],[-91.41064,41.16097],[-91.41496,41.15999],[-91.41993,41.16308],[-91.43158,41.16399],[-91.4374,41.16703],[-91.43832,41.16891],[-91.4367,41.17457],[-91.44009,41.17746],[-91.44699,41.17798],[-91.45494,41.17434],[-91.4571,41.17502],[-91.4622,41.17859],[-91.46201,41.18418],[-91.46533,41.18894],[-91.4799,41.19059],[-91.48551,41.19475],[-91.49619,41.197],[-91.49758,41.19873],[-91.49713,41.20178],[-91.49179,41.21596],[-91.50829,41.22182],[-91.51204,41.22751],[-91.52154,41.22869],[-91.52494,41.23223],[-91.53073,41.23311],[-91.53388,41.23281],[-91.53922,41.2293],[-91.54472,41.23078],[-91.5641,41.23005],[-91.57276,41.23167],[-91.57766,41.23626],[-91.5822,41.23656],[-91.58215,41.24018],[-91.58599,41.24193],[-91.59251,41.24945],[-91.60398,41.2506],[-91.64831,41.27129],[-91.64909,41.26721],[-91.65226,41.26579],[-91.66669,41.27157],[-91.67563,41.28536],[-91.68574,41.2919],[-91.68719,41.30087],[-91.68637,41.30797],[-91.6893,41.31434],[-91.69153,41.31595],[-91.70227,41.31657],[-91.70479,41.31868],[-91.70701,41.32513],[-91.70683,41.33067],[-91.7155,41.33686],[-91.71735,41.34124],[-91.71686,41.34511],[-91.73125,41.34851],[-91.7367,41.34775],[-91.74772,41.35444],[-91.7572,41.35608],[-91.76632,41.36226],[-91.77107,41.36316],[-91.77211,41.3696],[-91.76747,41.3881],[-91.75538,41.39567],[-91.75583,41.40302],[-91.75779,41.40718],[-91.76125,41.40882],[-91.77177,41.40834],[-91.77542,41.41102],[-91.77912,41.40907],[-91.78612,41.40985],[-91.79282,41.40767],[-91.79584,41.4086],[-91.81294,41.41482],[-91.82022,41.42174],[-91.82012,41.42799],[-91.82746,41.43089],[-91.83361,41.4281],[-91.83495,41.42302],[-91.8378,41.42111],[-91.85411,41.42701],[-91.86066,41.42693],[-91.86809,41.42934],[-91.88482,41.43071],[-91.89171,41.42795],[-91.89532,41.43423],[-91.90345,41.43285],[-91.91339,41.43481],[-91.92911,41.42852],[-91.95042,41.42687],[-91.96796,41.43037],[-91.9723,41.43255],[-91.97614,41.43837],[-91.98482,41.44362],[-91.99795,41.44617],[-92.01466,41.4431],[-92.02532,41.43404],[-92.03544,41.43072],[-92.05448,41.43038],[-92.06125,41.43283],[-92.06086,41.43943],[-92.08082,41.44863],[-92.08205,41.45444],[-92.08385,41.45569],[-92.08974,41.4536],[-92.09759,41.45611],[-92.09968,41.45337],[-92.10362,41.45286],[-92.1052,41.44937],[-92.11308,41.4524],[-92.11558,41.45156],[-92.12071,41.45708],[-92.12424,41.45417],[-92.12995,41.45498],[-92.12845,41.45251],[-92.13515,41.45155],[-92.14035,41.44806],[-92.14648,41.45019],[-92.15929,41.44697],[-92.16119,41.4437],[-92.16911,41.4377],[-92.17591,41.43793],[-92.18886,41.44166],[-92.19303,41.43913],[-92.19624,41.43955],[-92.20677,41.44567],[-92.2088,41.44872],[-92.21793,41.44956],[-92.21982,41.45253],[-92.22627,41.45045],[-92.23417,41.4551],[-92.2413,41.45439],[-92.24379,41.45136],[-92.24578,41.45154],[-92.24858,41.45556],[-92.25363,41.4575],[-92.2574,41.45646],[-92.26112,41.4591],[-92.26783,41.45554],[-92.27597,41.45637],[-92.28032,41.45889],[-92.28379,41.45601],[-92.287,41.45566],[-92.30344,41.46153],[-92.30526,41.46682],[-92.30721,41.46729],[-92.31958,41.46792],[-92.32505,41.46485],[-92.33001,41.46902],[-92.33956,41.46888],[-92.34429,41.47157],[-92.35559,41.47401],[-92.36399,41.47232],[-92.37059,41.47373],[-92.37389,41.47736],[-92.38697,41.47666],[-92.3946,41.47994],[-92.3945,41.48904],[-92.39746,41.4909],[-92.4055,41.49318],[-92.4088,41.49266],[-92.41962,41.49701],[-92.42476,41.49569],[-92.42753,41.49818],[-92.4318,41.49677],[-92.43861,41.49758],[-92.44906,41.50227],[-92.45356,41.50806],[-92.46817,41.50947],[-92.48067,41.50644],[-92.48904,41.50712],[-92.49096,41.51051],[-92.49114,41.523],[-92.50065,41.52916],[-92.50343,41.53533],[-92.51328,41.53702],[-92.51428,41.54115],[-92.51884,41.54409],[-92.51948,41.55087],[-92.51056,41.55545],[-92.5102,41.56269],[-92.52199,41.57543],[-92.52525,41.5763],[-92.5266,41.57916],[-92.52373,41.5824],[-92.52213,41.58829],[-92.51893,41.59136],[-92.518,41.59756],[-92.52487,41.60554],[-92.53294,41.6089],[-92.5342,41.61269],[-92.53897,41.61546],[-92.53996,41.61811],[-92.5507,41.62285],[-92.55865,41.62196],[-92.56363,41.61938],[-92.57489,41.61915],[-92.58845,41.6249],[-92.59258,41.62483],[-92.59932,41.62922],[-92.59916,41.63236],[-92.60967,41.63626],[-92.61579,41.64307],[-92.62002,41.64411],[-92.62098,41.64528],[-92.61967,41.6474],[-92.62612,41.65176],[-92.63258,41.65197],[-92.63493,41.65373],[-92.64378,41.65217],[-92.64654,41.65736],[-92.66014,41.66363],[-92.66487,41.66299],[-92.66978,41.66813],[-92.68901,41.66962],[-92.69381,41.67177],[-92.69818,41.67876],[-92.70787,41.68245],[-92.71099,41.68532],[-92.71739,41.68767],[-92.72635,41.68839],[-92.73323,41.69345],[-92.73896,41.69275],[-92.74127,41.69402],[-92.73945,41.69827],[-92.742,41.70213],[-92.7337,41.70832],[-92.73574,41.71254],[-92.73016,41.71587],[-92.72357,41.71635],[-92.72059,41.72041],[-92.72167,41.72721],[-92.71821,41.72998],[-92.7157,41.73576],[-92.72391,41.73892],[-92.72731,41.74722],[-92.72346,41.75054],[-92.71904,41.74968],[-92.70879,41.75114],[-92.70716,41.75384],[-92.71137,41.75818],[-92.70784,41.76312],[-92.71312,41.76882],[-92.71093,41.77271],[-92.7113,41.77535],[-92.71428,41.77797],[-92.72026,41.77799],[-92.72281,41.78249],[-92.72792,41.78543],[-92.7294,41.78856],[-92.73814,41.7924],[-92.74203,41.79049],[-92.74908,41.79568],[-92.7542,41.79412],[-92.75884,41.79684],[-92.76025,41.80208],[-92.76719,41.80949],[-92.77895,41.81489],[-92.78342,41.81258],[-92.79499,41.82169],[-92.79755,41.82113],[-92.80016,41.82448],[-92.79867,41.82933],[-92.80203,41.83117],[-92.81131,41.83152],[-92.813,41.83319],[-92.81312,41.83812],[-92.82069,41.84504],[-92.82684,41.84765],[-92.82772,41.85097],[-92.83206,41.85226],[-92.83356,41.8546],[-92.86397,41.85857],[-92.86857,41.86172],[-92.86837,41.86558],[-92.87028,41.86746],[-92.87878,41.86658],[-92.88219,41.87096],[-92.89012,41.87007],[-92.89062,41.87188],[-92.89234,41.87164],[-92.89307,41.87564],[-92.89765,41.87876],[-92.9035,41.87857],[-92.90747,41.88313],[-92.91484,41.88407],[-92.91631,41.88293],[-92.91563,41.88078],[-92.92142,41.87685],[-92.92434,41.87665],[-92.93006,41.88069],[-92.92933,41.8841],[-92.9379,41.88315],[-92.93967,41.88426],[-92.94314,41.89201],[-92.94791,41.89161],[-92.95212,41.88656],[-92.96082,41.88369],[-92.96486,41.88667],[-92.96528,41.88884],[-92.97176,41.892],[-92.97683,41.89208],[-92.9932,41.90273],[-92.99513,41.90757],[-93.00125,41.90932],[-93.00219,41.91192],[-93.00625,41.91485],[-93.00567,41.91667],[-93.00869,41.92031],[-93.00799,41.92742],[-93.01266,41.92948],[-93.02115,41.92963],[-93.02319,41.93209],[-93.02932,41.93465],[-93.02738,41.93756],[-93.0332,41.94168],[-93.03221,41.9429],[-93.03328,41.9444],[-93.04345,41.94092],[-93.05218,41.94099],[-93.05628,41.94359],[-93.05609,41.94814],[-93.05753,41.94945],[-93.06342,41.94831],[-93.06612,41.95157],[-93.06572,41.95422],[-93.07066,41.95733],[-93.08312,41.95634],[-93.091,41.95913],[-93.0934,41.96136],[-93.09188,41.96284],[-93.09207,41.96557],[-93.09954,41.96753],[-93.10388,41.97085],[-93.11418,41.96961],[-93.12065,41.97203],[-93.12442,41.97115],[-93.13695,41.97704],[-93.13841,41.97482],[-93.14339,41.97571],[-93.14629,41.98022],[-93.15613,41.98048],[-93.1625,41.9865],[-93.16713,41.98792],[-93.16703,41.99225],[-93.16854,41.99438],[-93.19291,42.00761],[-93.20437,42.00767],[-93.20414,42.01158],[-93.20985,42.01434],[-93.21167,42.01752],[-93.2082,42.02015],[-93.20947,42.02399],[-93.2193,42.02328],[-93.2211,42.02505],[-93.22474,42.02358],[-93.22831,42.01859],[-93.2469,42.01893],[-93.25025,42.01813],[-93.25404,42.01422],[-93.25883,42.01412],[-93.26088,42.01253],[-93.26492,42.01343],[-93.26946,42.01105],[-93.26998,42.01297],[-93.27256,42.01377],[-93.27076,42.01713],[-93.27011,42.02631],[-93.27275,42.02963],[-93.26957,42.03168],[-93.27376,42.03627],[-93.26264,42.039],[-93.26299,42.04182],[-93.26897,42.04666],[-93.26273,42.04812],[-93.26218,42.05161],[-93.25531,42.05529],[-93.26774,42.05814],[-93.27057,42.06042],[-93.27245,42.07108],[-93.27459,42.07311],[-93.27325,42.07654],[-93.27541,42.07868],[-93.27643,42.08345],[-93.27444,42.08477],[-93.31016,42.10072],[-93.30633,42.10457],[-93.30529,42.10929],[-93.30112,42.11251],[-93.30247,42.11501],[-93.29972,42.12032],[-93.30445,42.12893],[-93.30056,42.13164],[-93.30466,42.13401],[-93.30888,42.13279],[-93.3102,42.1339],[-93.30565,42.13711],[-93.31112,42.14091],[-93.3136,42.14089],[-93.31532,42.13849],[-93.31768,42.14058],[-93.32383,42.14172],[-93.32573,42.14168],[-93.32679,42.13951],[-93.33626,42.1398],[-93.34558,42.1478],[-93.35614,42.14801],[-93.3596,42.14574],[-93.36145,42.14633],[-93.36369,42.14781],[-93.36152,42.15127],[-93.36246,42.15628],[-93.36848,42.15627],[-93.37159,42.15823],[-93.37375,42.16245],[-93.37599,42.16302],[-93.37987,42.16091],[-93.38202,42.1631],[-93.39189,42.16619],[-93.39379,42.16883],[-93.39825,42.16823],[-93.40167,42.17095],[-93.40073,42.17543],[-93.39727,42.18009],[-93.39933,42.18367],[-93.3965,42.18951],[-93.39784,42.19323],[-93.39548,42.19584],[-93.39867,42.20113],[-93.39669,42.20667],[-93.40161,42.20859],[-93.39908,42.20984],[-93.40084,42.21101],[-93.40004,42.21367],[-93.40246,42.21661],[-93.40059,42.21834],[-93.40736,42.22414],[-93.40842,42.22992],[-93.41628,42.23322],[-93.41806,42.23718],[-93.42387,42.24116],[-93.41988,42.24483],[-93.42225,42.24698],[-93.42228,42.25005],[-93.42437,42.25278],[-93.42167,42.25698],[-93.42193,42.25944],[-93.42564,42.25864],[-93.42916,42.26266],[-93.43482,42.26072],[-93.43531,42.25875],[-93.43772,42.25891],[-93.44206,42.26634],[-93.44907,42.27177],[-93.45834,42.2705],[-93.46034,42.26726],[-93.46414,42.26802],[-93.46507,42.27141],[-93.46283,42.27346],[-93.46202,42.27716],[-93.4599,42.27755],[-93.45927,42.28585],[-93.45703,42.28724],[-93.46304,42.29473],[-93.46273,42.29859],[-93.46564,42.30051],[-93.46402,42.30209],[-93.45953,42.30113],[-93.45949,42.30392],[-93.46904,42.31324],[-93.47291,42.31257],[-93.47887,42.31504],[-93.49034,42.31204],[-93.49233,42.31771],[-93.48823,42.3216],[-93.48861,42.32339],[-93.48975,42.32511],[-93.4966,42.32651],[-93.49903,42.32898],[-93.50039,42.33281],[-93.49293,42.3353],[-93.49245,42.33784],[-93.48758,42.33996],[-93.48905,42.34229],[-93.48815,42.34342],[-93.48123,42.34898],[-93.48212,42.35148],[-93.49057,42.35548],[-93.48909,42.35895],[-93.48539,42.35937],[-93.48592,42.36523],[-93.48341,42.36722],[-93.4894,42.36881],[-93.49394,42.36689],[-93.49894,42.3683],[-93.50642,42.36134],[-93.51591,42.36875],[-93.53034,42.37622],[-93.52807,42.37998],[-93.52923,42.38147],[-93.53648,42.3824],[-93.5441,42.38765],[-93.56012,42.38047],[-93.55995,42.38293],[-93.56488,42.38632],[-93.56612,42.39311],[-93.56834,42.3961],[-93.56775,42.39975],[-93.56442,42.40138],[-93.56373,42.40353],[-93.56528,42.40582],[-93.56349,42.40939],[-93.56486,42.41827],[-93.56083,42.42316],[-93.56035,42.42693],[-93.55541,42.43053],[-93.55647,42.43448],[-93.55234,42.4378],[-93.55527,42.44329],[-93.55279,42.44742],[-93.55541,42.45285],[-93.5546,42.45808],[-93.5508,42.46255],[-93.55127,42.46846],[-93.54748,42.47238],[-93.54796,42.4758],[-93.55065,42.47701],[-93.54801,42.48137],[-93.54928,42.48369],[-93.54608,42.48769],[-93.54816,42.48949],[-93.54706,42.49081],[-93.55284,42.50334],[-93.56096,42.50357],[-93.56502,42.50543],[-93.56562,42.50322],[-93.57058,42.50119],[-93.5816,42.50802],[-93.58709,42.50586],[-93.59245,42.50611],[-93.61506,42.51152],[-93.61856,42.50881],[-93.61631,42.50405],[-93.619,42.50361],[-93.62147,42.50087],[-93.62108,42.49959],[-93.61767,42.50003],[-93.61623,42.49694],[-93.61783,42.4951],[-93.6251,42.49157],[-93.6325,42.49169],[-93.63396,42.49],[-93.63339,42.4865],[-93.63633,42.48673],[-93.64346,42.48302],[-93.64324,42.47882],[-93.65199,42.47745],[-93.6527,42.47397],[-93.65458,42.47266],[-93.66098,42.47507],[-93.66144,42.48054],[-93.6572,42.48829],[-93.6651,42.4948],[-93.66452,42.49687],[-93.66127,42.49851],[-93.66696,42.50273],[-93.66511,42.50457],[-93.66282,42.50438],[-93.66503,42.50858],[-93.66427,42.51669],[-93.67101,42.5194],[-93.67065,42.52147],[-93.66448,42.52238],[-93.65947,42.52724],[-93.66044,42.5307],[-93.66325,42.53213],[-93.66294,42.53432],[-93.66028,42.53501],[-93.66044,42.53712],[-93.66555,42.5397],[-93.66619,42.54153],[-93.66077,42.55062],[-93.65313,42.55927],[-93.64917,42.56733],[-93.65085,42.57219],[-93.65878,42.57194],[-93.65871,42.57355],[-93.66778,42.57856],[-93.66908,42.58209],[-93.66449,42.58655],[-93.65629,42.58935],[-93.65627,42.59335],[-93.65403,42.59609],[-93.65448,42.59975],[-93.65105,42.60402],[-93.6428,42.60843],[-93.63712,42.60824],[-93.63598,42.62524],[-93.64211,42.62884],[-93.64181,42.63853],[-93.64579,42.64045],[-93.64645,42.64265],[-93.64321,42.64879],[-93.64011,42.64985],[-93.64275,42.65169],[-93.64235,42.65613],[-93.64685,42.6602],[-93.64759,42.66473],[-93.65807,42.65898],[-93.66818,42.65815],[-93.6627,42.67411],[-93.66848,42.68232],[-93.67116,42.68361],[-93.67031,42.68499],[-93.67202,42.69093],[-93.6744,42.69236],[-93.67319,42.6975],[-93.66708,42.70015],[-93.66244,42.70025],[-93.65815,42.70405],[-93.65914,42.70558],[-93.6579,42.70711],[-93.66036,42.70937],[-93.64942,42.71439],[-93.65448,42.72299],[-93.65128,42.72849],[-93.65651,42.73289],[-93.67431,42.73658],[-93.67518,42.73978],[-93.67935,42.74209],[-93.68027,42.74466],[-93.68779,42.7486],[-93.68526,42.75324],[-93.68921,42.75653],[-93.69099,42.76233],[-93.68941,42.76726],[-93.69163,42.77054],[-93.69466,42.77133],[-93.69528,42.7735],[-93.69295,42.77882],[-93.68735,42.78006],[-93.68337,42.77726],[-93.67909,42.78072],[-93.67986,42.78803],[-93.68336,42.79294],[-93.68058,42.79465],[-93.68045,42.79728],[-93.68225,42.79797],[-93.68276,42.80042],[-93.69021,42.80142],[-93.68997,42.80284],[-93.69499,42.80385],[-93.69346,42.80569],[-93.69391,42.80831],[-93.6953,42.81103],[-93.69946,42.81321],[-93.69539,42.81378],[-93.69594,42.81849],[-93.6978,42.81979],[-93.69685,42.8234],[-93.70164,42.82741],[-93.69819,42.82865],[-93.69687,42.83148],[-93.70019,42.83445],[-93.69976,42.83815],[-93.70299,42.8411],[-93.69965,42.84446],[-93.69021,42.84812],[-93.69501,42.85633],[-93.69732,42.85717],[-93.69769,42.86094],[-93.69418,42.86285],[-93.69238,42.86607],[-93.69392,42.86967],[-93.69044,42.87956],[-93.68769,42.87926],[-93.6812,42.88529],[-93.68731,42.88609],[-93.69103,42.89204],[-93.70299,42.88936],[-93.70352,42.89083],[-93.70163,42.89246],[-93.70365,42.89337],[-93.70391,42.89632],[-93.70861,42.8986],[-93.7135,42.89622],[-93.72435,42.89716],[-93.72862,42.89896],[-93.7255,42.90138],[-93.72647,42.90622],[-93.72432,42.90945],[-93.72049,42.91072],[-93.72239,42.91341],[-93.7254,42.91422],[-93.72645,42.91961],[-93.73215,42.92561],[-93.73221,42.92836],[-93.73676,42.9289],[-93.74084,42.93268],[-93.73913,42.93953],[-93.73471,42.94449],[-93.73742,42.94755],[-93.73969,42.95715],[-93.73985,42.96088],[-93.73665,42.96335],[-93.73709,42.9655],[-93.74425,42.967],[-93.74567,42.97022],[-93.73891,42.97443],[-93.74105,42.97616],[-93.7382,42.97913],[-93.74214,42.98109],[-93.73901,42.98729],[-93.74196,42.99017],[-93.74717,42.98973],[-93.75102,42.99235],[-93.75126,42.99824],[-93.75386,43.00287],[-93.75389,43.01375],[-93.75224,43.01842],[-93.75643,43.02926],[-93.7542,43.0325],[-93.7597,43.03483],[-93.75954,43.03919],[-93.76612,43.04689],[-93.76905,43.05297],[-93.77537,43.05664],[-93.77475,43.0609],[-93.78017,43.06555],[-93.77906,43.07242],[-93.78072,43.07324],[-93.78337,43.08034],[-93.79094,43.0838],[-93.78943,43.08866],[-93.79984,43.09448],[-93.80281,43.10352],[-93.81229,43.10945],[-93.8247,43.121],[-93.83888,43.12412],[-93.8385,43.12734],[-93.8426,43.13546],[-93.84971,43.13973],[-93.86195,43.14378],[-93.86509,43.14755],[-93.86908,43.14891],[-93.87135,43.15286],[-93.871,43.15755],[-93.86729,43.15775],[-93.86415,43.16036],[-93.86895,43.17099],[-93.86165,43.17489],[-93.86248,43.18241],[-93.85957,43.18751],[-93.85617,43.18991],[-93.85938,43.19719],[-93.85825,43.20006],[-93.86323,43.20158],[-93.86729,43.20558],[-93.86222,43.20871],[-93.86619,43.21207],[-93.8643,43.21371],[-93.86532,43.21505],[-93.85996,43.21805],[-93.85421,43.21876],[-93.84458,43.21499],[-93.84113,43.21525],[-93.84053,43.21082],[-93.83497,43.21189],[-93.82474,43.20947],[-93.81678,43.21546],[-93.81976,43.22186],[-93.81639,43.22531],[-93.81978,43.23164],[-93.81358,43.23491],[-93.81081,43.241],[-93.78899,43.2425],[-93.78967,43.24805],[-93.78829,43.25056],[-93.79189,43.25359],[-93.78164,43.2579],[-93.7791,43.25607],[-93.77397,43.25771],[-93.76739,43.26447],[-93.77116,43.27417],[-93.76809,43.27604],[-93.76364,43.28327],[-93.75965,43.2823],[-93.75719,43.28379],[-93.75444,43.28219],[-93.7513,43.28501],[-93.75488,43.28737],[-93.75667,43.29358],[-93.76265,43.29618],[-93.76765,43.30165],[-93.76614,43.30449],[-93.7754,43.3042],[-93.77354,43.30603],[-93.775,43.31111],[-93.76857,43.31453],[-93.77049,43.31853],[-93.7746,43.32351],[-93.79094,43.33148],[-93.79428,43.34011],[-93.78311,43.35307],[-93.78077,43.35893],[-93.78181,43.36205],[-93.77988,43.36402],[-93.78204,43.36727],[-93.77559,43.37001],[-93.77202,43.36979],[-93.76632,43.37542],[-93.76855,43.37772],[-93.76805,43.37926],[-93.76198,43.38471],[-93.76181,43.38769],[-93.76408,43.38923],[-93.75942,43.39293],[-93.75785,43.39532],[-93.75843,43.39741],[-93.75462,43.39755],[-93.75228,43.40089],[-93.75463,43.40497],[-93.74209,43.41455],[-93.74092,43.42476],[-93.73671,43.42435],[-93.72984,43.42918],[-93.72659,43.42659],[-93.7225,43.42847],[-93.71068,43.42682],[-93.70659,43.42967],[-93.69841,43.43173],[-93.69989,43.43381],[-93.69675,43.43564],[-93.69679,43.44365],[-93.70402,43.44729],[-93.70346,43.45114],[-93.70672,43.45244],[-93.70836,43.45746],[-93.71179,43.46071],[-93.7153,43.46115],[-93.71897,43.46536],[-93.7157,43.46595],[-93.71397,43.46845],[-93.71071,43.46799],[-93.70796,43.47227],[-93.70091,43.47502],[-93.6989,43.47899],[-93.69992,43.48255],[-93.69743,43.48519],[-93.69156,43.4833],[-93.6895,43.47956],[-93.68593,43.47954],[-93.68431,43.47794],[-93.68156,43.48049],[-93.67904,43.48062],[-93.67359,43.47761],[-93.66803,43.47892],[-93.66743,43.47618],[-93.66045,43.4751],[-93.65525,43.48139],[-93.65361,43.48853],[-93.65177,43.49045],[-93.65227,43.49462],[-93.64996,43.49508],[-93.6517,43.49946],[-93.64932,43.50101],[-93.65279,43.50724],[-93.65033,43.50894],[-93.65192,43.5128],[-93.64935,43.51707],[-93.65347,43.52163],[-93.64874,43.52232],[-93.64876,43.52634],[-93.64161,43.52571],[-93.63755,43.53071],[-93.63971,43.53398],[-93.64422,43.53429],[-93.64723,43.53767],[-93.65213,43.53963],[-93.64939,43.54131],[-93.65165,43.54331],[-93.65995,43.54602],[-93.65909,43.5486],[-93.66106,43.55327],[-93.66416,43.55528],[-93.66366,43.55734],[-93.65498,43.55435],[-93.65446,43.55581],[-93.6516,43.55512],[-93.64543,43.55173],[-93.64067,43.55097],[-93.63743,43.55296],[-93.63587,43.55237],[-93.63628,43.55001],[-93.63329,43.55088],[-93.62552,43.54874],[-93.6215,43.55152],[-93.61758,43.55193],[-93.60723,43.54897],[-93.60315,43.55921],[-93.59639,43.55884],[-93.59584,43.56084],[-93.59327,43.56111],[-93.59416,43.5629],[-93.58617,43.56209],[-93.57789,43.56655],[-93.57753,43.57046],[-93.58331,43.57176],[-93.58293,43.57527],[-93.57795,43.57573],[-93.58117,43.57951],[-93.58836,43.58045],[-93.59134,43.57823],[-93.5941,43.57968],[-93.59426,43.58333],[-93.5922,43.58704],[-93.59518,43.58852],[-93.59328,43.59118],[-93.58989,43.59214],[-93.59072,43.59378],[-93.58791,43.594],[-93.58753,43.59565],[-93.58951,43.59688],[-93.58664,43.59833],[-93.58673,43.60167],[-93.59022,43.60309],[-93.59093,43.6057],[-93.58887,43.60706],[-93.58926,43.60864],[-93.58473,43.61103],[-93.58805,43.61331],[-93.59025,43.61853],[-93.59243,43.61752],[-93.59488,43.6194],[-93.59518,43.62142],[-93.59298,43.62188],[-93.59095,43.62572],[-93.59311,43.62773],[-93.59154,43.62905],[-93.59243,43.63081],[-93.58839,43.63228],[-93.58246,43.6392],[-93.5742,43.63908],[-93.57724,43.64238],[-93.57435,43.64724],[-93.56885,43.64627],[-93.56069,43.64844],[-93.55788,43.65155],[-93.55871,43.65394],[-93.55677,43.65863],[-93.54686,43.66344],[-93.54395,43.66287],[-93.54062,43.66939],[-93.52792,43.67734],[-93.52909,43.68496],[-93.52801,43.6862],[-93.52584,43.68448],[-93.52157,43.68478],[-93.5205,43.68955],[-93.51658,43.68983],[-93.51418,43.69187],[-93.52328,43.69895],[-93.52349,43.70193],[-93.52053,43.70327],[-93.52393,43.707],[-93.51942,43.70809],[-93.51936,43.71167],[-93.51329,43.71164],[-93.51022,43.71536],[-93.50751,43.71607],[-93.50639,43.71736],[-93.50757,43.71947],[-93.50208,43.72109],[-93.50091,43.72244],[-93.50194,43.72378],[-93.49935,43.72611],[-93.4905,43.72855],[-93.48495,43.73551],[-93.48899,43.73885],[-93.48913,43.74336],[-93.48203,43.74589],[-93.47842,43.74902],[-93.47239,43.74706],[-93.46905,43.75077],[-93.46491,43.75073],[-93.46289,43.74796],[-93.45771,43.74824],[-93.44826,43.75131],[-93.44387,43.75541],[-93.44048,43.75636],[-93.43606,43.75439],[-93.43286,43.75595],[-93.4274,43.75586],[-93.42828,43.75904],[-93.42392,43.76208],[-93.41788,43.76182],[-93.4163,43.76356],[-93.42275,43.77256],[-93.41137,43.77531],[-93.40894,43.77807],[-93.40343,43.77755],[-93.4031,43.77975],[-93.40003,43.782],[-93.395,43.78026],[-93.38672,43.78158],[-93.38384,43.78004],[-93.3822,43.7855],[-93.37154,43.78658],[-93.36939,43.78951],[-93.36895,43.79611],[-93.36627,43.79876],[-93.36277,43.79942],[-93.36386,43.80061],[-93.36194,43.8016],[-93.36355,43.80316],[-93.36285,43.806],[-93.35915,43.80658],[-93.3585,43.81018],[-93.35367,43.81503],[-93.34964,43.82386],[-93.34405,43.82367],[-93.343,43.82575],[-93.34715,43.82946],[-93.34641,43.8341],[-93.34201,43.83565],[-93.33785,43.83344],[-93.33289,43.8339],[-93.33101,43.83578],[-93.33264,43.83724],[-93.32987,43.83722],[-93.32933,43.84056],[-93.32305,43.84156],[-93.32132,43.84417],[-93.32556,43.8449],[-93.32639,43.84671],[-93.32129,43.84924],[-93.313,43.84584],[-93.30974,43.84755],[-93.30919,43.83775],[-93.30047,43.83432],[-93.29338,43.8351],[-93.29303,43.83255],[-93.28918,43.83224],[-93.28859,43.82531],[-93.27921,43.8263],[-93.27937,43.82366],[-93.25923,43.82241],[-93.25094,43.82568],[-93.23969,43.82413],[-93.23875,43.82793],[-93.23204,43.82777],[-93.22676,43.82987],[-93.21974,43.82829],[-93.21735,43.83023],[-93.21818,43.83666],[-93.21419,43.83686],[-93.21128,43.83898],[-93.21061,43.8436],[-93.20479,43.84125],[-93.20451,43.83757],[-93.20626,43.835],[-93.20333,43.82919],[-93.17947,43.83069],[-93.17302,43.83358],[-93.16143,43.83357],[-93.15452,43.83907],[-93.15065,43.83657],[-93.1457,43.83684],[-93.1443,43.83439],[-93.13354,43.83229],[-93.12938,43.83376],[-93.12017,43.83331],[-93.11946,43.8282],[-93.11022,43.82919],[-93.10461,43.83418],[-93.1019,43.83386],[-93.10057,43.83016],[-93.0968,43.82925],[-93.09474,43.83032],[-93.09422,43.83376],[-93.09676,43.83708],[-93.08822,43.84043],[-93.09024,43.84878],[-93.09553,43.85016],[-93.09451,43.85273],[-93.09598,43.85559],[-93.08344,43.86038],[-93.08292,43.86375],[-93.07262,43.86749],[-93.0694,43.87271],[-93.07041,43.87539],[-93.06548,43.87923],[-93.06565,43.88594],[-93.07,43.88563],[-93.06811,43.88648],[-93.06844,43.88904],[-93.06554,43.89342],[-93.07008,43.90045],[-93.07784,43.90256],[-93.07873,43.90737],[-93.07431,43.91003],[-93.07328,43.91366],[-93.06562,43.91285],[-93.06527,43.9169],[-93.05543,43.92098],[-93.05549,43.92746],[-93.04355,43.92878],[-93.0345,43.9319],[-93.02846,43.93748],[-93.01645,43.94129],[-93.0171,43.94561],[-93.01497,43.94785],[-93.00671,43.94609],[-93.00017,43.95025],[-92.99681,43.9506],[-92.96369,43.94998],[-92.95743,43.94799],[-92.94593,43.93867],[-92.92255,43.94182],[-92.91093,43.93665],[-92.9005,43.92968],[-92.89466,43.92866],[-92.8868,43.92432],[-92.86441,43.91971],[-92.84589,43.9191],[-92.8315,43.91391],[-92.82367,43.91292],[-92.81915,43.91001],[-92.81868,43.89934],[-92.82106,43.89382],[-92.81896,43.88754],[-92.81911,43.88213],[-92.81272,43.8786],[-92.7998,43.87799],[-92.79551,43.87411],[-92.79937,43.86953],[-92.79896,43.85061],[-92.80547,43.84638],[-92.80491,43.838],[-92.80048,43.83163],[-92.80939,43.82539],[-92.8092,43.82406],[-92.7991,43.8211],[-92.79796,43.81783],[-92.79998,43.81481],[-92.80116,43.8054],[-92.79631,43.80502],[-92.79422,43.8011],[-92.78648,43.7947],[-92.78856,43.7927],[-92.78967,43.78583],[-92.79587,43.77824],[-92.7899,43.7744],[-92.78954,43.76948],[-92.79934,43.76629],[-92.80044,43.76504],[-92.79968,43.76085],[-92.79559,43.75778],[-92.79442,43.75344],[-92.78975,43.74904],[-92.78567,43.74826],[-92.7797,43.74441],[-92.78032,43.7405],[-92.7776,43.7369],[-92.77323,43.73675],[-92.76446,43.73207],[-92.7605,43.73175],[-92.75855,43.73411],[-92.75404,43.73522],[-92.75334,43.73713],[-92.74952,43.73729],[-92.74853,43.73062],[-92.74642,43.72922],[-92.74811,43.71977],[-92.73283,43.71787],[-92.72736,43.71456],[-92.71962,43.71665],[-92.71332,43.71478],[-92.69937,43.71425],[-92.69789,43.71206],[-92.69919,43.7091],[-92.69763,43.70815],[-92.68774,43.70724],[-92.68466,43.70313],[-92.68677,43.69988],[-92.68419,43.69558],[-92.68687,43.6865],[-92.68961,43.68261],[-92.68939,43.67731],[-92.68477,43.67631],[-92.68367,43.66786],[-92.67708,43.665],[-92.67592,43.66265],[-92.6759,43.66015],[-92.67909,43.65535],[-92.67596,43.64964],[-92.66915,43.64742],[-92.66447,43.64347],[-92.6626,43.63657],[-92.66825,43.62694],[-92.64447,43.62025],[-92.64075,43.61854],[-92.63627,43.61313],[-92.64746,43.60732],[-92.65114,43.59844],[-92.65625,43.594],[-92.6575,43.58364],[-92.65546,43.57972],[-92.65501,43.57352],[-92.66597,43.56417],[-92.6664,43.56198],[-92.66372,43.56103],[-92.6601,43.55542],[-92.66046,43.55376],[-92.66582,43.55306],[-92.6677,43.54787],[-92.67214,43.54581],[-92.67684,43.53911],[-92.68557,43.54043],[-92.69542,43.5388],[-92.70303,43.53555],[-92.71022,43.53565],[-92.71227,43.53166],[-92.70812,43.52484],[-92.70167,43.51999],[-92.68916,43.50042],[-92.6826,43.4973],[-92.68111,43.49389],[-92.6662,43.47932],[-92.65222,43.47045],[-92.65302,43.46533],[-92.65606,43.46377],[-92.65584,43.46152],[-92.6506,43.45858],[-92.64828,43.45114],[-92.66076,43.44495],[-92.6623,43.44294],[-92.65903,43.43995],[-92.66329,43.43442],[-92.65211,43.43193],[-92.64238,43.42771],[-92.62745,43.41672],[-92.62382,43.41137],[-92.62557,43.40687],[-92.62363,43.40007],[-92.61402,43.39516],[-92.61348,43.38585],[-92.61172,43.38299],[-92.60899,43.37979],[-92.60277,43.37775],[-92.60068,43.37474],[-92.60074,43.36594],[-92.59926,43.36258],[-92.6004,43.35779],[-92.59444,43.34728],[-92.59655,43.34531],[-92.59451,43.33713],[-92.59685,43.33511],[-92.59774,43.3279],[-92.59356,43.31905],[-92.59501,43.31524],[-92.59411,43.31201],[-92.58369,43.30129],[-92.5846,43.29956],[-92.58331,43.29798],[-92.57605,43.29398],[-92.58482,43.28561],[-92.58352,43.28243],[-92.58982,43.27818],[-92.5899,43.27344],[-92.58459,43.26825],[-92.57513,43.26679],[-92.57254,43.26338],[-92.57511,43.26062],[-92.57087,43.25408],[-92.57129,43.24451],[-92.56904,43.24253],[-92.56798,43.23744],[-92.56895,43.23519],[-92.5673,43.23111],[-92.56992,43.22905],[-92.57238,43.22191],[-92.56873,43.21717],[-92.56494,43.21635],[-92.56393,43.21453],[-92.56633,43.20537],[-92.58131,43.19572],[-92.58432,43.18747],[-92.57544,43.17914],[-92.56108,43.17491],[-92.55653,43.17169],[-92.55416,43.16706],[-92.54308,43.16272],[-92.54399,43.15995],[-92.54095,43.15676],[-92.53867,43.14992],[-92.54018,43.14693],[-92.53301,43.135],[-92.52868,43.13255],[-92.52762,43.1278],[-92.52346,43.12543],[-92.52194,43.12186],[-92.52213,43.11504],[-92.51987,43.11132],[-92.51431,43.10391],[-92.50604,43.09829],[-92.50535,43.0905],[-92.50164,43.09012],[-92.49596,43.08568],[-92.49604,43.07682],[-92.49075,43.07157],[-92.49247,43.07],[-92.49145,43.06772],[-92.47662,43.05802],[-92.47178,43.04561],[-92.47365,43.03952],[-92.4663,43.03283],[-92.46166,43.03182],[-92.46269,43.02942],[-92.4608,43.02692],[-92.45338,43.02686],[-92.44846,43.02535],[-92.44568,43.02237],[-92.43852,43.02098],[-92.4404,43.01747],[-92.43938,43.0108],[-92.43628,43.00859],[-92.4352,43.00363],[-92.42967,42.9987],[-92.42991,42.99414],[-92.4195,42.98181],[-92.41987,42.97955],[-92.41665,42.97603],[-92.41658,42.97281],[-92.40874,42.96695],[-92.40745,42.94918],[-92.40249,42.94501],[-92.39898,42.93821],[-92.40278,42.93379],[-92.40243,42.93008],[-92.40542,42.92518],[-92.39983,42.91081],[-92.40105,42.90559],[-92.39855,42.90067],[-92.39417,42.89761],[-92.39387,42.895],[-92.38969,42.89253],[-92.39377,42.88359],[-92.39378,42.86587],[-92.39755,42.8554],[-92.39319,42.85235],[-92.38184,42.84871],[-92.38518,42.84788],[-92.38462,42.84587],[-92.38222,42.84283],[-92.3771,42.84091],[-92.3755,42.8287],[-92.36496,42.81459],[-92.35868,42.81203],[-92.35805,42.80567],[-92.34641,42.79914],[-92.34162,42.7943],[-92.34108,42.78864],[-92.33813,42.78443],[-92.33228,42.78346],[-92.3293,42.78135],[-92.32549,42.76854],[-92.32134,42.76418],[-92.31937,42.75819],[-92.31522,42.75572],[-92.31637,42.74807],[-92.31483,42.7421],[-92.30662,42.73737],[-92.3004,42.7291],[-92.2985,42.72501],[-92.29774,42.71441],[-92.2929,42.71107],[-92.29211,42.70743],[-92.28784,42.70376],[-92.29793,42.69437],[-92.29821,42.68901],[-92.29415,42.6867],[-92.29316,42.68287],[-92.28701,42.67592],[-92.28603,42.67251],[-92.28782,42.66654],[-92.28304,42.65789],[-92.28372,42.65464],[-92.28609,42.65431],[-92.29729,42.65874],[-92.30061,42.65791],[-92.30813,42.64609],[-92.30604,42.6359],[-92.30375,42.63379],[-92.30406,42.63194],[-92.29853,42.6216],[-92.29797,42.61807],[-92.30064,42.61381],[-92.29815,42.61151],[-92.29813,42.60338],[-92.29474,42.5951],[-92.28048,42.58994],[-92.26225,42.59047],[-92.25718,42.59526],[-92.24613,42.59375],[-92.23734,42.58841],[-92.21082,42.57883],[-92.20723,42.57053],[-92.20511,42.56906],[-92.19952,42.56663],[-92.18748,42.56562],[-92.18421,42.56203],[-92.17361,42.55593],[-92.16927,42.55532],[-92.16331,42.5501],[-92.14097,42.54757],[-92.13775,42.54601],[-92.13657,42.54166],[-92.12818,42.53737],[-92.12578,42.53332],[-92.1264,42.53144],[-92.13468,42.52702],[-92.13696,42.52287],[-92.14323,42.52117],[-92.14333,42.51679],[-92.14887,42.51266],[-92.1478,42.50764],[-92.15044,42.50296],[-92.14748,42.50094],[-92.14458,42.48927],[-92.13679,42.49081],[-92.1291,42.4897],[-92.12566,42.49152],[-92.12282,42.49108],[-92.12105,42.48881],[-92.11513,42.49001],[-92.10683,42.48734],[-92.10444,42.49331],[-92.09874,42.49637],[-92.09768,42.49962],[-92.09958,42.50408],[-92.09651,42.50302],[-92.08942,42.50398],[-92.08573,42.50189],[-92.07151,42.50415],[-92.06644,42.49956],[-92.06023,42.49883],[-92.05316,42.50331],[-92.04914,42.50294],[-92.03639,42.49888],[-92.03135,42.48318],[-92.01816,42.4777],[-92.01579,42.47507],[-92.00552,42.47863],[-92.00222,42.47748],[-91.99377,42.47853],[-91.99111,42.48128],[-91.9846,42.48192],[-91.98537,42.48392],[-91.98344,42.48604],[-91.97896,42.48667],[-91.97081,42.46982],[-91.97076,42.46693],[-91.96105,42.46572],[-91.95451,42.46834],[-91.93876,42.47011],[-91.93651,42.46203],[-91.93792,42.45934],[-91.92366,42.45191],[-91.92421,42.44897],[-91.92298,42.44825],[-91.89551,42.44164],[-91.88773,42.44202],[-91.88315,42.43506],[-91.87176,42.43236],[-91.8693,42.42916],[-91.86967,42.42352],[-91.86519,42.42004],[-91.86671,42.41777],[-91.86595,42.41544],[-91.86229,42.41319],[-91.85583,42.40483],[-91.84182,42.40041],[-91.84161,42.39625],[-91.83882,42.3937],[-91.84002,42.39117],[-91.83874,42.38891],[-91.84169,42.38167],[-91.8385,42.37723],[-91.84414,42.37125],[-91.84457,42.36776],[-91.84284,42.36609],[-91.84567,42.36392],[-91.84467,42.35997],[-91.85572,42.35308],[-91.8533,42.35014],[-91.8562,42.3484],[-91.85596,42.33957],[-91.85162,42.33576],[-91.85051,42.33131],[-91.85203,42.33039],[-91.85153,42.32637],[-91.85455,42.32167],[-91.85501,42.31726],[-91.85749,42.31593],[-91.85104,42.31402],[-91.8503,42.31175],[-91.8398,42.30638],[-91.84014,42.30976],[-91.83288,42.31179],[-91.81762,42.31104],[-91.81367,42.30823],[-91.80798,42.31002],[-91.80602,42.31302],[-91.78072,42.3159],[-91.77856,42.31501],[-91.7781,42.31273],[-91.76527,42.30877],[-91.76525,42.30235],[-91.75993,42.29653],[-91.76133,42.29219],[-91.75989,42.28803],[-91.75466,42.28374],[-91.75393,42.27163],[-91.72568,42.26614],[-91.71756,42.26721],[-91.71618,42.26583],[-91.70078,42.26612],[-91.69927,42.25612],[-91.68737,42.24804],[-91.67896,42.24552],[-91.67329,42.24541],[-91.6721,42.24986],[-91.66412,42.24852],[-91.66064,42.25051],[-91.65757,42.25496],[-91.65028,42.25817],[-91.64358,42.25481],[-91.64195,42.25009],[-91.64175,42.24867],[-91.6452,42.24593],[-91.64442,42.23739],[-91.63892,42.23559],[-91.63371,42.22947],[-91.6339,42.22534],[-91.62743,42.21944],[-91.62422,42.21134],[-91.61988,42.20989],[-91.62009,42.203],[-91.61141,42.19545],[-91.60719,42.19775],[-91.59693,42.19872],[-91.59264,42.20133],[-91.58298,42.21203],[-91.56527,42.20764],[-91.56735,42.20203],[-91.57328,42.19815],[-91.57615,42.18971],[-91.57536,42.18794],[-91.57261,42.18747],[-91.56759,42.17197],[-91.55909,42.16859],[-91.55529,42.16338],[-91.54783,42.16256],[-91.54178,42.1646],[-91.53487,42.16426],[-91.53361,42.16279],[-91.52728,42.16276],[-91.52371,42.16013],[-91.51738,42.16054],[-91.51546,42.15938],[-91.5179,42.1574],[-91.51759,42.15539],[-91.51175,42.15077],[-91.49576,42.156],[-91.4862,42.15448],[-91.48313,42.14813],[-91.48336,42.14345],[-91.47841,42.14045],[-91.47761,42.13924],[-91.4792,42.13728],[-91.47649,42.13483],[-91.4691,42.13201],[-91.46394,42.13263],[-91.46077,42.12997],[-91.45668,42.12948],[-91.45287,42.12491],[-91.44933,42.12515],[-91.44162,42.12164],[-91.44095,42.12004],[-91.44446,42.11511],[-91.44193,42.11118],[-91.43663,42.10926],[-91.43133,42.11091],[-91.41757,42.10096],[-91.40826,42.09724],[-91.40504,42.08584],[-91.40652,42.08429],[-91.40679,42.07852],[-91.39453,42.076],[-91.39366,42.07352],[-91.38636,42.0699],[-91.3824,42.06958],[-91.37679,42.07162],[-91.37138,42.0691],[-91.36313,42.06998],[-91.36148,42.06891],[-91.36211,42.06697],[-91.36017,42.06504],[-91.361,42.06004],[-91.35434,42.05265],[-91.35015,42.0521],[-91.34964,42.04748],[-91.35286,42.04551],[-91.35172,42.0407],[-91.34705,42.03684],[-91.34059,42.03533],[-91.33947,42.03019],[-91.34767,42.0278],[-91.34651,42.0262],[-91.34798,42.0239],[-91.35587,42.02009],[-91.35834,42.01718],[-91.36777,42.01386],[-91.3698,42.00792],[-91.37456,42.00924],[-91.37669,42.00649],[-91.38824,41.99972],[-91.37683,41.99555],[-91.37847,41.99407],[-91.37571,41.98989],[-91.36993,41.9869],[-91.37496,41.98499],[-91.37844,41.98219],[-91.37833,41.97965],[-91.38121,41.97906],[-91.37696,41.97539],[-91.37752,41.97115],[-91.37231,41.96988],[-91.36822,41.9656],[-91.36339,41.96503],[-91.35654,41.95522],[-91.32983,41.945],[-91.32418,41.94467],[-91.3171,41.94179],[-91.31266,41.94346],[-91.30708,41.94149],[-91.30357,41.93948],[-91.30531,41.93338],[-91.30322,41.92987],[-91.30324,41.92025],[-91.2839,41.91262],[-91.25636,41.90526],[-91.25497,41.90435],[-91.25528,41.90213],[-91.23651,41.89694],[-91.23437,41.89915],[-91.21887,41.8977],[-91.2257,41.90355],[-91.2246,41.90525],[-91.22663,41.90689],[-91.22264,41.91107],[-91.20862,41.91016],[-91.19954,41.91572],[-91.19607,41.91448],[-91.19388,41.91745],[-91.19124,41.91777],[-91.19032,41.92054],[-91.17734,41.91741],[-91.17257,41.92356],[-91.16707,41.92528],[-91.1554,41.92417],[-91.14722,41.92143],[-91.13224,41.92185],[-91.12533,41.91535],[-91.11753,41.91077],[-91.11734,41.90544],[-91.12371,41.90173],[-91.12252,41.89754],[-91.1251,41.8952],[-91.12564,41.89099],[-91.11653,41.88112],[-91.10933,41.87724],[-91.10978,41.87402],[-91.08625,41.87043],[-91.07844,41.87513],[-91.05815,41.86929],[-91.05698,41.86693],[-91.0485,41.86308],[-91.05113,41.86215],[-91.04953,41.85573],[-91.05121,41.85337],[-91.04522,41.8514],[-91.04475,41.8492],[-91.03873,41.84621],[-91.03758,41.84225],[-91.04043,41.83202],[-91.04646,41.82635],[-91.04528,41.82434],[-91.04731,41.82266],[-91.05321,41.82249],[-91.0542,41.82093],[-91.05398,41.81248],[-91.04071,41.80638],[-91.03531,41.80186],[-91.03769,41.79931],[-91.03578,41.79795],[-91.03145,41.79761],[-91.02781,41.79516],[-91.02241,41.79514],[-91.01695,41.79016],[-91.01261,41.78933],[-91.01076,41.78811],[-91.0109,41.78611],[-91.00777,41.78525],[-91.00654,41.78198],[-90.99945,41.77929],[-90.99766,41.77665],[-90.97099,41.77523],[-90.96491,41.7704],[-90.95823,41.76872],[-90.9543,41.76408],[-90.94204,41.75604],[-90.94134,41.75492],[-90.94325,41.75244],[-90.93858,41.74267],[-90.92637,41.73985],[-90.92053,41.74054],[-90.90185,41.73267],[-90.90178,41.73087],[-90.90513,41.72857],[-90.90128,41.72628],[-90.90268,41.72341],[-90.90633,41.72527],[-90.90938,41.72432],[-90.90713,41.72207],[-90.90667,41.71661],[-90.91412,41.71472],[-90.92692,41.71524],[-90.93192,41.71078],[-90.93406,41.70604],[-90.94295,41.70026],[-90.95299,41.70176],[-90.95156,41.69124],[-90.94831,41.6908],[-90.94839,41.68773],[-90.92654,41.67788],[-90.92744,41.67544],[-90.92412,41.67351],[-90.92786,41.67011],[-90.92619,41.66633],[-90.92724,41.66458],[-90.91209,41.64692],[-90.89795,41.64348],[-90.88858,41.63671],[-90.87897,41.6352],[-90.8762,41.63295],[-90.8671,41.63312],[-90.86297,41.63994],[-90.85307,41.63999],[-90.84165,41.6452],[-90.82951,41.63835],[-90.83019,41.63453],[-90.82079,41.62852],[-90.79604,41.62141],[-90.7932,41.62351],[-90.78992,41.62313],[-90.78737,41.62562],[-90.77165,41.61719],[-90.77148,41.61335],[-90.74435,41.60346],[-90.74416,41.60104],[-90.74157,41.59945],[-90.72999,41.59791],[-90.7214,41.59957],[-90.70259,41.5914],[-90.69925,41.58774],[-90.70514,41.58127],[-90.70393,41.57603],[-90.71412,41.58077],[-90.72097,41.57979],[-90.72258,41.57638],[-90.73297,41.57626],[-90.74193,41.57276],[-90.75458,41.57424],[-90.75558,41.57058],[-90.76426,41.56074],[-90.76235,41.55607],[-90.75505,41.55347],[-90.75505,41.55033],[-90.75062,41.54868],[-90.75427,41.54694],[-90.76153,41.53799],[-90.77489,41.53464],[-90.78039,41.52412],[-90.78385,41.52388],[-90.78574,41.52514],[-90.78585,41.52754],[-90.79036,41.52858],[-90.79968,41.52813],[-90.80515,41.52346],[-90.81538,41.51983],[-90.84199,41.52373],[-90.84338,41.52587],[-90.84311,41.53274],[-90.8599,41.53778],[-90.86936,41.53764],[-90.87229,41.53963],[-90.87325,41.54287],[-90.87674,41.5443],[-90.87858,41.54978],[-90.89102,41.55408],[-90.89426,41.5575],[-90.90301,41.55804],[-90.90801,41.56199],[-90.91466,41.56279],[-90.92374,41.56136],[-90.92787,41.56293],[-90.92772,41.55537],[-90.95248,41.55222],[-90.95291,41.54877],[-90.95793,41.54381],[-90.96114,41.53725],[-90.95895,41.53287],[-90.96213,41.52897],[-90.9568,41.52445],[-90.9689,41.50989],[-90.96717,41.50592],[-90.96311,41.50321],[-90.96541,41.49751],[-90.97034,41.49375],[-90.96903,41.49115],[-90.97009,41.48951],[-90.97639,41.48685],[-90.98215,41.48673],[-90.98835,41.49092],[-90.99266,41.49083],[-90.99745,41.49857],[-91.01266,41.50635],[-91.02266,41.50859],[-91.03951,41.49754],[-91.04015,41.4939],[-91.03697,41.4927],[-91.03545,41.48727],[-91.04005,41.4837],[-91.04376,41.4851],[-91.04972,41.48331],[-91.06252,41.48376],[-91.06626,41.47989],[-91.07233,41.47939],[-91.07329,41.47724],[-91.07187,41.47413],[-91.07434,41.47271],[-91.0733,41.46951],[-91.07594,41.46534],[-91.08184,41.46683],[-91.08616,41.4651],[-91.08798,41.46413],[-91.08647,41.4621],[-91.09504,41.45667],[-91.09997,41.46041],[-91.10773,41.45919],[-91.10955,41.45634],[-91.11365,41.45607],[-91.11595,41.45255],[-91.11134,41.44718],[-91.1245,41.44533],[-91.13143,41.4413],[-91.14189,41.44197],[-91.14534,41.44399],[-91.14691,41.44164],[-91.15288,41.44024],[-91.15223,41.43815],[-91.15621,41.43633],[-91.1557,41.43454],[-91.15756,41.43248],[-91.16017,41.4318],[-91.16089,41.42199],[-91.15699,41.41731],[-91.16137,41.41472],[-91.16898,41.4145],[-91.17654,41.41215],[-91.17912,41.40801],[-91.17807,41.40547],[-91.18001,41.40369],[-91.17871,41.40207],[-91.18226,41.399],[-91.17924,41.39756],[-91.17986,41.3948],[-91.18318,41.39393],[-91.18827,41.38911],[-91.18999,41.38422],[-91.19326,41.38164],[-91.19313,41.37775],[-91.19757,41.37469],[-91.19704,41.37244],[-91.19865,41.37011],[-91.19676,41.36773],[-91.19819,41.36546],[-91.19681,41.35924],[-91.20094,41.35698],[-91.20123,41.35318],[-91.20542,41.35164],[-91.20473,41.34907],[-91.19672,41.34703],[-91.1965,41.34448],[-91.19287,41.34272],[-91.19619,41.3407],[-91.19455,41.33393],[-91.20134,41.33362],[-91.20229,41.3318],[-91.20119,41.32964],[-91.20294,41.32525],[-91.20089,41.3224],[-91.20281,41.32129],[-91.19031,41.31448],[-91.18997,41.31195],[-91.19414,41.30569],[-91.18218,41.29804],[-91.18403,41.29498],[-91.18975,41.29296],[-91.18905,41.29052],[-91.19189,41.28284],[-91.19044,41.27999],[-91.17743,41.27549],[-91.17683,41.27277],[-91.17937,41.26759],[-91.16813,41.25821],[-91.16834,41.25079],[-91.15055,41.23984],[-91.14901,41.23368],[-91.153,41.22825],[-91.15074,41.2278],[-91.1423,41.23171],[-91.13732,41.2291],[-91.13572,41.2258],[-91.13654,41.2231],[-91.13325,41.22047],[-91.13198,41.21536],[-91.12582,41.2087],[-91.12781,41.20653],[-91.13669,41.20547],[-91.14328,41.2063],[-91.14298,41.20759],[-91.14708,41.20909],[-91.15337,41.20317],[-91.16033,41.20131],[-91.1643,41.19747],[-91.16075,41.19439],[-91.16277,41.19124],[-91.16553,41.19068],[-91.16806,41.18361],[-91.17246,41.1838],[-91.17397,41.17937],[-91.15817,41.16861],[-91.15987,41.16492],[-91.16515,41.16444],[-91.16694,41.16907],[-91.17062,41.17103],[-91.17381,41.17183],[-91.17315,41.16988],[-91.17785,41.16977],[-91.17829,41.17159],[-91.18062,41.17208],[-91.17999,41.17444],[-91.18862,41.18008],[-91.18574,41.18434],[-91.18709,41.18529],[-91.19054,41.18181]],[[-91.3461,41.25964],[-91.34534,41.26722],[-91.35122,41.27264],[-91.35284,41.28101],[-91.36077,41.2813],[-91.36282,41.27964],[-91.36163,41.2758],[-91.36247,41.27197],[-91.36769,41.26948],[-91.36364,41.25787],[-91.35706,41.25541],[-91.34367,41.25573],[-91.34192,41.25794],[-91.3461,41.25964]],[[-91.98185,41.76124],[-91.97666,41.76919],[-91.97831,41.77166],[-91.97727,41.77594],[-91.98271,41.77952],[-91.98309,41.78445],[-91.99239,41.78782],[-91.99506,41.78472],[-91.99701,41.777],[-91.98972,41.77142],[-91.98935,41.76866],[-91.99657,41.76616],[-91.99987,41.76702],[-92.00143,41.76519],[-91.98608,41.75676],[-91.98185,41.76124]],[[-92.46084,41.94069],[-92.46322,41.94131],[-92.4638,41.93701],[-92.46016,41.93693],[-92.46084,41.94069]],[[-92.69368,42.00216],[-92.69228,41.99821],[-92.68922,41.99614],[-92.69163,41.99089],[-92.68917,41.98661],[-92.68336,41.98354],[-92.67529,41.9857],[-92.67398,41.9912],[-92.67845,41.99757],[-92.67879,42.00742],[-92.67608,42.01117],[-92.67389,42.01158],[-92.67583,42.01413],[-92.67473,42.0178],[-92.66065,42.02144],[-92.66036,42.02509],[-92.67291,42.03222],[-92.67448,42.03029],[-92.68745,42.02777],[-92.68623,42.02351],[-92.69422,42.02176],[-92.69217,42.01412],[-92.69428,42.00598],[-92.69368,42.00216]],[[-91.16182,41.5808],[-91.15574,41.57749],[-91.15301,41.57014],[-91.15424,41.56685],[-91.15635,41.56592],[-91.1547,41.56385],[-91.15571,41.56325],[-91.15253,41.56242],[-91.14909,41.56581],[-91.14523,41.56604],[-91.14274,41.57009],[-91.13902,41.57215],[-91.12586,41.57355],[-91.1261,41.57616],[-91.1203,41.57562],[-91.12102,41.57932],[-91.12321,41.58057],[-91.12241,41.58187],[-91.13177,41.58398],[-91.1307,41.58687],[-91.13764,41.58583],[-91.13743,41.59325],[-91.14629,41.59793],[-91.15085,41.59762],[-91.15661,41.59476],[-91.15959,41.59536],[-91.15984,41.59373],[-91.16191,41.5933],[-91.16113,41.59034],[-91.15859,41.58888],[-91.1618,41.58564],[-91.16216,41.58445],[-91.15909,41.58286],[-91.16182,41.5808]],[[-92.28139,42.52635],[-92.28445,42.52262],[-92.28255,42.51145],[-92.27934,42.51071],[-92.27759,42.50557],[-92.27903,42.50041],[-92.27781,42.49843],[-92.26852,42.4945],[-92.26531,42.49951],[-92.26858,42.50313],[-92.26929,42.50774],[-92.26667,42.51458],[-92.26282,42.51727],[-92.2679,42.52283],[-92.27413,42.5258],[-92.27467,42.53067],[-92.28045,42.52893],[-92.28139,42.52635]],[[-92.55079,42.77456],[-92.55418,42.77419],[-92.5557,42.7724],[-92.55745,42.76626],[-92.55608,42.76153],[-92.54738,42.74769],[-92.54344,42.74923],[-92.53993,42.74768],[-92.53703,42.7484],[-92.52944,42.74506],[-92.52091,42.73106],[-92.5125,42.72984],[-92.51225,42.74106],[-92.50874,42.74282],[-92.5099,42.74527],[-92.5087,42.74664],[-92.5131,42.75682],[-92.52154,42.76285],[-92.52521,42.76068],[-92.5298,42.76292],[-92.53413,42.77662],[-92.54684,42.78072],[-92.5482,42.77565],[-92.55079,42.77456]]]}}]}