{"type":"FeatureCollection","features":[{"type":"Feature","properties":{},"geometry":{"type":"Polygon","coordinates":[[[-91.85318,41.93725],[-91.85623,41.9388],[-91.85713,41.94112],[-91.85517,41.94485],[-91.85497,41.94736],[-91.85643,41.94846],[-91.87474,41.95405],[-91.87917,41.95136],[-91.88275,41.95122],[-91.88602,41.95265],[-91.88608,41.95491],[-91.89145,41.95953],[-91.89636,41.96125],[-91.89712,41.9624],[-91.89249,41.97084],[-91.87725,41.97143],[-91.87153,41.97703],[-91.87204,41.98224],[-91.87059,41.98544],[-91.8665,41.98665],[-91.85789,41.98423],[-91.84799,41.98499],[-91.83719,41.97632],[-91.83044,41.97607],[-91.81432,41.98616],[-91.80975,41.98659],[-91.79921,41.98287],[-91.79409,41.98304],[-91.79163,41.98532],[-91.78675,41.98513],[-91.7714,41.9934],[-91.76948,41.99774],[-91.76679,41.99861],[-91.76707,42.00113],[-91.76066,42.00402],[-91.7502,42.00034],[-91.7518,41.99122],[-91.75075,41.98655],[-91.75231,41.9836],[-91.75049,41.9816],[-91.74529,41.98138],[-91.74363,41.97793],[-91.74388,41.97305],[-91.74941,41.9702],[-91.7473,41.96641],[-91.75942,41.96476],[-91.76058,41.96297],[-91.76615,41.96246],[-91.77735,41.95827],[-91.78158,41.95847],[-91.78461,41.95618],[-91.80077,41.95684],[-91.80986,41.95082],[-91.80845,41.94802],[-91.81005,41.94215],[-91.8183,41.9401],[-91.82632,41.94103],[-91.83042,41.93691],[-91.83821,41.93786],[-91.84256,41.93712],[-91.84539,41.93474],[-91.85318,41.93725]]]}}]}