{"type":"FeatureCollection","features":[{"type":"Feature","properties":{},"geometry":{"type":"Polygon","coordinates":[[[-91.70874,41.57236],[-91.71087,41.57335],[-91.71296,41.57035],[-91.72103,41.57062],[-91.72454,41.56791],[-91.72879,41.571],[-91.73404,41.57021],[-91.74059,41.5664],[-91.74546,41.56635],[-91.74789,41.56707],[-91.75023,41.57063],[-91.75392,41.57146],[-91.7547,41.57454],[-91.75951,41.57324],[-91.76482,41.57514],[-91.7647,41.5804],[-91.77299,41.58013],[-91.78289,41.58218],[-91.78953,41.58052],[-91.79427,41.58518],[-91.80963,41.58888],[-91.8099,41.5906],[-91.81767,41.59422],[-91.82168,41.59245],[-91.82554,41.58697],[-91.83234,41.58674],[-91.83472,41.5895],[-91.84207,41.58742],[-91.85138,41.59004],[-91.86235,41.58899],[-91.86617,41.59297],[-91.87659,41.59465],[-91.88092,41.59115],[-91.88056,41.58604],[-91.8833,41.58409],[-91.8898,41.5876],[-91.89277,41.58719],[-91.89453,41.59062],[-91.89679,41.59106],[-91.90254,41.59008],[-91.90382,41.5869],[-91.90836,41.58689],[-91.91634,41.58998],[-91.93005,41.58505],[-91.93649,41.58545],[-91.94149,41.58883],[-91.95277,41.58738],[-91.95772,41.58861],[-91.95993,41.5912],[-91.96753,41.58945],[-91.97262,41.58288],[-91.9788,41.58283],[-91.98374,41.57896],[-91.98701,41.57923],[-91.99444,41.58363],[-91.99479,41.5862],[-92.00019,41.58633],[-92.00376,41.58342],[-92.01581,41.58625],[-92.01744,41.58898],[-92.02211,41.58686],[-92.0281,41.59162],[-92.03053,41.59644],[-92.03536,41.59639],[-92.03786,41.60344],[-92.04272,41.60429],[-92.04533,41.60648],[-92.05885,41.60463],[-92.06222,41.60949],[-92.07152,41.61274],[-92.07071,41.61557],[-92.07273,41.61864],[-92.06827,41.62172],[-92.06915,41.62421],[-92.06781,41.6261],[-92.07655,41.632],[-92.08165,41.63069],[-92.08995,41.63267],[-92.09218,41.63735],[-92.09091,41.64182],[-92.0963,41.64716],[-92.10063,41.64816],[-92.10851,41.64504],[-92.1151,41.64922],[-92.12357,41.64912],[-92.1356,41.65466],[-92.13762,41.65877],[-92.14072,41.66067],[-92.15172,41.66486],[-92.15636,41.66478],[-92.16178,41.66033],[-92.16867,41.66363],[-92.1718,41.66295],[-92.17503,41.66465],[-92.18228,41.66356],[-92.1837,41.6735],[-92.19343,41.6741],[-92.19745,41.67191],[-92.20484,41.67455],[-92.21259,41.67444],[-92.22425,41.67733],[-92.22432,41.67951],[-92.22761,41.6827],[-92.22603,41.68966],[-92.22739,41.69237],[-92.23323,41.69317],[-92.23636,41.69639],[-92.23212,41.69642],[-92.23121,41.69968],[-92.22617,41.70256],[-92.22622,41.70719],[-92.22443,41.70846],[-92.21839,41.70715],[-92.21345,41.71075],[-92.20547,41.71357],[-92.20389,41.71496],[-92.20502,41.71667],[-92.20178,41.71764],[-92.19941,41.7166],[-92.19073,41.71809],[-92.18641,41.71205],[-92.18538,41.70773],[-92.17502,41.70327],[-92.16773,41.70424],[-92.1667,41.70595],[-92.15633,41.70595],[-92.15425,41.71056],[-92.14864,41.715],[-92.14976,41.71779],[-92.14818,41.71987],[-92.14583,41.71857],[-92.13838,41.71877],[-92.13219,41.72463],[-92.12723,41.72191],[-92.12166,41.72245],[-92.12094,41.72517],[-92.1139,41.7277],[-92.11246,41.73576],[-92.10831,41.73666],[-92.10689,41.73971],[-92.10089,41.73711],[-92.10276,41.73465],[-92.0995,41.7324],[-92.09925,41.73021],[-92.09551,41.72948],[-92.0888,41.72296],[-92.08712,41.72247],[-92.08682,41.72594],[-92.08348,41.72907],[-92.07101,41.72522],[-92.06847,41.72613],[-92.06535,41.72387],[-92.05788,41.72534],[-92.05711,41.72225],[-92.04855,41.71982],[-92.03977,41.71464],[-92.0402,41.71184],[-92.03742,41.71077],[-92.0369,41.70851],[-92.0327,41.70766],[-92.02697,41.71046],[-92.02209,41.71018],[-92.01145,41.70447],[-92.00883,41.70507],[-92.00354,41.70273],[-91.99382,41.70583],[-91.98929,41.70584],[-91.98516,41.70365],[-91.98297,41.70644],[-91.97951,41.70728],[-91.96635,41.70362],[-91.95986,41.69761],[-91.96297,41.69588],[-91.96784,41.69608],[-91.97096,41.68159],[-91.95691,41.6731],[-91.95012,41.67333],[-91.94481,41.67762],[-91.93161,41.67615],[-91.92437,41.67814],[-91.92389,41.68092],[-91.91126,41.67929],[-91.90736,41.68173],[-91.89782,41.67916],[-91.88804,41.68241],[-91.87471,41.6785],[-91.86783,41.68115],[-91.8683,41.68226],[-91.86462,41.68504],[-91.85439,41.68647],[-91.85407,41.68954],[-91.85134,41.69228],[-91.85191,41.69419],[-91.8427,41.69856],[-91.83822,41.69755],[-91.83599,41.69937],[-91.83071,41.69864],[-91.82416,41.7001],[-91.81657,41.69974],[-91.81273,41.69765],[-91.80437,41.70113],[-91.8016,41.70032],[-91.8007,41.69708],[-91.79354,41.69323],[-91.79,41.69377],[-91.7892,41.69601],[-91.78494,41.69521],[-91.78154,41.69711],[-91.7791,41.69409],[-91.77131,41.69789],[-91.76042,41.69602],[-91.7597,41.69457],[-91.7553,41.6939],[-91.75521,41.68927],[-91.74963,41.68555],[-91.74789,41.68253],[-91.74416,41.6798],[-91.73846,41.67968],[-91.73534,41.67515],[-91.72879,41.67243],[-91.72039,41.67166],[-91.71561,41.6734],[-91.71221,41.67096],[-91.70645,41.67254],[-91.70318,41.67146],[-91.70117,41.67172],[-91.70144,41.67366],[-91.69882,41.67557],[-91.69367,41.67636],[-91.68689,41.66835],[-91.67484,41.67239],[-91.66945,41.66925],[-91.66172,41.67063],[-91.66019,41.66678],[-91.65586,41.66644],[-91.65485,41.66234],[-91.648,41.65965],[-91.64055,41.66107],[-91.63827,41.66551],[-91.63563,41.66567],[-91.63417,41.66899],[-91.63236,41.66892],[-91.63042,41.66632],[-91.61263,41.65912],[-91.61143,41.65602],[-91.60809,41.65602],[-91.60957,41.65255],[-91.60824,41.65048],[-91.60507,41.64749],[-91.60133,41.64749],[-91.60006,41.64582],[-91.60277,41.64242],[-91.5995,41.63582],[-91.60146,41.63177],[-91.5994,41.62933],[-91.59418,41.62764],[-91.59683,41.62315],[-91.59413,41.62139],[-91.59501,41.61812],[-91.59386,41.61662],[-91.60313,41.61345],[-91.60283,41.60889],[-91.60982,41.59946],[-91.61637,41.60024],[-91.61874,41.59549],[-91.63854,41.59632],[-91.64545,41.59495],[-91.651,41.59002],[-91.65635,41.5889],[-91.65566,41.58599],[-91.65935,41.58497],[-91.6626,41.57917],[-91.66844,41.57859],[-91.67273,41.57096],[-91.68043,41.5726],[-91.68897,41.57784],[-91.69015,41.57654],[-91.69942,41.57597],[-91.7012,41.57115],[-91.70874,41.57236]]]}}]}