{"type":"FeatureCollection","features":[{"type":"Feature","properties":{},"geometry":{"type":"Polygon","coordinates":[[[-95.38319,43.51277],[-95.38319,43.50443],[-95.38736,43.50443],[-95.38736,43.4961],[-95.39986,43.4961],[-95.39986,43.50027],[-95.40819,43.50027],[-95.40819,43.50443],[-95.42903,43.50443],[-95.42903,43.5086],[-95.43736,43.5086],[-95.43736,43.50027],[-95.42486,43.50027],[-95.42486,43.48777],[-95.42903,43.48777],[-95.42903,43.47943],[-95.4332,43.47943],[-95.4332,43.47526],[-95.43736,43.47526],[-95.43736,43.46693],[-95.4332,43.46693],[-95.4332,43.46276],[-95.42903,43.46276],[-95.42903,43.4586],[-95.42486,43.4586],[-95.42486,43.45443],[-95.39569,43.45443],[-95.39569,43.4586],[-95.34986,43.4586],[-95.34986,43.46276],[-95.34569,43.46276],[-95.34569,43.4586],[-95.34152,43.4586],[-95.34152,43.46276],[-95.33736,43.46276],[-95.33736,43.46693],[-95.32902,43.46693],[-95.32902,43.47943],[-95.33319,43.47943],[-95.33319,43.4836],[-95.32902,43.4836],[-95.32902,43.4961],[-95.33319,43.4961],[-95.33319,43.50027],[-95.35402,43.50027],[-95.35402,43.4961],[-95.36652,43.4961],[-95.36652,43.50443],[-95.37069,43.50443],[-95.37069,43.51277],[-95.38319,43.51277]]]}}]}