{"type":"FeatureCollection","features":[{"type":"Feature","properties":{},"geometry":{"type":"Polygon","coordinates":[[[-91.85666,41.94005],[-91.85497,41.94736],[-91.85643,41.94846],[-91.87474,41.95405],[-91.87917,41.95136],[-91.88275,41.95122],[-91.88602,41.95265],[-91.88608,41.95491],[-91.89145,41.95953],[-91.89712,41.9624],[-91.91182,41.96689],[-91.91657,41.96677],[-91.92023,41.96326],[-91.92603,41.9609],[-91.93089,41.96087],[-91.94493,41.96641],[-91.95059,41.96463],[-91.95589,41.97187],[-91.96415,41.97548],[-91.96373,41.98023],[-91.9667,41.98311],[-91.97406,41.98349],[-91.98253,41.9871],[-91.98534,41.98262],[-91.98997,41.98539],[-91.99499,41.98614],[-91.99685,41.99184],[-92.00312,41.99304],[-92.00538,41.99586],[-92.00456,41.99744],[-92.00728,42.00382],[-92.00397,42.0056],[-92.01058,42.01269],[-92.00924,42.01494],[-92.01255,42.01728],[-92.01908,42.01364],[-92.03247,42.0105],[-92.03938,42.01408],[-92.04884,42.01252],[-92.05316,42.00941],[-92.06354,42.01294],[-92.06902,42.01159],[-92.07513,42.0076],[-92.0849,42.00957],[-92.0864,42.01322],[-92.08372,42.02112],[-92.09048,42.02435],[-92.09199,42.02808],[-92.1022,42.03317],[-92.10265,42.03561],[-92.10606,42.0382],[-92.11359,42.04034],[-92.11914,42.04388],[-92.1201,42.04633],[-92.12507,42.04887],[-92.13372,42.05747],[-92.14395,42.05687],[-92.16022,42.07187],[-92.16335,42.07661],[-92.17581,42.07678],[-92.17771,42.07967],[-92.18528,42.08316],[-92.1871,42.08993],[-92.19805,42.09696],[-92.1983,42.10149],[-92.20381,42.10254],[-92.20554,42.10573],[-92.21151,42.10737],[-92.21345,42.10949],[-92.22828,42.11234],[-92.22832,42.11556],[-92.23329,42.11857],[-92.23805,42.12448],[-92.2373,42.12817],[-92.23956,42.13162],[-92.24012,42.13685],[-92.25964,42.13807],[-92.26414,42.1413],[-92.26742,42.14596],[-92.2659,42.15084],[-92.27123,42.15681],[-92.26852,42.1625],[-92.26375,42.16663],[-92.26097,42.1671],[-92.26003,42.17474],[-92.27174,42.18152],[-92.28973,42.18042],[-92.30071,42.18718],[-92.30793,42.18841],[-92.3142,42.18875],[-92.32335,42.18419],[-92.33299,42.18568],[-92.33722,42.18254],[-92.33705,42.17784],[-92.33871,42.17626],[-92.34324,42.17694],[-92.34532,42.17395],[-92.34809,42.17308],[-92.35898,42.17288],[-92.36822,42.16976],[-92.36971,42.16219],[-92.37675,42.16109],[-92.3787,42.15875],[-92.38361,42.157],[-92.38358,42.15486],[-92.38796,42.14884],[-92.39964,42.15197],[-92.41317,42.14927],[-92.41806,42.14516],[-92.43364,42.143],[-92.43684,42.14049],[-92.44213,42.14187],[-92.44503,42.14609],[-92.44511,42.14928],[-92.44771,42.15158],[-92.4519,42.1516],[-92.45629,42.15717],[-92.46218,42.15963],[-92.46653,42.15971],[-92.47091,42.15498],[-92.48244,42.1586],[-92.48585,42.15748],[-92.48942,42.15298],[-92.4945,42.15165],[-92.50006,42.15257],[-92.50424,42.15597],[-92.51318,42.15308],[-92.51878,42.15617],[-92.52022,42.15864],[-92.52846,42.16201],[-92.53664,42.15995],[-92.54853,42.16234],[-92.55613,42.16163],[-92.55985,42.16346],[-92.56563,42.16241],[-92.56849,42.16355],[-92.57096,42.16179],[-92.57607,42.16348],[-92.58411,42.16075],[-92.58716,42.16303],[-92.593,42.16315],[-92.59588,42.16005],[-92.59599,42.15743],[-92.59782,42.15721],[-92.59984,42.15115],[-92.6037,42.14931],[-92.6108,42.15019],[-92.61481,42.14638],[-92.62066,42.14627],[-92.62563,42.14935],[-92.62711,42.15283],[-92.63055,42.1528],[-92.63356,42.15481],[-92.63265,42.15688],[-92.63674,42.16172],[-92.64718,42.16521],[-92.66098,42.16407],[-92.66594,42.16666],[-92.67692,42.16372],[-92.68626,42.1587],[-92.69587,42.15653],[-92.70288,42.15766],[-92.70993,42.16092],[-92.71075,42.16519],[-92.71318,42.16672],[-92.73045,42.17337],[-92.73577,42.17072],[-92.75317,42.17462],[-92.75497,42.17],[-92.76129,42.16877],[-92.7632,42.16542],[-92.76793,42.16399],[-92.77739,42.16503],[-92.77835,42.16022],[-92.78202,42.15831],[-92.78949,42.15965],[-92.80087,42.15568],[-92.81859,42.15987],[-92.82109,42.16155],[-92.82135,42.16537],[-92.83321,42.16828],[-92.83959,42.1711],[-92.84208,42.17414],[-92.85192,42.1727],[-92.85369,42.18192],[-92.8643,42.18814],[-92.86256,42.19089],[-92.86964,42.19845],[-92.876,42.20247],[-92.88922,42.20633],[-92.89787,42.21091],[-92.90088,42.2152],[-92.90893,42.21735],[-92.91107,42.22343],[-92.92177,42.23164],[-92.93087,42.23451],[-92.9326,42.24089],[-92.93764,42.2437],[-92.93337,42.24631],[-92.9334,42.24887],[-92.93417,42.25135],[-92.93821,42.25455],[-92.9379,42.26446],[-92.944,42.27137],[-92.94175,42.27467],[-92.94232,42.2834],[-92.9436,42.28468],[-92.93488,42.29607],[-92.93085,42.29672],[-92.92822,42.29917],[-92.93583,42.30857],[-92.93357,42.31068],[-92.92662,42.31167],[-92.9286,42.31431],[-92.92652,42.31655],[-92.92655,42.32019],[-92.93081,42.32189],[-92.93147,42.32463],[-92.92922,42.32612],[-92.93957,42.33645],[-92.94842,42.34143],[-92.95822,42.34211],[-92.96561,42.34458],[-92.96463,42.34792],[-92.96717,42.34955],[-92.96781,42.35327],[-92.97034,42.35382],[-92.96825,42.35934],[-92.97344,42.36553],[-92.97745,42.3674],[-92.97578,42.37109],[-92.97758,42.37275],[-92.97864,42.37885],[-92.97549,42.37908],[-92.97384,42.38241],[-92.96741,42.38432],[-92.96448,42.38917],[-92.95679,42.3908],[-92.95428,42.39398],[-92.95374,42.39799],[-92.94596,42.40223],[-92.94058,42.4025],[-92.93786,42.4048],[-92.94058,42.40549],[-92.94497,42.41129],[-92.94823,42.41242],[-92.94974,42.4152],[-92.96087,42.41573],[-92.9675,42.41898],[-92.97313,42.41616],[-92.97915,42.4175],[-92.98471,42.42398],[-92.98767,42.42301],[-92.99458,42.42558],[-92.99763,42.42332],[-93.00081,42.42397],[-93.01402,42.42973],[-93.01419,42.43358],[-93.01232,42.43506],[-93.01499,42.43739],[-93.02358,42.43908],[-93.02772,42.43568],[-93.03467,42.43599],[-93.04248,42.44246],[-93.04962,42.44301],[-93.05573,42.4412],[-93.06125,42.44382],[-93.06187,42.44561],[-93.07111,42.44617],[-93.07163,42.44972],[-93.06994,42.45299],[-93.07243,42.46002],[-93.08436,42.46524],[-93.08381,42.4704],[-93.08597,42.47964],[-93.08401,42.48403],[-93.08588,42.48451],[-93.09145,42.49275],[-93.09802,42.49218],[-93.10113,42.49464],[-93.10777,42.49465],[-93.11365,42.49695],[-93.12406,42.4965],[-93.12556,42.49985],[-93.13587,42.49702],[-93.14557,42.49648],[-93.14775,42.49877],[-93.14814,42.50335],[-93.15225,42.50558],[-93.15072,42.51001],[-93.15318,42.51504],[-93.16372,42.52114],[-93.16449,42.52473],[-93.16317,42.52598],[-93.16469,42.52836],[-93.16422,42.53059],[-93.15849,42.53126],[-93.15345,42.52965],[-93.1467,42.53256],[-93.14519,42.53804],[-93.147,42.54024],[-93.14563,42.54142],[-93.15047,42.54405],[-93.14369,42.55241],[-93.14512,42.55764],[-93.15172,42.55517],[-93.1587,42.5556],[-93.16248,42.55232],[-93.16829,42.55562],[-93.16919,42.55808],[-93.17257,42.55866],[-93.17999,42.55173],[-93.18273,42.54638],[-93.18692,42.54477],[-93.19018,42.548],[-93.18841,42.55284],[-93.19134,42.55664],[-93.20864,42.5571],[-93.21137,42.55938],[-93.21517,42.55851],[-93.22465,42.56058],[-93.22623,42.55869],[-93.22953,42.55937],[-93.2325,42.55725],[-93.23484,42.55987],[-93.2326,42.5654],[-93.24316,42.57597],[-93.24356,42.57933],[-93.2415,42.5808],[-93.24805,42.58863],[-93.25722,42.59241],[-93.26181,42.59202],[-93.26226,42.59048],[-93.26408,42.59211],[-93.26878,42.59148],[-93.26992,42.59565],[-93.27232,42.59709],[-93.28024,42.59665],[-93.28214,42.5992],[-93.28188,42.60458],[-93.2894,42.61026],[-93.29261,42.61005],[-93.29639,42.61206],[-93.30159,42.60933],[-93.3076,42.61077],[-93.31493,42.6103],[-93.31683,42.60481],[-93.3232,42.6047],[-93.32878,42.60206],[-93.33446,42.60286],[-93.34081,42.60623],[-93.34979,42.60836],[-93.35916,42.61679],[-93.361,42.61589],[-93.36957,42.61804],[-93.37455,42.62351],[-93.37912,42.62268],[-93.38533,42.62551],[-93.38951,42.6289],[-93.39006,42.63112],[-93.39426,42.63267],[-93.39789,42.63797],[-93.40114,42.6382],[-93.40512,42.64301],[-93.41077,42.64542],[-93.41394,42.65149],[-93.41698,42.65279],[-93.42183,42.65156],[-93.42515,42.65435],[-93.42767,42.65363],[-93.42886,42.6567],[-93.43232,42.65777],[-93.42813,42.66137],[-93.41692,42.66119],[-93.41807,42.66428],[-93.41703,42.66605],[-93.42008,42.66766],[-93.42182,42.67084],[-93.4208,42.6723],[-93.42449,42.67558],[-93.41812,42.6794],[-93.41135,42.68043],[-93.40971,42.68656],[-93.40125,42.69137],[-93.40348,42.69363],[-93.40298,42.69594],[-93.40087,42.69555],[-93.39486,42.69987],[-93.39036,42.69701],[-93.3901,42.69212],[-93.38728,42.69058],[-93.38044,42.69301],[-93.37988,42.69922],[-93.38217,42.70341],[-93.3809,42.70698],[-93.37554,42.70803],[-93.37928,42.71273],[-93.37791,42.71489],[-93.38035,42.71731],[-93.3772,42.72014],[-93.37494,42.71958],[-93.37431,42.72165],[-93.376,42.72333],[-93.37456,42.72492],[-93.3755,42.72575],[-93.38072,42.72197],[-93.38409,42.7235],[-93.39504,42.71852],[-93.41236,42.71499],[-93.42327,42.71825],[-93.42081,42.72173],[-93.42779,42.72476],[-93.42848,42.72867],[-93.43275,42.72712],[-93.44469,42.72699],[-93.44215,42.72922],[-93.44281,42.73125],[-93.43764,42.7361],[-93.43546,42.73573],[-93.42919,42.74021],[-93.42929,42.74156],[-93.42674,42.74219],[-93.42604,42.7397],[-93.42201,42.73867],[-93.42024,42.74021],[-93.42103,42.74271],[-93.41883,42.74362],[-93.42554,42.7499],[-93.42874,42.74699],[-93.43438,42.74564],[-93.44342,42.74605],[-93.44122,42.75109],[-93.44472,42.75075],[-93.44898,42.75396],[-93.4419,42.75997],[-93.43895,42.76768],[-93.45347,42.77231],[-93.46552,42.77225],[-93.46528,42.77427],[-93.45913,42.78086],[-93.45458,42.78161],[-93.45359,42.78311],[-93.45608,42.78449],[-93.45278,42.79544],[-93.45,42.79512],[-93.43514,42.80023],[-93.43323,42.80274],[-93.43463,42.80508],[-93.43332,42.81075],[-93.44412,42.81129],[-93.44634,42.8127],[-93.44552,42.81678],[-93.44296,42.819],[-93.44776,42.81973],[-93.44734,42.8257],[-93.44998,42.82808],[-93.44594,42.83353],[-93.44538,42.838],[-93.4455,42.8408],[-93.44918,42.84337],[-93.44621,42.84704],[-93.44885,42.84967],[-93.44848,42.85305],[-93.4466,42.85462],[-93.44696,42.85858],[-93.44975,42.86181],[-93.4484,42.86645],[-93.45257,42.86641],[-93.45163,42.86809],[-93.45359,42.87046],[-93.45917,42.87247],[-93.46179,42.87119],[-93.46337,42.87412],[-93.46722,42.8732],[-93.46918,42.87688],[-93.47326,42.8782],[-93.47178,42.88007],[-93.47558,42.88709],[-93.47299,42.89083],[-93.4781,42.89437],[-93.47995,42.89977],[-93.49413,42.90426],[-93.49555,42.90518],[-93.4944,42.90735],[-93.50145,42.90908],[-93.50122,42.91101],[-93.50554,42.91565],[-93.50538,42.92098],[-93.50914,42.92055],[-93.51371,42.916],[-93.52128,42.91769],[-93.52218,42.92052],[-93.52097,42.9214],[-93.52347,42.92357],[-93.52069,42.92633],[-93.52305,42.93055],[-93.51816,42.93491],[-93.52305,42.94001],[-93.52066,42.94225],[-93.51178,42.94476],[-93.50697,42.94429],[-93.50061,42.94608],[-93.49748,42.95299],[-93.49883,42.95645],[-93.49672,42.96213],[-93.4947,42.96328],[-93.49677,42.96744],[-93.49618,42.97014],[-93.50723,42.96962],[-93.50983,42.97176],[-93.50533,42.97529],[-93.5074,42.97675],[-93.50682,42.97964],[-93.50963,42.98245],[-93.50859,42.98494],[-93.52256,42.98546],[-93.52339,42.98776],[-93.53034,42.99212],[-93.53078,42.99394],[-93.53667,42.99606],[-93.53715,42.99816],[-93.53686,43.00052],[-93.52583,43.00342],[-93.51084,43.00423],[-93.50984,43.00637],[-93.5031,43.00472],[-93.49662,43.00666],[-93.49417,43.0098],[-93.48692,43.00974],[-93.47811,43.00376],[-93.47035,43.007],[-93.4674,43.00899],[-93.46819,43.01456],[-93.45823,43.01606],[-93.45581,43.01876],[-93.45461,43.02158],[-93.45746,43.02588],[-93.45409,43.02831],[-93.45482,43.02986],[-93.45316,43.03324],[-93.44915,43.03514],[-93.44869,43.04048],[-93.44467,43.04545],[-93.44598,43.04942],[-93.44119,43.05113],[-93.43786,43.05656],[-93.43865,43.0588],[-93.44457,43.06172],[-93.44657,43.06574],[-93.44567,43.07065],[-93.45242,43.07339],[-93.45854,43.07348],[-93.46235,43.07783],[-93.47978,43.0903],[-93.50216,43.09546],[-93.50308,43.09871],[-93.51196,43.1052],[-93.52013,43.10651],[-93.52343,43.10984],[-93.53023,43.11081],[-93.53298,43.11648],[-93.5314,43.12069],[-93.5058,43.126],[-93.50381,43.13214],[-93.49933,43.13471],[-93.49351,43.14342],[-93.48837,43.14613],[-93.49349,43.15782],[-93.49065,43.16211],[-93.49085,43.16905],[-93.50608,43.17987],[-93.51065,43.17579],[-93.52085,43.18034],[-93.52845,43.17994],[-93.53318,43.18559],[-93.5343,43.18996],[-93.53254,43.19408],[-93.5334,43.19504],[-93.53855,43.19633],[-93.54661,43.19481],[-93.55099,43.20115],[-93.56115,43.20665],[-93.57306,43.20061],[-93.5885,43.19588],[-93.58762,43.19373],[-93.58989,43.19036],[-93.59718,43.18735],[-93.597,43.18323],[-93.61195,43.18426],[-93.61524,43.18623],[-93.62105,43.18539],[-93.62172,43.18785],[-93.62632,43.1909],[-93.63394,43.1915],[-93.63767,43.19502],[-93.63769,43.19968],[-93.63581,43.2028],[-93.63735,43.20599],[-93.64111,43.20585],[-93.64704,43.20853],[-93.65892,43.20877],[-93.65656,43.21106],[-93.65851,43.21285],[-93.66318,43.21058],[-93.67733,43.22248],[-93.67779,43.22503],[-93.68881,43.22641],[-93.68389,43.23002],[-93.6845,43.23273],[-93.68303,43.23458],[-93.69532,43.24437],[-93.69382,43.24806],[-93.69051,43.24788],[-93.69462,43.25126],[-93.70762,43.25519],[-93.70752,43.25273],[-93.70523,43.2522],[-93.70362,43.24932],[-93.70483,43.24691],[-93.71934,43.24689],[-93.72209,43.24762],[-93.72163,43.2496],[-93.72392,43.25348],[-93.72909,43.25646],[-93.73449,43.25741],[-93.73984,43.25557],[-93.74509,43.26126],[-93.75328,43.26486],[-93.75742,43.2648],[-93.76003,43.26651],[-93.76519,43.26437],[-93.76721,43.26506],[-93.77116,43.27417],[-93.76809,43.27604],[-93.76364,43.28327],[-93.75965,43.2823],[-93.75719,43.28379],[-93.75444,43.28219],[-93.7513,43.28501],[-93.75488,43.28737],[-93.75667,43.29358],[-93.76265,43.29618],[-93.76765,43.30165],[-93.76614,43.30449],[-93.7754,43.3042],[-93.77354,43.30603],[-93.775,43.31111],[-93.76857,43.31453],[-93.77049,43.31853],[-93.7746,43.32351],[-93.79094,43.33148],[-93.79455,43.33916],[-93.78311,43.35307],[-93.78077,43.35893],[-93.78181,43.36205],[-93.77988,43.36402],[-93.78204,43.36727],[-93.77559,43.37001],[-93.77202,43.36979],[-93.76632,43.37542],[-93.76855,43.37772],[-93.76805,43.37926],[-93.76198,43.38471],[-93.76181,43.38769],[-93.76408,43.38923],[-93.75942,43.39293],[-93.75785,43.39532],[-93.75843,43.39741],[-93.75462,43.39755],[-93.75228,43.40089],[-93.75463,43.40497],[-93.74209,43.41455],[-93.74092,43.42476],[-93.73671,43.42435],[-93.72984,43.42918],[-93.72659,43.42659],[-93.7225,43.42847],[-93.71068,43.42682],[-93.70659,43.42967],[-93.69841,43.43173],[-93.69989,43.43381],[-93.69675,43.43564],[-93.69679,43.44365],[-93.70402,43.44729],[-93.70346,43.45114],[-93.70672,43.45244],[-93.70836,43.45746],[-93.71179,43.46071],[-93.7153,43.46115],[-93.71897,43.46536],[-93.7157,43.46595],[-93.71397,43.46845],[-93.71071,43.46799],[-93.70796,43.47227],[-93.70091,43.47502],[-93.6989,43.47899],[-93.69992,43.48255],[-93.69743,43.48519],[-93.69156,43.4833],[-93.6895,43.47956],[-93.68593,43.47954],[-93.68431,43.47794],[-93.68156,43.48049],[-93.67904,43.48062],[-93.67359,43.47761],[-93.66803,43.47892],[-93.66743,43.47618],[-93.66045,43.4751],[-93.65525,43.48139],[-93.65361,43.48853],[-93.65177,43.49045],[-93.65227,43.49462],[-93.64996,43.49508],[-93.6517,43.49946],[-93.64932,43.50101],[-93.65279,43.50724],[-93.65033,43.50894],[-93.65192,43.5128],[-93.64935,43.51707],[-93.65347,43.52163],[-93.64874,43.52232],[-93.64876,43.52634],[-93.64161,43.52571],[-93.63755,43.53071],[-93.63971,43.53398],[-93.64422,43.53429],[-93.64723,43.53767],[-93.65213,43.53963],[-93.64939,43.54131],[-93.65165,43.54331],[-93.65995,43.54602],[-93.65909,43.5486],[-93.66106,43.55327],[-93.66416,43.55528],[-93.66366,43.55734],[-93.65498,43.55435],[-93.65446,43.55581],[-93.6516,43.55512],[-93.64543,43.55173],[-93.64067,43.55097],[-93.63743,43.55296],[-93.63587,43.55237],[-93.63628,43.55001],[-93.63329,43.55088],[-93.62552,43.54874],[-93.6215,43.55152],[-93.61758,43.55193],[-93.60723,43.54897],[-93.60315,43.55921],[-93.59639,43.55884],[-93.59584,43.56084],[-93.59327,43.56111],[-93.59416,43.5629],[-93.58617,43.56209],[-93.57789,43.56655],[-93.57753,43.57046],[-93.58331,43.57176],[-93.58293,43.57527],[-93.57795,43.57573],[-93.58117,43.57951],[-93.58836,43.58045],[-93.59134,43.57823],[-93.5941,43.57968],[-93.59426,43.58333],[-93.5922,43.58704],[-93.59518,43.58852],[-93.59328,43.59118],[-93.58989,43.59214],[-93.59072,43.59378],[-93.58791,43.594],[-93.58753,43.59565],[-93.58951,43.59688],[-93.58664,43.59833],[-93.58673,43.60167],[-93.59022,43.60309],[-93.59093,43.6057],[-93.58887,43.60706],[-93.58926,43.60864],[-93.58473,43.61103],[-93.58805,43.61331],[-93.59025,43.61853],[-93.59243,43.61752],[-93.59488,43.6194],[-93.59518,43.62142],[-93.59298,43.62188],[-93.59095,43.62572],[-93.59311,43.62773],[-93.59154,43.62905],[-93.59243,43.63081],[-93.58839,43.63228],[-93.58246,43.6392],[-93.5742,43.63908],[-93.57724,43.64238],[-93.57435,43.64724],[-93.56885,43.64627],[-93.56069,43.64844],[-93.55788,43.65155],[-93.55871,43.65394],[-93.55677,43.65863],[-93.54686,43.66344],[-93.54395,43.66287],[-93.54062,43.66939],[-93.52792,43.67734],[-93.52909,43.68496],[-93.52801,43.6862],[-93.52584,43.68448],[-93.52157,43.68478],[-93.5205,43.68955],[-93.51658,43.68983],[-93.51418,43.69187],[-93.52328,43.69895],[-93.52349,43.70193],[-93.52053,43.70327],[-93.52393,43.707],[-93.51942,43.70809],[-93.51936,43.71167],[-93.51329,43.71164],[-93.51022,43.71536],[-93.50751,43.71607],[-93.50639,43.71736],[-93.50757,43.71947],[-93.50208,43.72109],[-93.50091,43.72244],[-93.50194,43.72378],[-93.49935,43.72611],[-93.4905,43.72855],[-93.48495,43.73551],[-93.48899,43.73885],[-93.48913,43.74336],[-93.48203,43.74589],[-93.47842,43.74902],[-93.47239,43.74706],[-93.46905,43.75077],[-93.46491,43.75073],[-93.46289,43.74796],[-93.45771,43.74824],[-93.44826,43.75131],[-93.44387,43.75541],[-93.44048,43.75636],[-93.43606,43.75439],[-93.43286,43.75595],[-93.4274,43.75586],[-93.42828,43.75904],[-93.42392,43.76208],[-93.41788,43.76182],[-93.4163,43.76356],[-93.42275,43.77256],[-93.41137,43.77531],[-93.40894,43.77807],[-93.40343,43.77755],[-93.4031,43.77975],[-93.40003,43.782],[-93.395,43.78026],[-93.38672,43.78158],[-93.38384,43.78004],[-93.3822,43.7855],[-93.37154,43.78658],[-93.36939,43.78951],[-93.36895,43.79611],[-93.36627,43.79876],[-93.36277,43.79942],[-93.36386,43.80061],[-93.36194,43.8016],[-93.36355,43.80316],[-93.36285,43.806],[-93.35915,43.80658],[-93.3585,43.81018],[-93.35367,43.81503],[-93.34964,43.82386],[-93.34405,43.82367],[-93.343,43.82575],[-93.34715,43.82946],[-93.34641,43.8341],[-93.34201,43.83565],[-93.33785,43.83344],[-93.33289,43.8339],[-93.33101,43.83578],[-93.33264,43.83724],[-93.32987,43.83722],[-93.32933,43.84056],[-93.32305,43.84156],[-93.32132,43.84417],[-93.32556,43.8449],[-93.32639,43.84671],[-93.32129,43.84924],[-93.313,43.84584],[-93.30974,43.84755],[-93.30919,43.83775],[-93.30047,43.83432],[-93.29338,43.8351],[-93.29303,43.83255],[-93.28918,43.83224],[-93.28859,43.82531],[-93.27921,43.8263],[-93.27937,43.82366],[-93.25923,43.82241],[-93.25094,43.82568],[-93.23969,43.82413],[-93.23875,43.82793],[-93.23204,43.82777],[-93.22676,43.82987],[-93.21974,43.82829],[-93.21735,43.83023],[-93.21818,43.83666],[-93.21419,43.83686],[-93.21128,43.83898],[-93.21061,43.8436],[-93.20479,43.84125],[-93.20451,43.83757],[-93.20626,43.835],[-93.20333,43.82919],[-93.17947,43.83069],[-93.17302,43.83358],[-93.16143,43.83357],[-93.15452,43.83907],[-93.15065,43.83657],[-93.1457,43.83684],[-93.1443,43.83439],[-93.13354,43.83229],[-93.12938,43.83376],[-93.12017,43.83331],[-93.11946,43.8282],[-93.11022,43.82919],[-93.10461,43.83418],[-93.1019,43.83386],[-93.10057,43.83016],[-93.0968,43.82925],[-93.09474,43.83032],[-93.09422,43.83376],[-93.09676,43.83708],[-93.08822,43.84043],[-93.09024,43.84878],[-93.09553,43.85016],[-93.09451,43.85273],[-93.09598,43.85559],[-93.08344,43.86038],[-93.08292,43.86375],[-93.07262,43.86749],[-93.0694,43.87271],[-93.07041,43.87539],[-93.06548,43.87923],[-93.06565,43.88594],[-93.07,43.88563],[-93.06811,43.88648],[-93.06844,43.88904],[-93.06554,43.89342],[-93.07008,43.90045],[-93.07784,43.90256],[-93.07873,43.90737],[-93.07431,43.91003],[-93.07328,43.91366],[-93.06562,43.91285],[-93.06527,43.9169],[-93.05543,43.92098],[-93.05549,43.92746],[-93.04355,43.92878],[-93.0345,43.9319],[-93.02846,43.93748],[-93.01645,43.94129],[-93.0171,43.94561],[-93.01497,43.94785],[-93.00671,43.94609],[-93.00017,43.95025],[-92.99681,43.9506],[-92.96369,43.94998],[-92.95743,43.94799],[-92.94593,43.93867],[-92.92255,43.94182],[-92.91093,43.93665],[-92.9005,43.92968],[-92.89466,43.92866],[-92.8868,43.92432],[-92.86441,43.91971],[-92.84589,43.9191],[-92.8315,43.91391],[-92.82367,43.91292],[-92.81915,43.91001],[-92.81868,43.89934],[-92.82106,43.89382],[-92.81896,43.88754],[-92.81911,43.88213],[-92.81272,43.8786],[-92.7998,43.87799],[-92.79551,43.87411],[-92.79937,43.86953],[-92.79896,43.85061],[-92.80547,43.84638],[-92.80491,43.838],[-92.80048,43.83163],[-92.80939,43.82539],[-92.8092,43.82406],[-92.7991,43.8211],[-92.79796,43.81783],[-92.79998,43.81481],[-92.80116,43.8054],[-92.79631,43.80502],[-92.79422,43.8011],[-92.78648,43.7947],[-92.78856,43.7927],[-92.78967,43.78583],[-92.79587,43.77824],[-92.7899,43.7744],[-92.78954,43.76948],[-92.79934,43.76629],[-92.80044,43.76504],[-92.79968,43.76085],[-92.79559,43.75778],[-92.79442,43.75344],[-92.78975,43.74904],[-92.78567,43.74826],[-92.7797,43.74441],[-92.78032,43.7405],[-92.7776,43.7369],[-92.77323,43.73675],[-92.76446,43.73207],[-92.7605,43.73175],[-92.75855,43.73411],[-92.75404,43.73522],[-92.75334,43.73713],[-92.74952,43.73729],[-92.74853,43.73062],[-92.74642,43.72922],[-92.74811,43.71977],[-92.73283,43.71787],[-92.72736,43.71456],[-92.71962,43.71665],[-92.71332,43.71478],[-92.69937,43.71425],[-92.69789,43.71206],[-92.69919,43.7091],[-92.69763,43.70815],[-92.68774,43.70724],[-92.68466,43.70313],[-92.68677,43.69988],[-92.68419,43.69558],[-92.68687,43.6865],[-92.68961,43.68261],[-92.68939,43.67731],[-92.68477,43.67631],[-92.68367,43.66786],[-92.67708,43.665],[-92.67592,43.66265],[-92.6759,43.66015],[-92.67909,43.65535],[-92.67596,43.64964],[-92.66915,43.64742],[-92.66447,43.64347],[-92.6626,43.63657],[-92.66825,43.62694],[-92.64447,43.62025],[-92.64075,43.61854],[-92.63627,43.61313],[-92.64746,43.60732],[-92.65114,43.59844],[-92.65625,43.594],[-92.6575,43.58364],[-92.65546,43.57972],[-92.65501,43.57352],[-92.66597,43.56417],[-92.6664,43.56198],[-92.66372,43.56103],[-92.6601,43.55542],[-92.66046,43.55376],[-92.66582,43.55306],[-92.6677,43.54787],[-92.67214,43.54581],[-92.67684,43.53911],[-92.68557,43.54043],[-92.69542,43.5388],[-92.70303,43.53555],[-92.71022,43.53565],[-92.71227,43.53166],[-92.70812,43.52484],[-92.70167,43.51999],[-92.68916,43.50042],[-92.6826,43.4973],[-92.68111,43.49389],[-92.6662,43.47932],[-92.65222,43.47045],[-92.65302,43.46533],[-92.65606,43.46377],[-92.65584,43.46152],[-92.6506,43.45858],[-92.64828,43.45114],[-92.66076,43.44495],[-92.6623,43.44294],[-92.65903,43.43995],[-92.66329,43.43442],[-92.65211,43.43193],[-92.64238,43.42771],[-92.62745,43.41672],[-92.62382,43.41137],[-92.62557,43.40687],[-92.62363,43.40007],[-92.61402,43.39516],[-92.61348,43.38585],[-92.61172,43.38299],[-92.60899,43.37979],[-92.60277,43.37775],[-92.60068,43.37474],[-92.60074,43.36594],[-92.59926,43.36258],[-92.6004,43.35779],[-92.59444,43.34728],[-92.59655,43.34531],[-92.59451,43.33713],[-92.59685,43.33511],[-92.59774,43.3279],[-92.59356,43.31905],[-92.59501,43.31524],[-92.59411,43.31201],[-92.58369,43.30129],[-92.5846,43.29956],[-92.58331,43.29798],[-92.57605,43.29398],[-92.58482,43.28561],[-92.58352,43.28243],[-92.58982,43.27818],[-92.5899,43.27344],[-92.58459,43.26825],[-92.57513,43.26679],[-92.57254,43.26338],[-92.57511,43.26062],[-92.57087,43.25408],[-92.57129,43.24451],[-92.56904,43.24253],[-92.56798,43.23744],[-92.56895,43.23519],[-92.5673,43.23111],[-92.56992,43.22905],[-92.57238,43.22191],[-92.56873,43.21717],[-92.56494,43.21635],[-92.56393,43.21453],[-92.56633,43.20537],[-92.58131,43.19572],[-92.58432,43.18747],[-92.57544,43.17914],[-92.56108,43.17491],[-92.55653,43.17169],[-92.55416,43.16706],[-92.54308,43.16272],[-92.54399,43.15995],[-92.54095,43.15676],[-92.53867,43.14992],[-92.54018,43.14693],[-92.53301,43.135],[-92.52868,43.13255],[-92.52762,43.1278],[-92.52346,43.12543],[-92.52194,43.12186],[-92.52213,43.11504],[-92.51987,43.11132],[-92.51431,43.10391],[-92.50604,43.09829],[-92.50535,43.0905],[-92.50164,43.09012],[-92.49596,43.08568],[-92.49604,43.07682],[-92.49075,43.07157],[-92.49247,43.07],[-92.49145,43.06772],[-92.47662,43.05802],[-92.47178,43.04561],[-92.47365,43.03952],[-92.4663,43.03283],[-92.46166,43.03182],[-92.46269,43.02942],[-92.4608,43.02692],[-92.45338,43.02686],[-92.44846,43.02535],[-92.44568,43.02237],[-92.43852,43.02098],[-92.4404,43.01747],[-92.43938,43.0108],[-92.43628,43.00859],[-92.4352,43.00363],[-92.42967,42.9987],[-92.42991,42.99414],[-92.4195,42.98181],[-92.41987,42.97955],[-92.41665,42.97603],[-92.41658,42.97281],[-92.40874,42.96695],[-92.40745,42.94918],[-92.40249,42.94501],[-92.39898,42.93821],[-92.40278,42.93379],[-92.40243,42.93008],[-92.40542,42.92518],[-92.39983,42.91081],[-92.40105,42.90559],[-92.39855,42.90067],[-92.39417,42.89761],[-92.39387,42.895],[-92.38969,42.89253],[-92.39377,42.88359],[-92.39378,42.86587],[-92.39755,42.8554],[-92.39319,42.85235],[-92.38184,42.84871],[-92.38518,42.84788],[-92.38462,42.84587],[-92.38222,42.84283],[-92.3771,42.84091],[-92.3755,42.8287],[-92.36496,42.81459],[-92.35868,42.81203],[-92.35805,42.80567],[-92.34641,42.79914],[-92.34162,42.7943],[-92.34108,42.78864],[-92.33813,42.78443],[-92.33228,42.78346],[-92.3293,42.78135],[-92.32549,42.76854],[-92.32134,42.76418],[-92.31937,42.75819],[-92.31522,42.75572],[-92.31637,42.74807],[-92.31483,42.7421],[-92.30662,42.73737],[-92.3004,42.7291],[-92.2985,42.72501],[-92.29774,42.71441],[-92.2929,42.71107],[-92.29211,42.70743],[-92.28784,42.70376],[-92.29793,42.69437],[-92.29821,42.68901],[-92.29415,42.6867],[-92.29316,42.68287],[-92.28701,42.67592],[-92.28603,42.67251],[-92.28782,42.66654],[-92.28304,42.65789],[-92.28372,42.65464],[-92.28609,42.65431],[-92.29729,42.65874],[-92.30061,42.65791],[-92.30813,42.64609],[-92.30604,42.6359],[-92.30375,42.63379],[-92.30406,42.63194],[-92.29853,42.6216],[-92.29797,42.61807],[-92.30064,42.61381],[-92.29815,42.61151],[-92.29813,42.60338],[-92.29587,42.59993],[-92.29601,42.59678],[-92.28721,42.59172],[-92.28048,42.58994],[-92.26225,42.59047],[-92.25718,42.59526],[-92.24613,42.59375],[-92.23734,42.58841],[-92.21082,42.57883],[-92.20723,42.57053],[-92.20511,42.56906],[-92.19952,42.56663],[-92.18748,42.56562],[-92.18421,42.56203],[-92.17361,42.55593],[-92.16927,42.55532],[-92.16331,42.5501],[-92.14097,42.54757],[-92.13775,42.54601],[-92.13657,42.54166],[-92.12818,42.53737],[-92.12578,42.53332],[-92.1264,42.53144],[-92.13468,42.52702],[-92.13696,42.52287],[-92.14323,42.52117],[-92.14333,42.51679],[-92.14887,42.51266],[-92.1478,42.50764],[-92.15044,42.50296],[-92.14748,42.50094],[-92.14458,42.48927],[-92.13679,42.49081],[-92.1291,42.4897],[-92.12566,42.49152],[-92.12282,42.49108],[-92.12105,42.48881],[-92.11513,42.49001],[-92.10683,42.48734],[-92.10444,42.49331],[-92.09874,42.49637],[-92.09768,42.49962],[-92.09958,42.50408],[-92.09651,42.50302],[-92.08942,42.50398],[-92.08573,42.50189],[-92.07151,42.50415],[-92.06644,42.49956],[-92.06023,42.49883],[-92.05316,42.50331],[-92.04914,42.50294],[-92.03639,42.49888],[-92.03135,42.48318],[-92.01816,42.4777],[-92.01579,42.47507],[-92.00552,42.47863],[-92.00222,42.47748],[-91.99377,42.47853],[-91.99111,42.48128],[-91.9846,42.48192],[-91.98537,42.48392],[-91.98344,42.48604],[-91.97896,42.48667],[-91.97081,42.46982],[-91.97076,42.46693],[-91.96105,42.46572],[-91.95451,42.46834],[-91.93978,42.47044],[-91.93771,42.46927],[-91.93649,42.46157],[-91.93792,42.45934],[-91.92366,42.45191],[-91.92421,42.44897],[-91.92298,42.44825],[-91.89551,42.44164],[-91.88645,42.44134],[-91.88315,42.43506],[-91.87033,42.43141],[-91.86967,42.42352],[-91.86519,42.42004],[-91.86648,42.41611],[-91.86229,42.41319],[-91.8577,42.40605],[-91.84182,42.40041],[-91.84161,42.39625],[-91.83882,42.3937],[-91.84002,42.39117],[-91.83874,42.38891],[-91.84169,42.38167],[-91.8385,42.37723],[-91.84414,42.37125],[-91.84457,42.36776],[-91.84284,42.36609],[-91.84567,42.36392],[-91.84467,42.35997],[-91.85572,42.35308],[-91.8533,42.35014],[-91.8562,42.3484],[-91.85596,42.33957],[-91.85162,42.33576],[-91.85051,42.33131],[-91.85203,42.33039],[-91.85153,42.32637],[-91.85455,42.32167],[-91.85501,42.31726],[-91.85749,42.31593],[-91.85104,42.31402],[-91.8503,42.31175],[-91.8398,42.30638],[-91.84014,42.30976],[-91.83288,42.31179],[-91.81762,42.31104],[-91.81367,42.30823],[-91.80798,42.31002],[-91.80602,42.31302],[-91.78072,42.3159],[-91.77856,42.31501],[-91.7781,42.31273],[-91.76527,42.30877],[-91.76525,42.30235],[-91.75993,42.29653],[-91.76133,42.29219],[-91.75989,42.28803],[-91.75466,42.28374],[-91.75393,42.27163],[-91.72568,42.26614],[-91.71756,42.26721],[-91.71618,42.26583],[-91.70078,42.26612],[-91.69927,42.25612],[-91.68737,42.24804],[-91.67896,42.24552],[-91.67329,42.24541],[-91.6721,42.24986],[-91.66412,42.24852],[-91.66064,42.25051],[-91.65757,42.25496],[-91.65028,42.25817],[-91.64358,42.25481],[-91.64195,42.25009],[-91.64175,42.24867],[-91.6452,42.24593],[-91.64442,42.23739],[-91.63892,42.23559],[-91.63371,42.22947],[-91.6339,42.22534],[-91.62743,42.21944],[-91.62422,42.21134],[-91.61988,42.20989],[-91.62009,42.203],[-91.61141,42.19545],[-91.61344,42.1891],[-91.61085,42.1812],[-91.61319,42.17812],[-91.61801,42.1762],[-91.61804,42.17307],[-91.62292,42.17261],[-91.63024,42.17541],[-91.63178,42.17303],[-91.63695,42.17161],[-91.64,42.16794],[-91.63633,42.16309],[-91.64838,42.14863],[-91.64427,42.1424],[-91.64764,42.13632],[-91.64535,42.13426],[-91.64977,42.1323],[-91.65076,42.12843],[-91.65485,42.1271],[-91.65243,42.12434],[-91.65451,42.12195],[-91.65245,42.11596],[-91.65432,42.11159],[-91.6533,42.10961],[-91.65434,42.10587],[-91.66401,42.10324],[-91.66229,42.09337],[-91.66586,42.09122],[-91.66778,42.08783],[-91.67802,42.08524],[-91.6788,42.08243],[-91.68309,42.07983],[-91.68372,42.07678],[-91.67995,42.0735],[-91.68242,42.07164],[-91.68252,42.06623],[-91.68779,42.06162],[-91.67933,42.05472],[-91.68448,42.04918],[-91.67696,42.04449],[-91.66784,42.03377],[-91.65026,42.03535],[-91.64026,42.03182],[-91.64194,42.02617],[-91.63683,42.02105],[-91.63659,42.01452],[-91.63853,42.01222],[-91.63535,42.00938],[-91.6334,42.00149],[-91.62811,41.99586],[-91.63057,41.9919],[-91.62801,41.98833],[-91.62923,41.98625],[-91.62392,41.97893],[-91.62452,41.97519],[-91.6225,41.97244],[-91.63253,41.97072],[-91.63262,41.96387],[-91.63345,41.96276],[-91.63718,41.96393],[-91.64055,41.95801],[-91.64894,41.95803],[-91.6495,41.96005],[-91.65119,41.96013],[-91.65383,41.95511],[-91.66609,41.95526],[-91.66851,41.95306],[-91.66844,41.94924],[-91.6709,41.94788],[-91.69188,41.95517],[-91.70332,41.9547],[-91.71773,41.96081],[-91.72249,41.96049],[-91.72901,41.96271],[-91.73261,41.96178],[-91.7473,41.96641],[-91.75942,41.96476],[-91.76058,41.96297],[-91.76615,41.96246],[-91.77735,41.95827],[-91.78158,41.95847],[-91.78461,41.95618],[-91.80077,41.95684],[-91.80986,41.95082],[-91.80845,41.94802],[-91.81005,41.94215],[-91.8183,41.9401],[-91.82632,41.94103],[-91.83042,41.93691],[-91.83821,41.93786],[-91.84256,41.93712],[-91.84539,41.93474],[-91.85151,41.93629],[-91.85666,41.94005]],[[-92.28045,42.52893],[-92.28445,42.52262],[-92.28255,42.51145],[-92.27934,42.51071],[-92.27759,42.50557],[-92.27903,42.50041],[-92.27781,42.49843],[-92.26852,42.4945],[-92.26531,42.49951],[-92.26858,42.50313],[-92.26929,42.50774],[-92.26667,42.51458],[-92.26282,42.51727],[-92.2679,42.52283],[-92.27413,42.5258],[-92.27467,42.53067],[-92.28045,42.52893]],[[-92.55363,42.77432],[-92.5557,42.7724],[-92.55745,42.76626],[-92.55608,42.76153],[-92.54738,42.74769],[-92.54344,42.74923],[-92.53993,42.74768],[-92.53703,42.7484],[-92.52944,42.74506],[-92.52091,42.73106],[-92.5125,42.72984],[-92.51225,42.74106],[-92.50874,42.74282],[-92.5099,42.74527],[-92.5087,42.74664],[-92.5131,42.75682],[-92.52154,42.76285],[-92.52521,42.76068],[-92.5298,42.76292],[-92.53413,42.77662],[-92.54684,42.78072],[-92.5482,42.77565],[-92.55363,42.77432]]]}}]}