{"type":"FeatureCollection","features":[{"type":"Feature","properties":{},"geometry":{"type":"Polygon","coordinates":[[[-94.48982,41.99405],[-94.49273,41.99962],[-94.49568,41.99989],[-94.50008,42.00314],[-94.50523,42.002],[-94.5052,41.99846],[-94.50721,41.99611],[-94.51219,41.99525],[-94.51685,41.99766],[-94.52153,42.00315],[-94.52641,42.00052],[-94.52961,42.00304],[-94.53052,42.00937],[-94.53399,42.01236],[-94.55693,42.01977],[-94.56646,42.01839],[-94.56793,42.01729],[-94.56715,42.01365],[-94.56844,42.01032],[-94.57301,42.00815],[-94.58035,42.01408],[-94.57707,42.01549],[-94.5766,42.01808],[-94.5737,42.02024],[-94.57676,42.02381],[-94.57246,42.02688],[-94.57659,42.02938],[-94.58225,42.02906],[-94.59808,42.03446],[-94.60999,42.03466],[-94.6127,42.02977],[-94.61094,42.02611],[-94.61443,42.01927],[-94.62456,42.01502],[-94.62912,42.01473],[-94.63382,42.01091],[-94.64263,42.01077],[-94.65416,42.01787],[-94.64942,42.02022],[-94.64951,42.02145],[-94.65474,42.02565],[-94.65722,42.03114],[-94.66294,42.03044],[-94.66518,42.03303],[-94.67582,42.03836],[-94.68124,42.04348],[-94.68094,42.04872],[-94.68808,42.0473],[-94.69259,42.05098],[-94.70436,42.05579],[-94.71008,42.06019],[-94.7086,42.06606],[-94.71238,42.06968],[-94.71701,42.07003],[-94.72165,42.07269],[-94.73329,42.07029],[-94.73887,42.07425],[-94.73955,42.07693],[-94.73329,42.07993],[-94.72992,42.08742],[-94.72133,42.08465],[-94.71747,42.08637],[-94.71819,42.08789],[-94.71669,42.08932],[-94.71845,42.09092],[-94.71696,42.09468],[-94.71983,42.09798],[-94.71927,42.09958],[-94.72194,42.10048],[-94.72547,42.10506],[-94.73342,42.10683],[-94.73484,42.11552],[-94.756,42.11238],[-94.76388,42.1137],[-94.76457,42.11676],[-94.76172,42.12133],[-94.76343,42.12282],[-94.76787,42.12306],[-94.76922,42.1259],[-94.77357,42.12814],[-94.77904,42.12712],[-94.78513,42.13153],[-94.78367,42.13369],[-94.7862,42.13616],[-94.791,42.13665],[-94.79302,42.1409],[-94.7983,42.14126],[-94.8011,42.14452],[-94.80087,42.14635],[-94.80734,42.14865],[-94.81695,42.15643],[-94.824,42.1574],[-94.82688,42.16011],[-94.83022,42.16077],[-94.83754,42.15839],[-94.84446,42.16071],[-94.85022,42.163],[-94.84943,42.16417],[-94.85466,42.16812],[-94.85899,42.16725],[-94.86522,42.17267],[-94.87034,42.17456],[-94.87437,42.17912],[-94.88081,42.17952],[-94.88861,42.18372],[-94.89626,42.18379],[-94.9031,42.18765],[-94.91276,42.18977],[-94.92154,42.19727],[-94.92165,42.20101],[-94.93015,42.20695],[-94.93507,42.20854],[-94.93774,42.21165],[-94.94651,42.21231],[-94.96457,42.20912],[-94.96508,42.20716],[-94.9632,42.20537],[-94.9662,42.20291],[-94.96091,42.19154],[-94.96264,42.19011],[-94.96398,42.18445],[-94.95884,42.18053],[-94.96011,42.17251],[-94.96608,42.17477],[-94.97233,42.17431],[-94.97231,42.1783],[-94.97447,42.17892],[-94.97483,42.18081],[-94.98142,42.18311],[-94.98301,42.18182],[-94.98868,42.18682],[-94.99528,42.18235],[-95.00343,42.18519],[-95.00468,42.18374],[-95.00913,42.18497],[-95.01481,42.18233],[-95.01642,42.18303],[-95.01813,42.18525],[-95.01716,42.18843],[-95.0101,42.1914],[-95.00862,42.19365],[-95.00968,42.19581],[-95.00443,42.19473],[-95.00222,42.19647],[-94.99394,42.1965],[-94.99683,42.19882],[-94.99426,42.20122],[-94.99974,42.20244],[-95.00315,42.20531],[-95.00832,42.20587],[-95.00949,42.20877],[-95.00744,42.21013],[-95.0115,42.21302],[-95.01746,42.21093],[-95.02567,42.21644],[-95.02403,42.21965],[-95.03035,42.22161],[-95.02901,42.22729],[-95.04536,42.22917],[-95.04851,42.23114],[-95.05049,42.23569],[-95.05778,42.23612],[-95.05967,42.23764],[-95.05917,42.24315],[-95.06248,42.24595],[-95.06514,42.25297],[-95.06818,42.25613],[-95.07174,42.25677],[-95.07255,42.27029],[-95.07186,42.27514],[-95.06287,42.27568],[-95.06191,42.27878],[-95.05835,42.27917],[-95.05735,42.2811],[-95.05691,42.287],[-95.05873,42.28872],[-95.05665,42.29418],[-95.06167,42.29866],[-95.05824,42.30432],[-95.05904,42.30974],[-95.07414,42.31261],[-95.08151,42.3125],[-95.08843,42.32657],[-95.08873,42.33004],[-95.09608,42.34101],[-95.09874,42.34996],[-95.10327,42.35494],[-95.11389,42.35981],[-95.11281,42.3631],[-95.11925,42.36659],[-95.11477,42.373],[-95.11798,42.37565],[-95.11834,42.38054],[-95.11666,42.38366],[-95.11968,42.39021],[-95.11614,42.39332],[-95.11452,42.39285],[-95.1136,42.39721],[-95.10967,42.39926],[-95.1109,42.40104],[-95.10981,42.40412],[-95.11637,42.41067],[-95.11426,42.41271],[-95.11688,42.4144],[-95.11791,42.41752],[-95.116,42.42077],[-95.12,42.42295],[-95.11864,42.42706],[-95.12008,42.42942],[-95.11519,42.43646],[-95.117,42.44026],[-95.12189,42.44312],[-95.12447,42.44739],[-95.12128,42.44953],[-95.11918,42.4589],[-95.12348,42.46428],[-95.12064,42.47273],[-95.1219,42.47582],[-95.12734,42.47795],[-95.12955,42.4807],[-95.13027,42.48824],[-95.13978,42.49611],[-95.14016,42.50322],[-95.14284,42.50495],[-95.13645,42.51502],[-95.13729,42.51732],[-95.13456,42.52126],[-95.13464,42.52402],[-95.14174,42.53389],[-95.13812,42.53715],[-95.13933,42.5408],[-95.14682,42.53986],[-95.14765,42.54107],[-95.14626,42.54349],[-95.14968,42.54605],[-95.14583,42.55148],[-95.15134,42.55622],[-95.15122,42.56451],[-95.15311,42.5662],[-95.14605,42.56798],[-95.14981,42.57925],[-95.14753,42.5809],[-95.1502,42.58428],[-95.14855,42.58615],[-95.1512,42.5883],[-95.15134,42.59062],[-95.16049,42.59053],[-95.16712,42.58988],[-95.16592,42.58802],[-95.17163,42.58592],[-95.17968,42.58946],[-95.18037,42.59322],[-95.18967,42.59719],[-95.20326,42.59541],[-95.2075,42.59716],[-95.22555,42.59859],[-95.23908,42.60619],[-95.24613,42.60455],[-95.25017,42.60089],[-95.25601,42.60494],[-95.26054,42.60453],[-95.26506,42.60811],[-95.27068,42.60932],[-95.2689,42.61628],[-95.26654,42.61843],[-95.26748,42.6208],[-95.26979,42.62354],[-95.28043,42.62655],[-95.28765,42.6322],[-95.28829,42.63923],[-95.28442,42.64462],[-95.28511,42.64787],[-95.28827,42.65129],[-95.29341,42.65293],[-95.29765,42.65868],[-95.2981,42.66262],[-95.30182,42.66632],[-95.30148,42.66949],[-95.30352,42.67285],[-95.31196,42.67558],[-95.31448,42.68123],[-95.30982,42.68384],[-95.31225,42.68888],[-95.30996,42.6899],[-95.31121,42.69719],[-95.31009,42.70001],[-95.31259,42.70378],[-95.30511,42.70895],[-95.30175,42.70927],[-95.30055,42.71335],[-95.30257,42.71667],[-95.30623,42.71786],[-95.30599,42.72011],[-95.29907,42.72292],[-95.28974,42.72378],[-95.2756,42.70196],[-95.27567,42.69471],[-95.26612,42.69224],[-95.26514,42.6888],[-95.26618,42.68687],[-95.23739,42.65933],[-95.22568,42.661],[-95.22089,42.65964],[-95.20707,42.66764],[-95.20655,42.67047],[-95.20889,42.6726],[-95.20797,42.6732],[-95.20975,42.67716],[-95.20507,42.67874],[-95.20475,42.68034],[-95.20985,42.68051],[-95.21695,42.684],[-95.2236,42.69458],[-95.22328,42.70246],[-95.2301,42.70423],[-95.23207,42.70734],[-95.23003,42.70929],[-95.2329,42.7133],[-95.22945,42.71839],[-95.24425,42.72648],[-95.24709,42.73113],[-95.24354,42.73667],[-95.2514,42.74355],[-95.25067,42.75033],[-95.25513,42.75526],[-95.25044,42.75593],[-95.24738,42.75996],[-95.23575,42.76298],[-95.23593,42.76648],[-95.22641,42.77043],[-95.22338,42.77765],[-95.22532,42.78226],[-95.22384,42.78434],[-95.22611,42.79824],[-95.22383,42.80225],[-95.22797,42.80777],[-95.24094,42.81497],[-95.23903,42.82175],[-95.24112,42.82446],[-95.2396,42.82699],[-95.23429,42.82925],[-95.22401,42.83045],[-95.22088,42.83569],[-95.22172,42.83794],[-95.21757,42.84056],[-95.21875,42.84257],[-95.21611,42.84349],[-95.21092,42.8417],[-95.20496,42.84475],[-95.19806,42.84545],[-95.1974,42.8474],[-95.19147,42.84551],[-95.18492,42.84571],[-95.17442,42.85052],[-95.17263,42.8536],[-95.16472,42.85346],[-95.16343,42.85509],[-95.16339,42.86323],[-95.16102,42.86422],[-95.15859,42.87281],[-95.1438,42.87071],[-95.13367,42.87411],[-95.12648,42.87152],[-95.12579,42.86935],[-95.1192,42.86908],[-95.11667,42.87132],[-95.1174,42.87245],[-95.10875,42.87559],[-95.09767,42.87232],[-95.09127,42.87611],[-95.07821,42.87675],[-95.07094,42.88242],[-95.07128,42.88457],[-95.06777,42.88592],[-95.0694,42.88807],[-95.06571,42.88948],[-95.06266,42.88795],[-95.05824,42.89226],[-95.05463,42.89093],[-95.05217,42.88635],[-95.04691,42.88534],[-95.03929,42.88961],[-95.02713,42.88624],[-95.02388,42.88667],[-95.02014,42.88457],[-95.0216,42.88245],[-95.01228,42.87771],[-95.00736,42.883],[-95.00463,42.88389],[-95.00667,42.8864],[-95.00558,42.89281],[-95.00752,42.895],[-95.00344,42.89799],[-95.00321,42.90035],[-95.005,42.90153],[-94.99986,42.90932],[-94.99909,42.91499],[-94.99495,42.91585],[-94.99209,42.91943],[-94.98671,42.91202],[-94.98473,42.91173],[-94.97932,42.91409],[-94.97093,42.91472],[-94.96773,42.91802],[-94.96439,42.9177],[-94.9628,42.91444],[-94.96378,42.91106],[-94.95094,42.90991],[-94.94521,42.90434],[-94.94525,42.90191],[-94.9417,42.90135],[-94.9373,42.90803],[-94.93917,42.91145],[-94.93754,42.91483],[-94.93251,42.9129],[-94.9299,42.91501],[-94.92906,42.9213],[-94.92035,42.92388],[-94.91455,42.93252],[-94.91023,42.93166],[-94.90902,42.92833],[-94.90144,42.92409],[-94.89584,42.9238],[-94.89544,42.9255],[-94.89013,42.92839],[-94.88766,42.92812],[-94.88014,42.93225],[-94.8763,42.9305],[-94.86458,42.9295],[-94.85725,42.93167],[-94.85544,42.93656],[-94.85137,42.93607],[-94.84516,42.93045],[-94.84256,42.92383],[-94.84345,42.92146],[-94.83955,42.91789],[-94.84072,42.91633],[-94.83951,42.90948],[-94.83748,42.90642],[-94.83066,42.9067],[-94.82448,42.89926],[-94.83026,42.89606],[-94.82977,42.8938],[-94.82642,42.89132],[-94.82649,42.88816],[-94.82877,42.88565],[-94.82455,42.88393],[-94.82803,42.88116],[-94.82832,42.87887],[-94.82108,42.876],[-94.814,42.86902],[-94.8079,42.86905],[-94.80615,42.86695],[-94.80658,42.86072],[-94.80234,42.85842],[-94.80225,42.85704],[-94.80495,42.85592],[-94.81411,42.85374],[-94.8131,42.85235],[-94.81544,42.84983],[-94.81468,42.84403],[-94.81104,42.84359],[-94.81206,42.83682],[-94.79699,42.83346],[-94.7954,42.83011],[-94.797,42.82032],[-94.79398,42.81619],[-94.79425,42.8141],[-94.78666,42.8107],[-94.78226,42.81339],[-94.77645,42.81247],[-94.77238,42.8138],[-94.76999,42.81227],[-94.77052,42.80922],[-94.76283,42.80408],[-94.76179,42.79957],[-94.76312,42.79656],[-94.75972,42.79045],[-94.76,42.78624],[-94.75055,42.77958],[-94.74814,42.77086],[-94.73793,42.76641],[-94.73719,42.7593],[-94.73527,42.75717],[-94.73586,42.75095],[-94.74208,42.75038],[-94.74043,42.74764],[-94.74388,42.74607],[-94.74784,42.73123],[-94.75537,42.73018],[-94.76011,42.72653],[-94.76308,42.72682],[-94.76355,42.72347],[-94.76856,42.71908],[-94.76751,42.71603],[-94.75895,42.71148],[-94.75693,42.70241],[-94.75236,42.69868],[-94.75168,42.69571],[-94.74656,42.69396],[-94.74901,42.69045],[-94.75178,42.68953],[-94.76385,42.68908],[-94.76757,42.68257],[-94.76745,42.67961],[-94.7658,42.67866],[-94.76941,42.67439],[-94.7682,42.67215],[-94.759,42.66951],[-94.75568,42.6665],[-94.75693,42.66341],[-94.75579,42.66152],[-94.75654,42.65231],[-94.75918,42.64648],[-94.75124,42.64444],[-94.75485,42.64174],[-94.75248,42.64061],[-94.74983,42.63575],[-94.75099,42.63113],[-94.75525,42.62776],[-94.75506,42.62481],[-94.75676,42.62308],[-94.75377,42.61829],[-94.75575,42.61443],[-94.74796,42.60937],[-94.744,42.61083],[-94.7354,42.60845],[-94.72607,42.61184],[-94.72183,42.61712],[-94.72167,42.62018],[-94.71064,42.62562],[-94.70774,42.62642],[-94.69791,42.62284],[-94.6904,42.6231],[-94.68901,42.61747],[-94.68567,42.61579],[-94.68241,42.61634],[-94.67918,42.61367],[-94.67836,42.60946],[-94.67497,42.60968],[-94.6715,42.60773],[-94.66582,42.60052],[-94.65895,42.60118],[-94.65778,42.59998],[-94.65909,42.59436],[-94.64965,42.58976],[-94.64484,42.59048],[-94.63946,42.58661],[-94.63272,42.58507],[-94.6337,42.5795],[-94.62817,42.57823],[-94.62485,42.57473],[-94.61446,42.57206],[-94.5994,42.57407],[-94.59385,42.56781],[-94.58262,42.56193],[-94.57475,42.56051],[-94.57111,42.55637],[-94.56322,42.55354],[-94.55823,42.55355],[-94.55505,42.55143],[-94.53773,42.55063],[-94.53477,42.54905],[-94.53328,42.55141],[-94.52948,42.55153],[-94.52057,42.54539],[-94.5202,42.54138],[-94.51161,42.53887],[-94.50817,42.53411],[-94.49828,42.53238],[-94.49113,42.53564],[-94.48464,42.53415],[-94.4789,42.53689],[-94.4768,42.52867],[-94.47269,42.52725],[-94.47363,42.52485],[-94.47143,42.51937],[-94.46551,42.51831],[-94.45171,42.51117],[-94.44376,42.51377],[-94.43506,42.51395],[-94.42905,42.50494],[-94.42861,42.50039],[-94.42042,42.49806],[-94.41849,42.50016],[-94.41513,42.49969],[-94.40221,42.49624],[-94.40216,42.48943],[-94.40837,42.48717],[-94.408,42.48399],[-94.4034,42.47989],[-94.38935,42.47525],[-94.38706,42.47142],[-94.38702,42.47007],[-94.39434,42.46914],[-94.3975,42.46353],[-94.39363,42.45488],[-94.38762,42.45184],[-94.3813,42.43778],[-94.37401,42.43364],[-94.37442,42.43044],[-94.37106,42.42573],[-94.36655,42.42519],[-94.35894,42.42741],[-94.35673,42.42627],[-94.35636,42.42309],[-94.35232,42.42132],[-94.35051,42.41819],[-94.35457,42.41597],[-94.35455,42.4096],[-94.35843,42.40616],[-94.35605,42.40193],[-94.35771,42.39971],[-94.36443,42.39819],[-94.3686,42.39251],[-94.37574,42.39075],[-94.37861,42.39247],[-94.37849,42.39544],[-94.38178,42.39733],[-94.39414,42.39967],[-94.40149,42.39703],[-94.40414,42.39971],[-94.40805,42.40074],[-94.41542,42.40056],[-94.42218,42.39635],[-94.42393,42.38984],[-94.4284,42.38851],[-94.42346,42.38533],[-94.42094,42.37657],[-94.42809,42.37176],[-94.43997,42.37087],[-94.4416,42.36587],[-94.44445,42.36527],[-94.44746,42.36166],[-94.44849,42.35151],[-94.44418,42.34568],[-94.44468,42.3423],[-94.44737,42.33939],[-94.44532,42.32511],[-94.44713,42.32192],[-94.45343,42.3209],[-94.45256,42.31754],[-94.45513,42.31521],[-94.45261,42.30589],[-94.45377,42.30322],[-94.45488,42.30186],[-94.46239,42.30127],[-94.46485,42.29905],[-94.45978,42.28874],[-94.45446,42.28874],[-94.44824,42.28405],[-94.44492,42.28363],[-94.44646,42.27864],[-94.45253,42.27664],[-94.4552,42.27405],[-94.46,42.27223],[-94.46503,42.27243],[-94.47786,42.26668],[-94.48089,42.26892],[-94.48558,42.26964],[-94.48638,42.2673],[-94.48974,42.2664],[-94.49968,42.26703],[-94.50114,42.26587],[-94.50312,42.25684],[-94.49427,42.25151],[-94.49697,42.24787],[-94.4948,42.24347],[-94.4935,42.23331],[-94.50433,42.22771],[-94.50039,42.22272],[-94.50201,42.21976],[-94.51077,42.21897],[-94.51708,42.22292],[-94.52249,42.22379],[-94.52289,42.22085],[-94.52742,42.21973],[-94.53062,42.21681],[-94.53125,42.21465],[-94.52917,42.21222],[-94.5312,42.20838],[-94.52858,42.2025],[-94.52319,42.20109],[-94.51878,42.20388],[-94.51523,42.20034],[-94.51719,42.19536],[-94.51566,42.18959],[-94.5184,42.185],[-94.51548,42.18361],[-94.51514,42.18146],[-94.51929,42.17582],[-94.517,42.16502],[-94.51971,42.16389],[-94.51816,42.16115],[-94.52017,42.16114],[-94.52206,42.15806],[-94.51512,42.15376],[-94.51551,42.15043],[-94.51734,42.14937],[-94.51022,42.13983],[-94.51255,42.13618],[-94.51095,42.1303],[-94.50462,42.12935],[-94.49869,42.12498],[-94.48494,42.11956],[-94.48535,42.11747],[-94.48054,42.11402],[-94.47732,42.11315],[-94.47772,42.11495],[-94.46934,42.11628],[-94.46711,42.11201],[-94.46216,42.1093],[-94.45915,42.10984],[-94.45323,42.10428],[-94.45328,42.10185],[-94.45962,42.09841],[-94.46159,42.09436],[-94.45979,42.08852],[-94.46169,42.08538],[-94.46181,42.07899],[-94.45806,42.07385],[-94.46461,42.07329],[-94.46729,42.0687],[-94.46593,42.06696],[-94.46682,42.06523],[-94.4614,42.06052],[-94.46346,42.05458],[-94.46099,42.05001],[-94.44916,42.0421],[-94.44474,42.04231],[-94.43936,42.04023],[-94.43673,42.04183],[-94.42823,42.03865],[-94.42576,42.03638],[-94.42767,42.03175],[-94.42555,42.0287],[-94.42106,42.02925],[-94.42007,42.02744],[-94.41044,42.02806],[-94.40346,42.02615],[-94.39919,42.02316],[-94.39701,42.02337],[-94.39523,42.02733],[-94.39309,42.02798],[-94.38903,42.02465],[-94.38478,42.02471],[-94.38323,42.02121],[-94.38613,42.01935],[-94.38666,42.01713],[-94.38492,42.0147],[-94.38287,42.01383],[-94.37535,42.0159],[-94.36966,42.01231],[-94.3654,42.00691],[-94.36241,42.00796],[-94.36079,42.00509],[-94.36505,42.00195],[-94.36478,41.99855],[-94.36257,41.99882],[-94.35225,41.99093],[-94.34838,41.99018],[-94.34719,41.98708],[-94.34243,41.98676],[-94.34035,41.98319],[-94.34077,41.97997],[-94.34505,41.97673],[-94.34828,41.97812],[-94.35139,41.9762],[-94.36165,41.97813],[-94.36413,41.97272],[-94.36703,41.97141],[-94.37111,41.97229],[-94.37695,41.96909],[-94.37813,41.96278],[-94.37638,41.96211],[-94.37956,41.95933],[-94.37816,41.95654],[-94.38218,41.95494],[-94.38092,41.95021],[-94.37688,41.94901],[-94.37885,41.94817],[-94.37391,41.94312],[-94.3753,41.94088],[-94.38218,41.93812],[-94.38847,41.93985],[-94.38938,41.93834],[-94.40025,41.93853],[-94.40672,41.94335],[-94.40786,41.9485],[-94.41436,41.95225],[-94.41529,41.95737],[-94.41905,41.95668],[-94.42768,41.95911],[-94.42944,41.96168],[-94.43238,41.96107],[-94.4354,41.96311],[-94.45143,41.96383],[-94.4541,41.966],[-94.45301,41.9676],[-94.45838,41.97627],[-94.45677,41.97868],[-94.45906,41.98163],[-94.46594,41.97867],[-94.47667,41.98422],[-94.48192,41.98338],[-94.4843,41.9854],[-94.48565,41.99262],[-94.48982,41.99405]]]}}]}