{"type":"FeatureCollection","features":[{"type":"Feature","properties":{},"geometry":{"type":"Polygon","coordinates":[[[-91.3185,42.56999],[-91.31887,42.57178],[-91.32905,42.57472],[-91.33762,42.57969],[-91.33786,42.58207],[-91.34423,42.58881],[-91.35498,42.58984],[-91.3597,42.58882],[-91.36381,42.59594],[-91.36008,42.5976],[-91.35789,42.6022],[-91.36113,42.60614],[-91.366,42.60771],[-91.36788,42.61518],[-91.38862,42.6201],[-91.39096,42.62591],[-91.39313,42.62696],[-91.39357,42.63008],[-91.38855,42.63661],[-91.38791,42.64061],[-91.40415,42.64576],[-91.40602,42.65093],[-91.41342,42.65467],[-91.41551,42.65798],[-91.42631,42.66025],[-91.43244,42.66451],[-91.43862,42.66524],[-91.44299,42.67157],[-91.44926,42.67153],[-91.45802,42.67855],[-91.46166,42.67921],[-91.46896,42.67463],[-91.47994,42.67635],[-91.48742,42.6742],[-91.50255,42.67815],[-91.51328,42.67874],[-91.51896,42.68105],[-91.52029,42.68016],[-91.52392,42.68223],[-91.53115,42.68215],[-91.54345,42.68641],[-91.54515,42.68475],[-91.55184,42.68652],[-91.55688,42.69117],[-91.56332,42.69212],[-91.56292,42.69829],[-91.5678,42.70275],[-91.56421,42.71012],[-91.57165,42.7152],[-91.57182,42.72063],[-91.58266,42.72075],[-91.58895,42.72389],[-91.60017,42.7228],[-91.60984,42.72594],[-91.62016,42.73342],[-91.62362,42.74145],[-91.62805,42.7439],[-91.63995,42.74576],[-91.64419,42.75047],[-91.65153,42.75116],[-91.65532,42.74875],[-91.67056,42.74739],[-91.67296,42.7424],[-91.6899,42.73593],[-91.69792,42.73584],[-91.6984,42.73043],[-91.70731,42.72792],[-91.71273,42.72415],[-91.72116,42.72466],[-91.72689,42.7301],[-91.73108,42.7307],[-91.7362,42.7347],[-91.73911,42.74125],[-91.74276,42.74191],[-91.75038,42.7381],[-91.76265,42.73738],[-91.76759,42.73545],[-91.77014,42.73137],[-91.77706,42.72732],[-91.77757,42.72515],[-91.78597,42.71698],[-91.79365,42.71493],[-91.79595,42.71645],[-91.80249,42.71626],[-91.8064,42.71248],[-91.81138,42.71192],[-91.82117,42.71627],[-91.82523,42.71516],[-91.8334,42.71677],[-91.84389,42.71051],[-91.85533,42.71719],[-91.85708,42.72075],[-91.85607,42.72272],[-91.87258,42.74401],[-91.88325,42.75233],[-91.882,42.75522],[-91.89198,42.76219],[-91.89266,42.76365],[-91.89018,42.76535],[-91.894,42.77001],[-91.89789,42.77251],[-91.91313,42.77115],[-91.91798,42.77357],[-91.92153,42.77325],[-91.92707,42.7698],[-91.93244,42.76958],[-91.93509,42.77142],[-91.94237,42.78562],[-91.94899,42.78763],[-91.95115,42.79342],[-91.95463,42.79702],[-91.9575,42.80266],[-91.95847,42.80708],[-91.95719,42.80834],[-91.95964,42.81648],[-91.96347,42.81998],[-91.9727,42.82286],[-91.97803,42.83267],[-91.99477,42.83695],[-92.00285,42.84418],[-92.00861,42.85757],[-92.01315,42.86194],[-92.01663,42.86991],[-92.02226,42.87422],[-92.0257,42.88013],[-92.02439,42.88433],[-92.02602,42.88748],[-92.01968,42.892],[-92.02406,42.8968],[-92.02762,42.91034],[-92.03302,42.91713],[-92.03617,42.9248],[-92.04273,42.92844],[-92.04996,42.9378],[-92.05714,42.9428],[-92.0582,42.94565],[-92.06436,42.9481],[-92.06911,42.95235],[-92.08112,42.95394],[-92.08332,42.95627],[-92.08423,42.96501],[-92.09304,42.96834],[-92.10078,42.97591],[-92.10511,42.97474],[-92.11621,42.9766],[-92.11533,42.97884],[-92.11752,42.98631],[-92.12569,42.99046],[-92.12928,42.99446],[-92.13561,42.99384],[-92.13776,42.99734],[-92.13575,43.00166],[-92.13701,43.00478],[-92.14277,43.00792],[-92.14359,43.01189],[-92.14843,43.01253],[-92.15793,43.01842],[-92.16151,43.01894],[-92.16859,43.02541],[-92.17179,43.02593],[-92.17714,43.03094],[-92.18338,43.03368],[-92.18204,43.04184],[-92.1855,43.04757],[-92.193,43.05352],[-92.19929,43.0543],[-92.20256,43.06219],[-92.20166,43.06616],[-92.2108,43.0776],[-92.21261,43.08559],[-92.21665,43.0921],[-92.21628,43.09565],[-92.22645,43.0991],[-92.22939,43.10179],[-92.22986,43.10491],[-92.23979,43.11326],[-92.24137,43.12513],[-92.24512,43.12622],[-92.25344,43.13662],[-92.25647,43.13622],[-92.25837,43.13986],[-92.26407,43.14096],[-92.26954,43.1461],[-92.27606,43.14897],[-92.29156,43.15048],[-92.29495,43.15562],[-92.30687,43.16558],[-92.31036,43.16661],[-92.31155,43.17539],[-92.31052,43.17772],[-92.32822,43.1876],[-92.33228,43.18711],[-92.33617,43.19072],[-92.33639,43.19853],[-92.34005,43.20158],[-92.33884,43.20915],[-92.34164,43.21119],[-92.34306,43.22183],[-92.34599,43.22245],[-92.34677,43.22688],[-92.35559,43.23176],[-92.35754,43.23455],[-92.36573,43.23563],[-92.36737,43.23971],[-92.36504,43.24153],[-92.36474,43.24569],[-92.36745,43.24751],[-92.37569,43.25986],[-92.38138,43.26295],[-92.37915,43.26671],[-92.38083,43.2696],[-92.37928,43.27445],[-92.38431,43.27778],[-92.38937,43.27866],[-92.39621,43.28486],[-92.4075,43.28222],[-92.41112,43.28697],[-92.42227,43.29122],[-92.42512,43.29691],[-92.42427,43.3007],[-92.429,43.30822],[-92.43529,43.31202],[-92.43428,43.31444],[-92.44678,43.32651],[-92.44588,43.33308],[-92.45227,43.33667],[-92.45287,43.34085],[-92.45082,43.34308],[-92.45705,43.34647],[-92.45996,43.34629],[-92.46594,43.35072],[-92.46938,43.35837],[-92.46592,43.36157],[-92.46938,43.36935],[-92.47505,43.37285],[-92.47538,43.37652],[-92.4803,43.37776],[-92.48059,43.38011],[-92.49044,43.38646],[-92.48746,43.39246],[-92.49637,43.39881],[-92.4976,43.40046],[-92.49654,43.40239],[-92.50048,43.40545],[-92.49953,43.40808],[-92.50334,43.41494],[-92.50762,43.41882],[-92.49605,43.42317],[-92.488,43.43094],[-92.46772,43.43416],[-92.45459,43.4287],[-92.44755,43.43638],[-92.43543,43.43894],[-92.43364,43.43754],[-92.435,43.43577],[-92.43265,43.43198],[-92.4262,43.42864],[-92.41811,43.42099],[-92.41043,43.41811],[-92.40732,43.41203],[-92.40489,43.41046],[-92.39581,43.40727],[-92.38734,43.40713],[-92.38319,43.40497],[-92.36855,43.40523],[-92.36452,43.40257],[-92.35948,43.4027],[-92.35624,43.3993],[-92.34653,43.39743],[-92.3433,43.39876],[-92.34087,43.40249],[-92.32902,43.40585],[-92.32389,43.40655],[-92.31772,43.40369],[-92.29871,43.42001],[-92.29849,43.4287],[-92.29195,43.43021],[-92.27377,43.42732],[-92.27072,43.42963],[-92.26834,43.43511],[-92.25858,43.43617],[-92.25652,43.43885],[-92.25247,43.43986],[-92.24278,43.43923],[-92.24355,43.44082],[-92.24105,43.44162],[-92.24177,43.44404],[-92.23437,43.44974],[-92.23449,43.45432],[-92.20797,43.45746],[-92.20316,43.45476],[-92.20262,43.44994],[-92.19804,43.44628],[-92.19971,43.44152],[-92.20461,43.43971],[-92.204,43.43529],[-92.20728,43.43417],[-92.20607,43.4333],[-92.20709,43.43094],[-92.2,43.43003],[-92.20045,43.42806],[-92.19377,43.42249],[-92.18461,43.4198],[-92.18027,43.40408],[-92.18383,43.3991],[-92.1891,43.39891],[-92.19023,43.39615],[-92.18659,43.39081],[-92.17859,43.38502],[-92.17665,43.37908],[-92.17219,43.37533],[-92.17207,43.37338],[-92.16856,43.37221],[-92.15942,43.3753],[-92.14452,43.37748],[-92.13889,43.37342],[-92.12645,43.375],[-92.1136,43.37119],[-92.10417,43.37334],[-92.10107,43.37041],[-92.08724,43.36681],[-92.08436,43.36172],[-92.0725,43.36046],[-92.05906,43.35505],[-92.04604,43.34202],[-92.04094,43.34091],[-92.03385,43.33608],[-92.03198,43.33123],[-92.01592,43.32256],[-92.01351,43.31898],[-92.00474,43.31544],[-92.00022,43.30882],[-91.99688,43.29804],[-91.97895,43.29149],[-91.97559,43.28407],[-91.97639,43.28081],[-91.97061,43.2768],[-91.96602,43.27622],[-91.95739,43.27808],[-91.94711,43.28441],[-91.94444,43.2787],[-91.93913,43.27311],[-91.93909,43.25633],[-91.93593,43.25341],[-91.93297,43.24675],[-91.92928,43.2447],[-91.92826,43.2412],[-91.92268,43.23644],[-91.92188,43.23334],[-91.91183,43.22738],[-91.90933,43.22286],[-91.90555,43.22047],[-91.89925,43.22027],[-91.89624,43.21826],[-91.8968,43.21556],[-91.89393,43.21375],[-91.88106,43.21044],[-91.88106,43.2062],[-91.87823,43.20536],[-91.87865,43.20374],[-91.87358,43.19607],[-91.87452,43.19287],[-91.87342,43.18919],[-91.8703,43.18588],[-91.85459,43.18034],[-91.84523,43.18269],[-91.83947,43.17927],[-91.81389,43.17616],[-91.80675,43.17172],[-91.80388,43.17268],[-91.80073,43.17055],[-91.79484,43.17206],[-91.79239,43.16956],[-91.77756,43.16729],[-91.77373,43.16329],[-91.77625,43.15425],[-91.7724,43.1498],[-91.75796,43.14397],[-91.75482,43.14065],[-91.74821,43.14171],[-91.74217,43.14043],[-91.73423,43.13499],[-91.72549,43.134],[-91.72328,43.13053],[-91.71715,43.12737],[-91.71176,43.12174],[-91.706,43.12349],[-91.70361,43.12285],[-91.70142,43.11967],[-91.68925,43.11568],[-91.6832,43.11707],[-91.67204,43.10945],[-91.67102,43.10676],[-91.65902,43.10565],[-91.6534,43.1013],[-91.64332,43.10335],[-91.64092,43.10519],[-91.63416,43.10066],[-91.63084,43.10028],[-91.62709,43.10233],[-91.61558,43.09881],[-91.6028,43.098],[-91.59124,43.08739],[-91.56814,43.08339],[-91.56052,43.08602],[-91.55141,43.09367],[-91.54364,43.09519],[-91.53857,43.09245],[-91.53791,43.08678],[-91.53417,43.08172],[-91.53472,43.076],[-91.52941,43.07178],[-91.53012,43.06919],[-91.52221,43.06542],[-91.51326,43.06619],[-91.49479,43.05733],[-91.48337,43.05844],[-91.47514,43.0615],[-91.46568,43.0604],[-91.46273,43.0623],[-91.45954,43.06045],[-91.45329,43.06073],[-91.44708,43.05598],[-91.42937,43.05962],[-91.42565,43.06235],[-91.41189,43.06082],[-91.40901,43.06201],[-91.40056,43.06067],[-91.39392,43.05452],[-91.39023,43.05341],[-91.38787,43.05081],[-91.39147,43.0469],[-91.39005,43.04363],[-91.39141,43.03977],[-91.38316,43.03519],[-91.38077,43.02748],[-91.38157,43.02493],[-91.37931,43.02291],[-91.36437,43.01959],[-91.36087,43.02008],[-91.35319,43.01543],[-91.35039,43.01659],[-91.34576,43.01542],[-91.34328,43.01401],[-91.34368,43.01181],[-91.33536,43.00964],[-91.33202,43.00475],[-91.32832,43.00271],[-91.333,42.99079],[-91.32885,42.98912],[-91.32612,42.98562],[-91.31764,42.98556],[-91.31527,42.98276],[-91.31194,42.98465],[-91.31025,42.98217],[-91.29934,42.98074],[-91.29644,42.97845],[-91.29238,42.96804],[-91.2872,42.96736],[-91.28409,42.96403],[-91.28538,42.96218],[-91.28418,42.96136],[-91.28462,42.95625],[-91.27458,42.95158],[-91.27765,42.95044],[-91.27896,42.94762],[-91.27907,42.94219],[-91.28141,42.93873],[-91.28071,42.93553],[-91.2855,42.92974],[-91.29062,42.92745],[-91.29391,42.92162],[-91.29296,42.91849],[-91.28475,42.91096],[-91.28048,42.91332],[-91.27127,42.91186],[-91.26605,42.90622],[-91.26589,42.90237],[-91.26257,42.90007],[-91.26334,42.89418],[-91.27048,42.88718],[-91.27346,42.88916],[-91.27747,42.88926],[-91.28571,42.88335],[-91.29307,42.88128],[-91.29362,42.87209],[-91.29217,42.87048],[-91.29628,42.8602],[-91.29488,42.85668],[-91.29976,42.84933],[-91.29905,42.84767],[-91.301,42.84634],[-91.29888,42.84492],[-91.29994,42.83921],[-91.29578,42.83216],[-91.293,42.83025],[-91.29306,42.82724],[-91.28519,42.82642],[-91.283,42.82339],[-91.27753,42.82034],[-91.27854,42.81804],[-91.27618,42.81365],[-91.27195,42.81209],[-91.27026,42.8087],[-91.27153,42.80417],[-91.27435,42.80257],[-91.27359,42.78783],[-91.26931,42.78459],[-91.26242,42.78623],[-91.2637,42.78115],[-91.26262,42.77872],[-91.25713,42.77904],[-91.24356,42.77052],[-91.24287,42.76736],[-91.24911,42.76388],[-91.24634,42.75991],[-91.24025,42.75705],[-91.24762,42.75452],[-91.25925,42.75452],[-91.26395,42.75201],[-91.26659,42.74739],[-91.26654,42.74511],[-91.25986,42.74029],[-91.26713,42.73653],[-91.26804,42.73273],[-91.27037,42.73208],[-91.26825,42.72886],[-91.26794,42.72383],[-91.26494,42.72115],[-91.26531,42.71788],[-91.27747,42.70612],[-91.27296,42.70222],[-91.27116,42.69316],[-91.2627,42.68458],[-91.25735,42.68466],[-91.25138,42.68112],[-91.24116,42.68443],[-91.23222,42.68401],[-91.22957,42.6854],[-91.22839,42.68835],[-91.22149,42.68675],[-91.2132,42.68949],[-91.20228,42.68914],[-91.20355,42.6875],[-91.19868,42.68215],[-91.20088,42.67782],[-91.19788,42.67311],[-91.20333,42.66673],[-91.20381,42.66373],[-91.20164,42.66227],[-91.20042,42.65635],[-91.18581,42.65372],[-91.19138,42.64999],[-91.19383,42.64586],[-91.19688,42.64525],[-91.19594,42.64039],[-91.21087,42.63234],[-91.21081,42.62932],[-91.21246,42.62778],[-91.21173,42.62416],[-91.22053,42.6206],[-91.22171,42.61737],[-91.22782,42.61706],[-91.22975,42.61503],[-91.22231,42.60837],[-91.22277,42.60623],[-91.21899,42.603],[-91.22048,42.59991],[-91.21941,42.59835],[-91.22202,42.59601],[-91.22181,42.59368],[-91.219,42.59225],[-91.21964,42.59126],[-91.23946,42.58503],[-91.24339,42.58812],[-91.24833,42.58588],[-91.2482,42.58394],[-91.25116,42.58222],[-91.26583,42.58417],[-91.26974,42.58153],[-91.27366,42.58149],[-91.27598,42.57678],[-91.27927,42.57491],[-91.27842,42.57112],[-91.2823,42.56723],[-91.29977,42.56571],[-91.30995,42.56916],[-91.31802,42.56798],[-91.31941,42.56852],[-91.3185,42.56999]],[[-91.48975,42.91253],[-91.48304,42.91648],[-91.48422,42.92366],[-91.4829,42.92655],[-91.48869,42.93628],[-91.49142,42.93682],[-91.49395,42.93648],[-91.4945,42.93503],[-91.49253,42.93305],[-91.49685,42.92858],[-91.49357,42.91953],[-91.49655,42.91548],[-91.49455,42.91272],[-91.48975,42.91253]]]}}]}