{"type":"FeatureCollection","features":[{"type":"Feature","properties":{},"geometry":{"type":"Polygon","coordinates":[[[-96.07075,44.16282],[-96.07075,44.15865],[-96.07908,44.15865],[-96.07908,44.15449],[-96.08325,44.15449],[-96.08325,44.15032],[-96.08741,44.15032],[-96.08741,44.14615],[-96.09158,44.14615],[-96.09158,44.14198],[-96.09575,44.14198],[-96.09575,44.13782],[-96.09992,44.13782],[-96.09992,44.13365],[-96.10825,44.13365],[-96.10825,44.12532],[-96.11242,44.12532],[-96.11242,44.12115],[-96.11658,44.12115],[-96.11658,44.11698],[-96.11242,44.11698],[-96.11242,44.11282],[-96.10408,44.11282],[-96.10408,44.10865],[-96.09575,44.10865],[-96.09575,44.10031],[-96.09158,44.10031],[-96.09158,44.09198],[-96.09575,44.09198],[-96.09575,44.08781],[-96.09992,44.08781],[-96.09992,44.08365],[-96.09575,44.08365],[-96.09575,44.07948],[-96.09158,44.07948],[-96.09158,44.07115],[-96.07908,44.07115],[-96.07908,44.06698],[-96.07491,44.06698],[-96.07491,44.06281],[-96.07075,44.06281],[-96.07075,44.05448],[-96.06658,44.05448],[-96.06658,44.04198],[-96.05408,44.04198],[-96.05408,44.03364],[-96.04991,44.03364],[-96.04991,44.02114],[-96.04574,44.02114],[-96.04574,44.00864],[-96.04158,44.00864],[-96.04158,44.00447],[-96.03741,44.00447],[-96.03741,44.00031],[-96.03324,44.00031],[-96.03324,43.99614],[-96.02491,43.99614],[-96.02491,43.99197],[-96.02074,43.99197],[-96.02074,43.98781],[-96.01658,43.98781],[-96.01658,43.98364],[-96.01241,43.98364],[-96.01241,43.9753],[-96.00824,43.9753],[-96.00824,43.96697],[-96.00408,43.96697],[-96.00408,43.9628],[-95.98741,43.9628],[-95.98741,43.94614],[-95.97491,43.94614],[-95.97491,43.94197],[-95.96657,43.94197],[-95.96657,43.9253],[-95.9624,43.9253],[-95.9624,43.92113],[-95.95407,43.92113],[-95.95407,43.91697],[-95.9499,43.91697],[-95.9499,43.9128],[-95.94574,43.9128],[-95.94574,43.9003],[-95.9374,43.9003],[-95.9374,43.89196],[-95.93324,43.89196],[-95.93324,43.88363],[-95.92907,43.88363],[-95.92907,43.87946],[-95.9249,43.87946],[-95.9249,43.8753],[-95.92073,43.8753],[-95.92073,43.8628],[-95.91657,43.8628],[-95.91657,43.85446],[-95.89573,43.85446],[-95.89573,43.85863],[-95.87906,43.85863],[-95.87906,43.85029],[-95.8874,43.85029],[-95.8874,43.83363],[-95.88323,43.83363],[-95.88323,43.82113],[-95.8874,43.82113],[-95.8874,43.81696],[-95.89157,43.81696],[-95.89157,43.81279],[-95.88323,43.81279],[-95.88323,43.80446],[-95.87906,43.80446],[-95.87906,43.79612],[-95.8749,43.79612],[-95.8749,43.80029],[-95.87073,43.80029],[-95.87073,43.79612],[-95.86656,43.79612],[-95.86656,43.79196],[-95.85823,43.79196],[-95.85823,43.78362],[-95.85406,43.78362],[-95.85406,43.76279],[-95.8499,43.76279],[-95.8499,43.75862],[-95.84156,43.75862],[-95.84156,43.76279],[-95.8374,43.76279],[-95.8374,43.75862],[-95.82906,43.75862],[-95.82906,43.75445],[-95.82073,43.75445],[-95.82073,43.74612],[-95.81656,43.74612],[-95.81656,43.74195],[-95.80823,43.74195],[-95.80823,43.75029],[-95.79989,43.75029],[-95.79989,43.74195],[-95.78739,43.74195],[-95.78739,43.73779],[-95.77072,43.73779],[-95.77072,43.74195],[-95.76656,43.74195],[-95.76656,43.74612],[-95.74989,43.74612],[-95.74989,43.74195],[-95.74572,43.74195],[-95.74572,43.73779],[-95.74155,43.73779],[-95.74155,43.74195],[-95.73322,43.74195],[-95.73322,43.74612],[-95.72905,43.74612],[-95.72905,43.73362],[-95.72072,43.73362],[-95.72072,43.72945],[-95.71655,43.72945],[-95.71655,43.72112],[-95.71238,43.72112],[-95.71238,43.71278],[-95.70405,43.71278],[-95.70405,43.70862],[-95.69988,43.70862],[-95.69988,43.69612],[-95.70822,43.69612],[-95.70822,43.69195],[-95.71238,43.69195],[-95.71238,43.68361],[-95.71655,43.68361],[-95.71655,43.67945],[-95.72072,43.67945],[-95.72072,43.67528],[-95.72905,43.67528],[-95.72905,43.66695],[-95.73322,43.66695],[-95.73322,43.66278],[-95.72905,43.66278],[-95.72905,43.65028],[-95.73322,43.65028],[-95.73322,43.64611],[-95.72905,43.64611],[-95.72905,43.64194],[-95.72489,43.64194],[-95.72489,43.63361],[-95.71655,43.63361],[-95.71655,43.63778],[-95.70822,43.63778],[-95.70822,43.62944],[-95.69572,43.62944],[-95.69572,43.62528],[-95.68322,43.62528],[-95.68322,43.61278],[-95.67905,43.61278],[-95.67905,43.60861],[-95.67488,43.60861],[-95.67488,43.60444],[-95.66238,43.60444],[-95.66238,43.60027],[-95.64988,43.60027],[-95.64988,43.60444],[-95.62488,43.60444],[-95.62488,43.60861],[-95.62071,43.60861],[-95.62071,43.60444],[-95.61654,43.60444],[-95.61654,43.60861],[-95.61238,43.60861],[-95.61238,43.60444],[-95.57904,43.60444],[-95.57904,43.60027],[-95.57071,43.60027],[-95.57071,43.60444],[-95.56654,43.60444],[-95.56654,43.60861],[-95.55404,43.60861],[-95.55404,43.61694],[-95.55821,43.61694],[-95.55821,43.62111],[-95.56237,43.62111],[-95.56237,43.62528],[-95.54987,43.62528],[-95.54987,43.62111],[-95.5457,43.62111],[-95.5457,43.61694],[-95.54154,43.61694],[-95.54154,43.60861],[-95.5332,43.60861],[-95.5332,43.60444],[-95.52904,43.60444],[-95.52904,43.60861],[-95.52487,43.60861],[-95.52487,43.61278],[-95.5207,43.61278],[-95.5207,43.60861],[-95.51237,43.60861],[-95.51237,43.61278],[-95.5082,43.61278],[-95.5082,43.61694],[-95.49987,43.61694],[-95.49987,43.62111],[-95.4957,43.62111],[-95.4957,43.62528],[-95.49153,43.62528],[-95.49153,43.62944],[-95.48737,43.62944],[-95.48737,43.63361],[-95.4832,43.63361],[-95.4832,43.62944],[-95.46653,43.62944],[-95.46653,43.63778],[-95.45403,43.63778],[-95.45403,43.63361],[-95.44986,43.63361],[-95.44986,43.62944],[-95.43736,43.62944],[-95.43736,43.63361],[-95.44153,43.63361],[-95.44153,43.65861],[-95.43736,43.65861],[-95.43736,43.67111],[-95.4332,43.67111],[-95.4332,43.66695],[-95.41236,43.66695],[-95.41236,43.66278],[-95.40819,43.66278],[-95.40819,43.65861],[-95.40403,43.65861],[-95.40403,43.65445],[-95.38319,43.65445],[-95.38319,43.65861],[-95.37069,43.65861],[-95.37069,43.66278],[-95.36652,43.66278],[-95.36652,43.65445],[-95.36236,43.65445],[-95.36236,43.65028],[-95.32485,43.65028],[-95.32485,43.65445],[-95.31652,43.65445],[-95.31652,43.65028],[-95.31235,43.65028],[-95.31235,43.64611],[-95.28318,43.64611],[-95.28318,43.64194],[-95.27902,43.64194],[-95.27902,43.63361],[-95.27068,43.63361],[-95.27068,43.62944],[-95.26235,43.62944],[-95.26235,43.62111],[-95.23735,43.62111],[-95.23735,43.62528],[-95.22901,43.62528],[-95.22901,43.62944],[-95.21234,43.62944],[-95.21234,43.62528],[-95.19984,43.62528],[-95.19984,43.63361],[-95.19568,43.63361],[-95.19568,43.64194],[-95.19151,43.64194],[-95.19151,43.64611],[-95.18734,43.64611],[-95.18734,43.65028],[-95.17484,43.65028],[-95.17484,43.65445],[-95.17068,43.65445],[-95.17068,43.65861],[-95.16234,43.65861],[-95.16234,43.66695],[-95.14984,43.66695],[-95.14984,43.67528],[-95.15401,43.67528],[-95.15401,43.69195],[-95.12484,43.69195],[-95.12484,43.69612],[-95.12067,43.69612],[-95.12067,43.70028],[-95.1165,43.70028],[-95.1165,43.70445],[-95.10817,43.70445],[-95.10817,43.68361],[-95.104,43.68361],[-95.104,43.67528],[-95.09984,43.67528],[-95.09984,43.67111],[-95.104,43.67111],[-95.104,43.66278],[-95.10817,43.66278],[-95.10817,43.65861],[-95.12484,43.65861],[-95.12484,43.65028],[-95.13734,43.65028],[-95.13734,43.64611],[-95.13317,43.64611],[-95.13317,43.63778],[-95.13734,43.63778],[-95.13734,43.62944],[-95.14151,43.62944],[-95.14151,43.62111],[-95.15401,43.62111],[-95.15401,43.61694],[-95.16651,43.61694],[-95.16651,43.59611],[-95.14984,43.59611],[-95.14984,43.58777],[-95.15401,43.58777],[-95.15401,43.58361],[-95.14984,43.58361],[-95.14984,43.57111],[-95.14567,43.57111],[-95.14567,43.56277],[-95.14984,43.56277],[-95.14984,43.5586],[-95.15401,43.5586],[-95.15401,43.55444],[-95.14984,43.55444],[-95.14984,43.55027],[-95.15817,43.55027],[-95.15817,43.54194],[-95.16234,43.54194],[-95.16234,43.53777],[-95.15401,43.53777],[-95.15401,43.52944],[-95.14984,43.52944],[-95.14984,43.5211],[-95.15401,43.5211],[-95.15401,43.51693],[-95.16651,43.51693],[-95.16651,43.51277],[-95.17484,43.51277],[-95.17484,43.5086],[-95.17901,43.5086],[-95.17901,43.50443],[-95.17484,43.50443],[-95.17484,43.49193],[-95.17068,43.49193],[-95.17068,43.48777],[-95.17484,43.48777],[-95.17484,43.4836],[-95.18318,43.4836],[-95.18318,43.47526],[-95.18734,43.47526],[-95.18734,43.46693],[-95.18318,43.46693],[-95.18318,43.46276],[-95.17901,43.46276],[-95.17901,43.4586],[-95.18318,43.4586],[-95.18318,43.45026],[-95.19151,43.45026],[-95.19151,43.44193],[-95.20401,43.44193],[-95.20401,43.43359],[-95.20818,43.43359],[-95.20818,43.42943],[-95.21651,43.42943],[-95.21651,43.42526],[-95.22485,43.42526],[-95.22485,43.42109],[-95.22068,43.42109],[-95.22068,43.41693],[-95.21651,43.41693],[-95.21651,43.41276],[-95.21234,43.41276],[-95.21234,43.39609],[-95.19568,43.39609],[-95.19568,43.37942],[-95.19984,43.37942],[-95.19984,43.36692],[-95.20401,43.36692],[-95.20401,43.35442],[-95.19984,43.35442],[-95.19984,43.35025],[-95.19568,43.35025],[-95.19568,43.34609],[-95.19151,43.34609],[-95.19151,43.34192],[-95.18734,43.34192],[-95.18734,43.33775],[-95.18318,43.33775],[-95.18318,43.33359],[-95.17068,43.33359],[-95.17068,43.33775],[-95.16651,43.33775],[-95.16651,43.33359],[-95.14984,43.33359],[-95.14984,43.33775],[-95.129,43.33775],[-95.129,43.32942],[-95.12067,43.32942],[-95.12067,43.32525],[-95.10817,43.32525],[-95.10817,43.32942],[-95.104,43.32942],[-95.104,43.32525],[-95.09984,43.32525],[-95.09984,43.32109],[-95.09567,43.32109],[-95.09567,43.32525],[-95.0915,43.32525],[-95.0915,43.32942],[-95.079,43.32942],[-95.079,43.33359],[-95.07483,43.33359],[-95.07483,43.33775],[-95.0665,43.33775],[-95.0665,43.35025],[-95.06233,43.35025],[-95.06233,43.35442],[-95.05817,43.35442],[-95.05817,43.35859],[-95.054,43.35859],[-95.054,43.36276],[-95.04566,43.36276],[-95.04566,43.37109],[-95.03733,43.37109],[-95.03733,43.37942],[-95.03316,43.37942],[-95.03316,43.38776],[-95.029,43.38776],[-95.029,43.39192],[-95.02483,43.39192],[-95.02483,43.40026],[-95.03316,43.40026],[-95.03316,43.40859],[-95.029,43.40859],[-95.029,43.41693],[-95.03316,43.41693],[-95.03316,43.42109],[-95.02066,43.42109],[-95.02066,43.42526],[-95.0165,43.42526],[-95.0165,43.44193],[-95.01233,43.44193],[-95.01233,43.4461],[-95.00816,43.4461],[-95.00816,43.44193],[-95.004,43.44193],[-95.004,43.43776],[-94.98733,43.43776],[-94.98733,43.43359],[-94.97483,43.43359],[-94.97483,43.42943],[-94.96232,43.42943],[-94.96232,43.43359],[-94.94566,43.43359],[-94.94566,43.43776],[-94.93732,43.43776],[-94.93732,43.42526],[-94.94149,43.42526],[-94.94149,43.40443],[-94.94566,43.40443],[-94.94566,43.40026],[-94.94982,43.40026],[-94.94982,43.39192],[-94.94566,43.39192],[-94.94566,43.38776],[-94.94149,43.38776],[-94.94149,43.38359],[-94.92065,43.38359],[-94.92065,43.37109],[-94.91649,43.37109],[-94.91649,43.36692],[-94.91232,43.36692],[-94.91232,43.35859],[-94.89982,43.35859],[-94.89982,43.35442],[-94.89565,43.35442],[-94.89565,43.35025],[-94.89149,43.35025],[-94.89149,43.33775],[-94.88732,43.33775],[-94.88732,43.32525],[-94.88315,43.32525],[-94.88315,43.31275],[-94.89149,43.31275],[-94.89149,43.30858],[-94.88732,43.30858],[-94.88732,43.30442],[-94.87899,43.30442],[-94.87899,43.30025],[-94.86648,43.30025],[-94.86648,43.28775],[-94.85815,43.28775],[-94.85815,43.28358],[-94.85398,43.28358],[-94.85398,43.27942],[-94.84982,43.27942],[-94.84982,43.27525],[-94.85398,43.27525],[-94.85398,43.27108],[-94.85815,43.27108],[-94.85815,43.25025],[-94.86232,43.25025],[-94.86232,43.24608],[-94.85815,43.24608],[-94.85815,43.23358],[-94.85398,43.23358],[-94.85398,43.22524],[-94.84982,43.22524],[-94.84982,43.21691],[-94.84565,43.21691],[-94.84565,43.20024],[-94.84148,43.20024],[-94.84148,43.18774],[-94.83731,43.18774],[-94.83731,43.17941],[-94.84565,43.17941],[-94.84565,43.16274],[-94.84982,43.16274],[-94.84982,43.15857],[-94.84565,43.15857],[-94.84565,43.15441],[-94.85398,43.15441],[-94.85398,43.15024],[-94.86232,43.15024],[-94.86232,43.13774],[-94.85815,43.13774],[-94.85815,43.12524],[-94.86648,43.12524],[-94.86648,43.1169],[-94.87065,43.1169],[-94.87065,43.11274],[-94.87899,43.11274],[-94.87899,43.10023],[-94.88732,43.10023],[-94.88732,43.09607],[-94.90399,43.09607],[-94.90399,43.08357],[-94.89982,43.08357],[-94.89982,43.07107],[-94.90399,43.07107],[-94.90399,43.0669],[-94.90815,43.0669],[-94.90815,43.07107],[-94.91649,43.07107],[-94.91649,43.0669],[-94.94566,43.0669],[-94.94566,43.07523],[-94.95399,43.07523],[-94.95399,43.07107],[-94.96232,43.07107],[-94.96232,43.0669],[-94.97066,43.0669],[-94.97066,43.06273],[-94.97483,43.06273],[-94.97483,43.05023],[-94.97899,43.05023],[-94.97899,43.0419],[-94.98316,43.0419],[-94.98316,43.03773],[-94.97899,43.03773],[-94.97899,43.03356],[-94.97483,43.03356],[-94.97483,43.02106],[-94.97899,43.02106],[-94.97899,42.99189],[-94.98316,42.99189],[-94.98316,42.97939],[-94.98733,42.97939],[-94.98733,42.97106],[-94.98316,42.97106],[-94.98316,42.96689],[-94.98733,42.96689],[-94.98733,42.96272],[-94.98316,42.96272],[-94.98316,42.95856],[-94.98733,42.95856],[-94.98733,42.95022],[-94.99149,42.95022],[-94.99149,42.94606],[-94.99566,42.94606],[-94.99566,42.94189],[-94.99983,42.94189],[-94.99983,42.93355],[-94.99566,42.93355],[-94.99566,42.92522],[-94.99983,42.92522],[-94.99983,42.91689],[-95.004,42.91689],[-95.004,42.90855],[-95.00816,42.90855],[-95.00816,42.90439],[-95.01233,42.90439],[-95.01233,42.89188],[-94.99566,42.89188],[-94.99566,42.88772],[-94.99149,42.88772],[-94.99149,42.88355],[-94.98733,42.88355],[-94.98733,42.88772],[-94.97899,42.88772],[-94.97899,42.89188],[-94.97066,42.89188],[-94.97066,42.89605],[-94.96649,42.89605],[-94.96649,42.90022],[-94.95816,42.90022],[-94.95816,42.90439],[-94.95399,42.90439],[-94.95399,42.90855],[-94.94982,42.90855],[-94.94982,42.91272],[-94.94566,42.91272],[-94.94566,42.91689],[-94.93732,42.91689],[-94.93732,42.92105],[-94.93316,42.92105],[-94.93316,42.92522],[-94.91649,42.92522],[-94.91649,42.92939],[-94.90815,42.92939],[-94.90815,42.92522],[-94.89982,42.92522],[-94.89982,42.92939],[-94.89149,42.92939],[-94.89149,42.93355],[-94.86648,42.93355],[-94.86648,42.92939],[-94.84982,42.92939],[-94.84982,42.92522],[-94.84565,42.92522],[-94.84565,42.92105],[-94.84148,42.92105],[-94.84148,42.91689],[-94.83731,42.91689],[-94.83731,42.91272],[-94.83315,42.91272],[-94.83315,42.89605],[-94.82898,42.89605],[-94.82898,42.88355],[-94.82481,42.88355],[-94.82481,42.87938],[-94.82065,42.87938],[-94.82065,42.87522],[-94.81648,42.87522],[-94.81648,42.87105],[-94.80815,42.87105],[-94.80815,42.86688],[-94.81231,42.86688],[-94.81231,42.86272],[-94.81648,42.86272],[-94.81648,42.85438],[-94.81231,42.85438],[-94.81231,42.84188],[-94.80815,42.84188],[-94.80815,42.83771],[-94.80398,42.83771],[-94.80398,42.82105],[-94.79981,42.82105],[-94.79981,42.82521],[-94.79564,42.82521],[-94.79564,42.82105],[-94.78731,42.82105],[-94.78731,42.81688],[-94.77898,42.81688],[-94.77898,42.80854],[-94.77064,42.80854],[-94.77064,42.80021],[-94.76648,42.80021],[-94.76648,42.79188],[-94.76231,42.79188],[-94.76231,42.78354],[-94.75397,42.78354],[-94.75397,42.77938],[-94.75814,42.77938],[-94.75814,42.77104],[-94.75397,42.77104],[-94.75397,42.76687],[-94.74981,42.76687],[-94.74981,42.75854],[-94.74564,42.75854],[-94.74564,42.74604],[-94.74981,42.74604],[-94.74981,42.74187],[-94.75397,42.74187],[-94.75397,42.73771],[-94.75814,42.73771],[-94.75814,42.73354],[-94.76648,42.73354],[-94.76648,42.72937],[-94.76231,42.72937],[-94.76231,42.7252],[-94.76648,42.7252],[-94.76648,42.71687],[-94.77064,42.71687],[-94.77064,42.68353],[-94.77481,42.68353],[-94.77481,42.67937],[-94.77064,42.67937],[-94.77064,42.6752],[-94.76648,42.6752],[-94.76648,42.67103],[-94.76231,42.67103],[-94.76231,42.66687],[-94.75814,42.66687],[-94.75814,42.6627],[-94.75397,42.6627],[-94.75397,42.63353],[-94.75814,42.63353],[-94.75814,42.62936],[-94.75397,42.62936],[-94.75397,42.62103],[-94.74981,42.62103],[-94.74981,42.61686],[-94.72897,42.61686],[-94.72897,42.62936],[-94.70397,42.62936],[-94.70397,42.6252],[-94.69147,42.6252],[-94.69147,42.62103],[-94.6873,42.62103],[-94.6873,42.61686],[-94.68314,42.61686],[-94.68314,42.60853],[-94.67063,42.60853],[-94.67063,42.60436],[-94.6623,42.60436],[-94.6623,42.60019],[-94.65813,42.60019],[-94.65813,42.59603],[-94.6498,42.59603],[-94.6498,42.59186],[-94.64563,42.59186],[-94.64563,42.58769],[-94.6373,42.58769],[-94.6373,42.58353],[-94.61646,42.58353],[-94.61646,42.57936],[-94.60813,42.57936],[-94.60813,42.57519],[-94.5998,42.57519],[-94.5998,42.57103],[-94.59563,42.57103],[-94.59563,42.56686],[-94.58313,42.56686],[-94.58313,42.56269],[-94.57479,42.56269],[-94.57479,42.55852],[-94.56646,42.55852],[-94.56646,42.56269],[-94.55813,42.56269],[-94.55813,42.55852],[-94.55396,42.55852],[-94.55396,42.55436],[-94.52896,42.55436],[-94.52896,42.55019],[-94.52479,42.55019],[-94.52479,42.54602],[-94.51646,42.54602],[-94.51646,42.54186],[-94.50812,42.54186],[-94.50812,42.53352],[-94.51229,42.53352],[-94.51229,42.52936],[-94.50812,42.52936],[-94.50812,42.52519],[-94.51229,42.52519],[-94.51229,42.52102],[-94.51646,42.52102],[-94.51646,42.51269],[-94.51229,42.51269],[-94.51229,42.49602],[-94.50812,42.49602],[-94.50812,42.49185],[-94.48729,42.49185],[-94.48729,42.48352],[-94.49145,42.48352],[-94.49145,42.47102],[-94.49562,42.47102],[-94.49562,42.46685],[-94.49979,42.46685],[-94.49979,42.45852],[-94.49562,42.45852],[-94.49562,42.45435],[-94.48729,42.45435],[-94.48729,42.45018],[-94.48312,42.45018],[-94.48312,42.44602],[-94.47479,42.44602],[-94.47479,42.45435],[-94.47062,42.45435],[-94.47062,42.45852],[-94.46228,42.45852],[-94.46228,42.46268],[-94.45812,42.46268],[-94.45812,42.46685],[-94.43728,42.46685],[-94.43728,42.46268],[-94.43312,42.46268],[-94.43312,42.45852],[-94.42895,42.45852],[-94.42895,42.45435],[-94.42061,42.45435],[-94.42061,42.44185],[-94.41228,42.44185],[-94.41228,42.43351],[-94.40395,42.43351],[-94.40395,42.43768],[-94.39978,42.43768],[-94.39978,42.44185],[-94.38311,42.44185],[-94.38311,42.43768],[-94.37895,42.43768],[-94.37895,42.43351],[-94.37478,42.43351],[-94.37478,42.42935],[-94.36228,42.42935],[-94.36228,42.43351],[-94.35811,42.43351],[-94.35811,42.41268],[-94.36228,42.41268],[-94.36228,42.40851],[-94.35811,42.40851],[-94.35811,42.40435],[-94.35394,42.40435],[-94.35394,42.39601],[-94.35811,42.39601],[-94.35811,42.39184],[-94.34144,42.39184],[-94.34144,42.39601],[-94.33727,42.39601],[-94.33727,42.38768],[-94.33311,42.38768],[-94.33311,42.38351],[-94.32894,42.38351],[-94.32894,42.37934],[-94.32477,42.37934],[-94.32477,42.37518],[-94.32061,42.37518],[-94.32061,42.37101],[-94.30811,42.37101],[-94.30811,42.37518],[-94.2956,42.37518],[-94.2956,42.37101],[-94.2831,42.37101],[-94.2831,42.36268],[-94.27894,42.36268],[-94.27894,42.35434],[-94.27477,42.35434],[-94.27477,42.34601],[-94.2706,42.34601],[-94.2706,42.34184],[-94.26227,42.34184],[-94.26227,42.33767],[-94.24977,42.33767],[-94.24977,42.33351],[-94.24143,42.33351],[-94.24143,42.32517],[-94.2331,42.32517],[-94.2331,42.32934],[-94.22893,42.32934],[-94.22893,42.33351],[-94.21643,42.33351],[-94.21643,42.32934],[-94.20393,42.32934],[-94.20393,42.32517],[-94.1956,42.32517],[-94.1956,42.32101],[-94.18726,42.32101],[-94.18726,42.32517],[-94.1831,42.32517],[-94.1831,42.31684],[-94.18726,42.31684],[-94.18726,42.31267],[-94.1831,42.31267],[-94.1831,42.3085],[-94.18726,42.3085],[-94.18726,42.30434],[-94.1831,42.30434],[-94.1831,42.30017],[-94.18726,42.30017],[-94.18726,42.296],[-94.19143,42.296],[-94.19143,42.2835],[-94.19976,42.2835],[-94.19976,42.27934],[-94.20393,42.27934],[-94.20393,42.271],[-94.19976,42.271],[-94.19976,42.2585],[-94.1956,42.2585],[-94.1956,42.25433],[-94.19976,42.25433],[-94.19976,42.25017],[-94.20393,42.25017],[-94.20393,42.25433],[-94.21643,42.25433],[-94.21643,42.25017],[-94.2206,42.25017],[-94.2206,42.246],[-94.22477,42.246],[-94.22477,42.24183],[-94.22893,42.24183],[-94.22893,42.22933],[-94.2206,42.22933],[-94.2206,42.21266],[-94.22477,42.21266],[-94.22477,42.2085],[-94.2206,42.2085],[-94.2206,42.20433],[-94.21643,42.20433],[-94.21643,42.20016],[-94.22477,42.20016],[-94.22477,42.196],[-94.2206,42.196],[-94.2206,42.18349],[-94.22477,42.18349],[-94.22477,42.17933],[-94.2206,42.17933],[-94.2206,42.17099],[-94.21643,42.17099],[-94.21643,42.15016],[-94.22477,42.15016],[-94.22477,42.14599],[-94.22893,42.14599],[-94.22893,42.14182],[-94.2331,42.14182],[-94.2331,42.13766],[-94.23727,42.13766],[-94.23727,42.12516],[-94.2331,42.12516],[-94.2331,42.11682],[-94.2456,42.11682],[-94.2456,42.10849],[-94.24143,42.10849],[-94.24143,42.08765],[-94.24977,42.08765],[-94.24977,42.07932],[-94.2456,42.07932],[-94.2456,42.06265],[-94.24977,42.06265],[-94.24977,42.05848],[-94.25393,42.05848],[-94.25393,42.04598],[-94.2581,42.04598],[-94.2581,42.03348],[-94.26227,42.03348],[-94.26227,42.02515],[-94.2581,42.02515],[-94.2581,42.02098],[-94.26227,42.02098],[-94.26227,42.01681],[-94.26644,42.01681],[-94.26644,42.00015],[-94.2706,42.00015],[-94.2706,41.99598],[-94.26644,41.99598],[-94.26644,41.98765],[-94.26227,41.98765],[-94.26227,41.98348],[-94.2581,41.98348],[-94.2581,41.97931],[-94.25393,41.97931],[-94.25393,41.97098],[-94.24143,41.97098],[-94.24143,41.97514],[-94.23727,41.97514],[-94.23727,41.97931],[-94.2206,41.97931],[-94.2206,41.98348],[-94.21643,41.98348],[-94.21643,41.97931],[-94.2081,41.97931],[-94.2081,41.97098],[-94.1956,41.97098],[-94.1956,41.95014],[-94.19143,41.95014],[-94.19143,41.94598],[-94.18726,41.94598],[-94.18726,41.93347],[-94.1831,41.93347],[-94.1831,41.92931],[-94.18726,41.92931],[-94.18726,41.92514],[-94.1831,41.92514],[-94.1831,41.92097],[-94.17476,41.92097],[-94.17476,41.91681],[-94.17059,41.91681],[-94.17059,41.91264],[-94.14976,41.91264],[-94.14976,41.90847],[-94.14559,41.90847],[-94.14559,41.91264],[-94.14143,41.91264],[-94.14143,41.91681],[-94.12476,41.91681],[-94.12476,41.91264],[-94.12059,41.91264],[-94.12059,41.90431],[-94.11642,41.90431],[-94.11642,41.88764],[-94.11226,41.88764],[-94.11226,41.88347],[-94.10809,41.88347],[-94.10809,41.87514],[-94.11226,41.87514],[-94.11226,41.87097],[-94.10809,41.87097],[-94.10809,41.86264],[-94.10392,41.86264],[-94.10392,41.8543],[-94.09976,41.8543],[-94.09976,41.84597],[-94.09559,41.84597],[-94.09559,41.83763],[-94.08309,41.83763],[-94.08309,41.8293],[-94.07059,41.8293],[-94.07059,41.8168],[-94.07475,41.8168],[-94.07475,41.81263],[-94.07059,41.81263],[-94.07059,41.80846],[-94.07475,41.80846],[-94.07475,41.7918],[-94.07059,41.7918],[-94.07059,41.78763],[-94.06642,41.78763],[-94.06642,41.78346],[-94.06225,41.78346],[-94.06225,41.77513],[-94.05392,41.77513],[-94.05392,41.77096],[-94.04975,41.77096],[-94.04975,41.77513],[-94.04559,41.77513],[-94.04559,41.77096],[-94.03725,41.77096],[-94.03725,41.76679],[-94.03308,41.76679],[-94.03308,41.76263],[-94.02892,41.76263],[-94.02892,41.75429],[-94.02475,41.75429],[-94.02475,41.74179],[-94.02058,41.74179],[-94.02058,41.73346],[-94.01642,41.73346],[-94.01642,41.72512],[-94.00808,41.72512],[-94.00808,41.71262],[-94.00391,41.71262],[-94.00391,41.70846],[-93.99141,41.70846],[-93.99141,41.70429],[-93.98725,41.70429],[-93.98725,41.70012],[-93.97891,41.70012],[-93.97891,41.69179],[-93.97475,41.69179],[-93.97475,41.68762],[-93.96224,41.68762],[-93.96224,41.69179],[-93.95808,41.69179],[-93.95808,41.68762],[-93.95391,41.68762],[-93.95391,41.69179],[-93.94558,41.69179],[-93.94558,41.69596],[-93.93724,41.69596],[-93.93724,41.70429],[-93.92891,41.70429],[-93.92891,41.71262],[-93.92474,41.71262],[-93.92474,41.71679],[-93.91224,41.71679],[-93.91224,41.72096],[-93.89974,41.72096],[-93.89974,41.72512],[-93.89557,41.72512],[-93.89557,41.72929],[-93.87474,41.72929],[-93.87474,41.72512],[-93.85807,41.72512],[-93.85807,41.72096],[-93.84974,41.72096],[-93.84974,41.70846],[-93.84557,41.70846],[-93.84557,41.70429],[-93.8414,41.70429],[-93.8414,41.69179],[-93.8289,41.69179],[-93.8289,41.68762],[-93.82473,41.68762],[-93.82473,41.67929],[-93.82057,41.67929],[-93.82057,41.67512],[-93.8039,41.67512],[-93.8039,41.67095],[-93.79556,41.67095],[-93.79556,41.67512],[-93.7914,41.67512],[-93.7914,41.67929],[-93.77473,41.67929],[-93.77473,41.69179],[-93.7664,41.69179],[-93.7664,41.68345],[-93.76223,41.68345],[-93.76223,41.67095],[-93.75806,41.67095],[-93.75806,41.66679],[-93.74973,41.66679],[-93.74973,41.66262],[-93.74556,41.66262],[-93.74556,41.65429],[-93.73723,41.65429],[-93.73723,41.65012],[-93.72889,41.65012],[-93.72889,41.64595],[-93.72473,41.64595],[-93.72473,41.64178],[-93.70806,41.64178],[-93.70806,41.63762],[-93.69972,41.63762],[-93.69972,41.63345],[-93.69556,41.63345],[-93.69556,41.62928],[-93.69139,41.62928],[-93.69139,41.62095],[-93.68722,41.62095],[-93.68722,41.62512],[-93.67889,41.62512],[-93.67889,41.62928],[-93.67472,41.62928],[-93.67472,41.64178],[-93.67055,41.64178],[-93.67055,41.64595],[-93.66639,41.64595],[-93.66639,41.65012],[-93.66222,41.65012],[-93.66222,41.65845],[-93.65805,41.65845],[-93.65805,41.66262],[-93.64555,41.66262],[-93.64555,41.66679],[-93.64139,41.66679],[-93.64139,41.67095],[-93.63722,41.67095],[-93.63722,41.67512],[-93.63305,41.67512],[-93.63305,41.67929],[-93.62888,41.67929],[-93.62888,41.68762],[-93.63305,41.68762],[-93.63305,41.69596],[-93.63722,41.69596],[-93.63722,41.70012],[-93.63305,41.70012],[-93.63305,41.71262],[-93.63722,41.71262],[-93.63722,41.72929],[-93.62888,41.72929],[-93.62888,41.73346],[-93.61638,41.73346],[-93.61638,41.73763],[-93.61222,41.73763],[-93.61222,41.74596],[-93.61638,41.74596],[-93.61638,41.75846],[-93.62055,41.75846],[-93.62055,41.76263],[-93.62472,41.76263],[-93.62472,41.76679],[-93.62888,41.76679],[-93.62888,41.77096],[-93.63305,41.77096],[-93.63305,41.77513],[-93.63722,41.77513],[-93.63722,41.7793],[-93.64139,41.7793],[-93.64139,41.7918],[-93.65389,41.7918],[-93.65389,41.79596],[-93.66222,41.79596],[-93.66222,41.80013],[-93.66639,41.80013],[-93.66639,41.8043],[-93.67055,41.8043],[-93.67055,41.80846],[-93.66639,41.80846],[-93.66639,41.8168],[-93.67055,41.8168],[-93.67055,41.8293],[-93.66639,41.8293],[-93.66639,41.83347],[-93.67055,41.83347],[-93.67055,41.83763],[-93.67889,41.83763],[-93.67889,41.8418],[-93.68306,41.8418],[-93.68306,41.85013],[-93.67889,41.85013],[-93.67889,41.85847],[-93.68306,41.85847],[-93.68306,41.86264],[-93.68722,41.86264],[-93.68722,41.8668],[-93.69972,41.8668],[-93.69972,41.8793],[-93.70389,41.8793],[-93.70389,41.88764],[-93.70806,41.88764],[-93.70806,41.8918],[-93.71223,41.8918],[-93.71223,41.89597],[-93.71639,41.89597],[-93.71639,41.90431],[-93.72056,41.90431],[-93.72056,41.90847],[-93.72473,41.90847],[-93.72473,41.92097],[-93.72889,41.92097],[-93.72889,41.92514],[-93.73306,41.92514],[-93.73306,41.92931],[-93.72889,41.92931],[-93.72889,41.94181],[-93.72473,41.94181],[-93.72473,41.95848],[-93.72056,41.95848],[-93.72056,41.96264],[-93.72473,41.96264],[-93.72473,41.97098],[-93.72889,41.97098],[-93.72889,41.97514],[-93.73306,41.97514],[-93.73306,41.97931],[-93.73723,41.97931],[-93.73723,41.98765],[-93.74139,41.98765],[-93.74139,41.99181],[-93.74556,41.99181],[-93.74556,41.99598],[-93.74973,41.99598],[-93.74973,41.99181],[-93.75806,41.99181],[-93.75806,41.99598],[-93.76223,41.99598],[-93.76223,41.99181],[-93.7664,41.99181],[-93.7664,41.98765],[-93.77056,41.98765],[-93.77056,41.99181],[-93.77473,41.99181],[-93.77473,41.99598],[-93.7789,41.99598],[-93.7789,42.00431],[-93.78306,42.00431],[-93.78306,42.01265],[-93.78723,42.01265],[-93.78723,42.01681],[-93.7914,42.01681],[-93.7914,42.02098],[-93.79556,42.02098],[-93.79556,42.03765],[-93.8039,42.03765],[-93.8039,42.04182],[-93.81223,42.04182],[-93.81223,42.03765],[-93.8164,42.03765],[-93.8164,42.04182],[-93.82473,42.04182],[-93.82473,42.05432],[-93.8289,42.05432],[-93.8289,42.05848],[-93.83307,42.05848],[-93.83307,42.06265],[-93.83723,42.06265],[-93.83723,42.06682],[-93.83307,42.06682],[-93.83307,42.07515],[-93.84557,42.07515],[-93.84557,42.07932],[-93.84974,42.07932],[-93.84974,42.10015],[-93.8539,42.10015],[-93.8539,42.10432],[-93.85807,42.10432],[-93.85807,42.11266],[-93.8664,42.11266],[-93.8664,42.10849],[-93.87474,42.10849],[-93.87474,42.11266],[-93.88307,42.11266],[-93.88307,42.12099],[-93.88724,42.12099],[-93.88724,42.12516],[-93.89141,42.12516],[-93.89141,42.12932],[-93.89557,42.12932],[-93.89557,42.13766],[-93.88724,42.13766],[-93.88724,42.14182],[-93.87474,42.14182],[-93.87474,42.14599],[-93.87057,42.14599],[-93.87057,42.15016],[-93.87474,42.15016],[-93.87474,42.15433],[-93.88307,42.15433],[-93.88307,42.15849],[-93.89141,42.15849],[-93.89141,42.15433],[-93.89557,42.15433],[-93.89557,42.15849],[-93.89974,42.15849],[-93.89974,42.16266],[-93.90807,42.16266],[-93.90807,42.16683],[-93.91224,42.16683],[-93.91224,42.17516],[-93.92057,42.17516],[-93.92057,42.18349],[-93.91641,42.18349],[-93.91641,42.196],[-93.92891,42.196],[-93.92891,42.20016],[-93.93308,42.20016],[-93.93308,42.2085],[-93.95391,42.2085],[-93.95391,42.21266],[-93.95808,42.21266],[-93.95808,42.21683],[-93.96224,42.21683],[-93.96224,42.221],[-93.96641,42.221],[-93.96641,42.22516],[-93.96224,42.22516],[-93.96224,42.22933],[-93.95808,42.22933],[-93.95808,42.23767],[-93.93724,42.23767],[-93.93724,42.25017],[-93.93308,42.25017],[-93.93308,42.25433],[-93.92891,42.25433],[-93.92891,42.26683],[-93.92474,42.26683],[-93.92474,42.271],[-93.92057,42.271],[-93.92057,42.27517],[-93.91641,42.27517],[-93.91641,42.27934],[-93.91224,42.27934],[-93.91224,42.2835],[-93.90807,42.2835],[-93.90807,42.30434],[-93.89557,42.30434],[-93.89557,42.31267],[-93.89141,42.31267],[-93.89141,42.31684],[-93.87891,42.31684],[-93.87891,42.32101],[-93.87474,42.32101],[-93.87474,42.31684],[-93.86224,42.31684],[-93.86224,42.32101],[-93.85807,42.32101],[-93.85807,42.32517],[-93.8539,42.32517],[-93.8539,42.32934],[-93.84974,42.32934],[-93.84974,42.32517],[-93.83723,42.32517],[-93.83723,42.32101],[-93.83307,42.32101],[-93.83307,42.32517],[-93.8164,42.32517],[-93.8164,42.32934],[-93.81223,42.32934],[-93.81223,42.33351],[-93.8039,42.33351],[-93.8039,42.33767],[-93.79973,42.33767],[-93.79973,42.33351],[-93.79556,42.33351],[-93.79556,42.32934],[-93.78723,42.32934],[-93.78723,42.32517],[-93.78306,42.32517],[-93.78306,42.32934],[-93.7789,42.32934],[-93.7789,42.33351],[-93.77473,42.33351],[-93.77473,42.35851],[-93.77056,42.35851],[-93.77056,42.36684],[-93.7664,42.36684],[-93.7664,42.37934],[-93.77056,42.37934],[-93.77056,42.39184],[-93.76223,42.39184],[-93.76223,42.40435],[-93.74973,42.40435],[-93.74973,42.41268],[-93.74556,42.41268],[-93.74556,42.41685],[-93.74139,42.41685],[-93.74139,42.42518],[-93.73306,42.42518],[-93.73306,42.42935],[-93.72889,42.42935],[-93.72889,42.42518],[-93.72473,42.42518],[-93.72473,42.42935],[-93.71639,42.42935],[-93.71639,42.43351],[-93.71223,42.43351],[-93.71223,42.44185],[-93.70806,42.44185],[-93.70806,42.45018],[-93.70389,42.45018],[-93.70389,42.45852],[-93.69972,42.45852],[-93.69972,42.46268],[-93.70389,42.46268],[-93.70389,42.47518],[-93.69972,42.47518],[-93.69972,42.47935],[-93.69556,42.47935],[-93.69556,42.48769],[-93.69139,42.48769],[-93.69139,42.49602],[-93.68722,42.49602],[-93.68722,42.50435],[-93.68306,42.50435],[-93.68306,42.50852],[-93.67472,42.50852],[-93.67472,42.52102],[-93.67055,42.52102],[-93.67055,42.52936],[-93.66639,42.52936],[-93.66639,42.53352],[-93.66222,42.53352],[-93.66222,42.53769],[-93.66639,42.53769],[-93.66639,42.55019],[-93.66222,42.55019],[-93.66222,42.55852],[-93.65805,42.55852],[-93.65805,42.57103],[-93.65389,42.57103],[-93.65389,42.57519],[-93.64972,42.57519],[-93.64972,42.57936],[-93.64555,42.57936],[-93.64555,42.58353],[-93.64139,42.58353],[-93.64139,42.59186],[-93.63722,42.59186],[-93.63722,42.60019],[-93.62888,42.60019],[-93.62888,42.60436],[-93.62472,42.60436],[-93.62472,42.6127],[-93.61638,42.6127],[-93.61638,42.61686],[-93.62055,42.61686],[-93.62055,42.6377],[-93.62472,42.6377],[-93.62472,42.64186],[-93.62888,42.64186],[-93.62888,42.64603],[-93.63722,42.64603],[-93.63722,42.6502],[-93.64555,42.6502],[-93.64555,42.65437],[-93.66222,42.65437],[-93.66222,42.65853],[-93.66639,42.65853],[-93.66639,42.6627],[-93.67055,42.6627],[-93.67055,42.6877],[-93.67472,42.6877],[-93.67472,42.69604],[-93.67889,42.69604],[-93.67889,42.7002],[-93.67472,42.7002],[-93.67472,42.70437],[-93.67055,42.70437],[-93.67055,42.70854],[-93.65805,42.70854],[-93.65805,42.73354],[-93.67055,42.73354],[-93.67055,42.73771],[-93.67472,42.73771],[-93.67472,42.74187],[-93.68306,42.74187],[-93.68306,42.74604],[-93.68722,42.74604],[-93.68722,42.75437],[-93.69139,42.75437],[-93.69139,42.76271],[-93.69556,42.76271],[-93.69556,42.77521],[-93.69972,42.77521],[-93.69972,42.78354],[-93.70389,42.78354],[-93.70389,42.79188],[-93.70806,42.79188],[-93.70806,42.80021],[-93.70389,42.80021],[-93.70389,42.80854],[-93.69972,42.80854],[-93.69972,42.81688],[-93.70389,42.81688],[-93.70389,42.84605],[-93.70806,42.84605],[-93.70806,42.85021],[-93.69556,42.85021],[-93.69556,42.85855],[-93.68722,42.85855],[-93.68722,42.87105],[-93.68306,42.87105],[-93.68306,42.87522],[-93.68722,42.87522],[-93.68722,42.88355],[-93.69139,42.88355],[-93.69139,42.89188],[-93.72473,42.89188],[-93.72473,42.88772],[-93.73306,42.88772],[-93.73306,42.90855],[-93.72889,42.90855],[-93.72889,42.92522],[-93.73306,42.92522],[-93.73306,42.95022],[-93.74139,42.95022],[-93.74139,42.95856],[-93.74556,42.95856],[-93.74556,42.97522],[-93.74973,42.97522],[-93.74973,42.98773],[-93.74556,42.98773],[-93.74556,42.99606],[-93.74973,42.99606],[-93.74973,43.00023],[-93.75389,43.00023],[-93.75389,43.00439],[-93.75806,43.00439],[-93.75806,43.03356],[-93.76223,43.03356],[-93.76223,43.0419],[-93.7664,43.0419],[-93.7664,43.04606],[-93.77056,43.04606],[-93.77056,43.0544],[-93.77473,43.0544],[-93.77473,43.05856],[-93.7789,43.05856],[-93.7789,43.06273],[-93.78306,43.06273],[-93.78306,43.07523],[-93.78723,43.07523],[-93.78723,43.08357],[-93.7914,43.08357],[-93.7914,43.08773],[-93.79556,43.08773],[-93.79556,43.09607],[-93.8039,43.09607],[-93.8039,43.1044],[-93.80807,43.1044],[-93.80807,43.10857],[-93.81223,43.10857],[-93.81223,43.11274],[-93.82057,43.11274],[-93.82057,43.1169],[-93.82473,43.1169],[-93.82473,43.12107],[-93.83723,43.12107],[-93.83723,43.12524],[-93.8414,43.12524],[-93.8414,43.1294],[-93.84557,43.1294],[-93.84557,43.13774],[-93.8539,43.13774],[-93.8539,43.1419],[-93.84974,43.1419],[-93.84974,43.14607],[-93.85807,43.14607],[-93.85807,43.15024],[-93.86224,43.15024],[-93.86224,43.15857],[-93.87057,43.15857],[-93.87057,43.17107],[-93.8664,43.17107],[-93.8664,43.19191],[-93.86224,43.19191],[-93.86224,43.20441],[-93.8664,43.20441],[-93.8664,43.20858],[-93.87057,43.20858],[-93.87057,43.21274],[-93.87891,43.21274],[-93.87891,43.22108],[-93.87474,43.22108],[-93.87474,43.22524],[-93.87057,43.22524],[-93.87057,43.22941],[-93.85807,43.22941],[-93.85807,43.22524],[-93.84974,43.22524],[-93.84974,43.21691],[-93.84557,43.21691],[-93.84557,43.21274],[-93.82473,43.21274],[-93.82473,43.21691],[-93.82057,43.21691],[-93.82057,43.22108],[-93.82473,43.22108],[-93.82473,43.22524],[-93.82057,43.22524],[-93.82057,43.23358],[-93.82473,43.23358],[-93.82473,43.24191],[-93.82057,43.24191],[-93.82057,43.25441],[-93.8164,43.25441],[-93.8164,43.26275],[-93.81223,43.26275],[-93.81223,43.26691],[-93.8039,43.26691],[-93.8039,43.27108],[-93.79973,43.27108],[-93.79973,43.27525],[-93.7914,43.27525],[-93.7914,43.27108],[-93.78723,43.27108],[-93.78723,43.26691],[-93.77473,43.26691],[-93.77473,43.27525],[-93.77056,43.27525],[-93.77056,43.28358],[-93.7664,43.28358],[-93.7664,43.31275],[-93.76223,43.31275],[-93.76223,43.31692],[-93.77056,43.31692],[-93.77056,43.32109],[-93.77473,43.32109],[-93.77473,43.32525],[-93.78306,43.32525],[-93.78306,43.32942],[-93.78723,43.32942],[-93.78723,43.33359],[-93.7914,43.33359],[-93.7914,43.34192],[-93.79556,43.34192],[-93.79556,43.35025],[-93.78723,43.35025],[-93.78723,43.37109],[-93.78306,43.37109],[-93.78306,43.37526],[-93.77473,43.37526],[-93.77473,43.37942],[-93.77056,43.37942],[-93.77056,43.38776],[-93.7664,43.38776],[-93.7664,43.40443],[-93.7789,43.40443],[-93.7789,43.41693],[-93.78723,43.41693],[-93.78723,43.42526],[-93.7914,43.42526],[-93.7914,43.42943],[-93.79556,43.42943],[-93.79556,43.43359],[-93.8039,43.43359],[-93.8039,43.43776],[-93.8164,43.43776],[-93.8164,43.43359],[-93.82057,43.43359],[-93.82057,43.42943],[-93.8289,43.42943],[-93.8289,43.42109],[-93.83723,43.42109],[-93.83723,43.41693],[-93.84557,43.41693],[-93.84557,43.41276],[-93.84974,43.41276],[-93.84974,43.40859],[-93.8539,43.40859],[-93.8539,43.40026],[-93.85807,43.40026],[-93.85807,43.39609],[-93.8664,43.39609],[-93.8664,43.39192],[-93.87057,43.39192],[-93.87057,43.38776],[-93.87891,43.38776],[-93.87891,43.38359],[-93.88307,43.38359],[-93.88307,43.37942],[-93.89557,43.37942],[-93.89557,43.37526],[-93.89974,43.37526],[-93.89974,43.37109],[-93.90391,43.37109],[-93.90391,43.36692],[-93.90807,43.36692],[-93.90807,43.36276],[-93.92057,43.36276],[-93.92057,43.36692],[-93.92891,43.36692],[-93.92891,43.36276],[-93.93724,43.36276],[-93.93724,43.35859],[-93.94141,43.35859],[-93.94141,43.35442],[-93.94558,43.35442],[-93.94558,43.35025],[-93.96224,43.35025],[-93.96224,43.34609],[-93.97891,43.34609],[-93.97891,43.34192],[-93.99975,43.34192],[-93.99975,43.33775],[-94.00391,43.33775],[-94.00391,43.33359],[-94.02058,43.33359],[-94.02058,43.33775],[-94.02475,43.33775],[-94.02475,43.34192],[-94.05809,43.34192],[-94.05809,43.34609],[-94.06225,43.34609],[-94.06225,43.33775],[-94.06642,43.33775],[-94.06642,43.34192],[-94.07475,43.34192],[-94.07475,43.33775],[-94.07892,43.33775],[-94.07892,43.32942],[-94.08309,43.32942],[-94.08309,43.31692],[-94.09976,43.31692],[-94.09976,43.32109],[-94.10392,43.32109],[-94.10392,43.31692],[-94.10809,43.31692],[-94.10809,43.31275],[-94.11226,43.31275],[-94.11226,43.31692],[-94.11642,43.31692],[-94.11642,43.31275],[-94.12476,43.31275],[-94.12476,43.30858],[-94.12892,43.30858],[-94.12892,43.30442],[-94.13726,43.30442],[-94.13726,43.31275],[-94.14559,43.31275],[-94.14559,43.30858],[-94.15393,43.30858],[-94.15393,43.30442],[-94.16226,43.30442],[-94.16226,43.30025],[-94.17059,43.30025],[-94.17059,43.27942],[-94.17476,43.27942],[-94.17476,43.27525],[-94.17059,43.27525],[-94.17059,43.27108],[-94.1831,43.27108],[-94.1831,43.27525],[-94.18726,43.27525],[-94.18726,43.27942],[-94.2081,43.27942],[-94.2081,43.27525],[-94.2206,43.27525],[-94.2206,43.27942],[-94.22893,43.27942],[-94.22893,43.28358],[-94.2331,43.28358],[-94.2331,43.28775],[-94.23727,43.28775],[-94.23727,43.29192],[-94.24143,43.29192],[-94.24143,43.29608],[-94.23727,43.29608],[-94.23727,43.30442],[-94.2456,43.30442],[-94.2456,43.30858],[-94.25393,43.30858],[-94.25393,43.31275],[-94.2581,43.31275],[-94.2581,43.31692],[-94.26644,43.31692],[-94.26644,43.32109],[-94.2831,43.32109],[-94.2831,43.32525],[-94.28727,43.32525],[-94.28727,43.32109],[-94.29144,43.32109],[-94.29144,43.32525],[-94.29977,43.32525],[-94.29977,43.32109],[-94.32061,43.32109],[-94.32061,43.32525],[-94.33311,43.32525],[-94.33311,43.32942],[-94.33727,43.32942],[-94.33727,43.33359],[-94.34561,43.33359],[-94.34561,43.34192],[-94.34978,43.34192],[-94.34978,43.34609],[-94.35811,43.34609],[-94.35811,43.35025],[-94.36228,43.35025],[-94.36228,43.35442],[-94.36644,43.35442],[-94.36644,43.36692],[-94.36228,43.36692],[-94.36228,43.37526],[-94.36644,43.37526],[-94.36644,43.37942],[-94.38311,43.37942],[-94.38311,43.38359],[-94.38728,43.38359],[-94.38728,43.38776],[-94.39561,43.38776],[-94.39561,43.39192],[-94.39978,43.39192],[-94.39978,43.38776],[-94.41645,43.38776],[-94.41645,43.38359],[-94.42061,43.38359],[-94.42061,43.37942],[-94.44562,43.37942],[-94.44562,43.38776],[-94.44978,43.38776],[-94.44978,43.39609],[-94.45395,43.39609],[-94.45395,43.40443],[-94.45812,43.40443],[-94.45812,43.40859],[-94.46228,43.40859],[-94.46228,43.41276],[-94.46645,43.41276],[-94.46645,43.41693],[-94.47895,43.41693],[-94.47895,43.42526],[-94.48729,43.42526],[-94.48729,43.42943],[-94.49145,43.42943],[-94.49145,43.42526],[-94.49979,43.42526],[-94.49979,43.41693],[-94.50395,43.41693],[-94.50395,43.41276],[-94.50812,43.41276],[-94.50812,43.42109],[-94.51229,43.42109],[-94.51229,43.42943],[-94.52896,43.42943],[-94.52896,43.43359],[-94.54146,43.43359],[-94.54146,43.43776],[-94.54563,43.43776],[-94.54563,43.44193],[-94.54979,43.44193],[-94.54979,43.4461],[-94.55396,43.4461],[-94.55396,43.44193],[-94.55813,43.44193],[-94.55813,43.4461],[-94.56229,43.4461],[-94.56229,43.45026],[-94.57063,43.45026],[-94.57063,43.4461],[-94.57479,43.4461],[-94.57479,43.42943],[-94.57063,43.42943],[-94.57063,43.42526],[-94.56646,43.42526],[-94.56646,43.42109],[-94.55813,43.42109],[-94.55813,43.41693],[-94.54563,43.41693],[-94.54563,43.40859],[-94.54146,43.40859],[-94.54146,43.40443],[-94.53312,43.40443],[-94.53312,43.39609],[-94.54146,43.39609],[-94.54146,43.39192],[-94.54563,43.39192],[-94.54563,43.38776],[-94.54979,43.38776],[-94.54979,43.37942],[-94.56229,43.37942],[-94.56229,43.37526],[-94.55813,43.37526],[-94.55813,43.36692],[-94.57063,43.36692],[-94.57063,43.35859],[-94.57479,43.35859],[-94.57479,43.35442],[-94.57896,43.35442],[-94.57896,43.34609],[-94.59563,43.34609],[-94.59563,43.34192],[-94.5998,43.34192],[-94.5998,43.34609],[-94.62063,43.34609],[-94.62063,43.35859],[-94.6248,43.35859],[-94.6248,43.35442],[-94.63313,43.35442],[-94.63313,43.35025],[-94.64147,43.35025],[-94.64147,43.33359],[-94.64563,43.33359],[-94.64563,43.32942],[-94.6498,43.32942],[-94.6498,43.32525],[-94.65397,43.32525],[-94.65397,43.31692],[-94.65813,43.31692],[-94.65813,43.30858],[-94.6623,43.30858],[-94.6623,43.31275],[-94.67063,43.31275],[-94.67063,43.31692],[-94.67897,43.31692],[-94.67897,43.32109],[-94.69147,43.32109],[-94.69147,43.32942],[-94.69564,43.32942],[-94.69564,43.33775],[-94.70814,43.33775],[-94.70814,43.33359],[-94.71647,43.33359],[-94.71647,43.33775],[-94.72064,43.33775],[-94.72064,43.34192],[-94.72481,43.34192],[-94.72481,43.35025],[-94.72897,43.35025],[-94.72897,43.36692],[-94.72481,43.36692],[-94.72481,43.37109],[-94.72064,43.37109],[-94.72064,43.38359],[-94.71647,43.38359],[-94.71647,43.38776],[-94.71231,43.38776],[-94.71231,43.39192],[-94.72064,43.39192],[-94.72064,43.39609],[-94.72897,43.39609],[-94.72897,43.39192],[-94.73731,43.39192],[-94.73731,43.39609],[-94.74147,43.39609],[-94.74147,43.40859],[-94.75397,43.40859],[-94.75397,43.41276],[-94.75814,43.41276],[-94.75814,43.40859],[-94.76231,43.40859],[-94.76231,43.41276],[-94.76648,43.41276],[-94.76648,43.41693],[-94.77064,43.41693],[-94.77064,43.42109],[-94.76648,43.42109],[-94.76648,43.43359],[-94.76231,43.43359],[-94.76231,43.43776],[-94.75814,43.43776],[-94.75814,43.44193],[-94.75397,43.44193],[-94.75397,43.4461],[-94.74981,43.4461],[-94.74981,43.45026],[-94.74147,43.45026],[-94.74147,43.45443],[-94.74981,43.45443],[-94.74981,43.46276],[-94.75397,43.46276],[-94.75397,43.46693],[-94.75814,43.46693],[-94.75814,43.47526],[-94.74981,43.47526],[-94.74981,43.49193],[-94.74564,43.49193],[-94.74564,43.4961],[-94.74981,43.4961],[-94.74981,43.50443],[-94.75397,43.50443],[-94.75397,43.5086],[-94.75814,43.5086],[-94.75814,43.51277],[-94.76231,43.51277],[-94.76231,43.5211],[-94.76648,43.5211],[-94.76648,43.52944],[-94.78731,43.52944],[-94.78731,43.52527],[-94.79148,43.52527],[-94.79148,43.5211],[-94.80398,43.5211],[-94.80398,43.51693],[-94.80815,43.51693],[-94.80815,43.51277],[-94.81231,43.51277],[-94.81231,43.5086],[-94.80815,43.5086],[-94.80815,43.50027],[-94.82898,43.50027],[-94.82898,43.4961],[-94.83315,43.4961],[-94.83315,43.49193],[-94.83731,43.49193],[-94.83731,43.48777],[-94.84148,43.48777],[-94.84148,43.50443],[-94.84982,43.50443],[-94.84982,43.5086],[-94.85815,43.5086],[-94.85815,43.51693],[-94.85398,43.51693],[-94.85398,43.52527],[-94.84982,43.52527],[-94.84982,43.52944],[-94.85398,43.52944],[-94.85398,43.53777],[-94.86232,43.53777],[-94.86232,43.55027],[-94.85815,43.55027],[-94.85815,43.55444],[-94.85398,43.55444],[-94.85398,43.5586],[-94.84565,43.5586],[-94.84565,43.57111],[-94.85815,43.57111],[-94.85815,43.57944],[-94.86232,43.57944],[-94.86232,43.58361],[-94.86648,43.58361],[-94.86648,43.58777],[-94.87482,43.58777],[-94.87482,43.59194],[-94.88732,43.59194],[-94.88732,43.58777],[-94.89982,43.58777],[-94.89982,43.59194],[-94.91232,43.59194],[-94.91232,43.59611],[-94.92482,43.59611],[-94.92482,43.60027],[-94.92899,43.60027],[-94.92899,43.60444],[-94.93732,43.60444],[-94.93732,43.60861],[-94.94149,43.60861],[-94.94149,43.61278],[-94.94566,43.61278],[-94.94566,43.61694],[-94.94982,43.61694],[-94.94982,43.62111],[-94.95816,43.62111],[-94.95816,43.62528],[-94.96649,43.62528],[-94.96649,43.62944],[-94.97066,43.62944],[-94.97066,43.63361],[-94.97483,43.63361],[-94.97483,43.63778],[-94.97899,43.63778],[-94.97899,43.65445],[-94.98316,43.65445],[-94.98316,43.66278],[-94.98733,43.66278],[-94.98733,43.67945],[-94.99149,43.67945],[-94.99149,43.68361],[-94.99566,43.68361],[-94.99566,43.70028],[-94.99983,43.70028],[-94.99983,43.71695],[-95.004,43.71695],[-95.004,43.72112],[-95.00816,43.72112],[-95.00816,43.71695],[-95.01233,43.71695],[-95.01233,43.72945],[-95.0165,43.72945],[-95.0165,43.73362],[-95.029,43.73362],[-95.029,43.73779],[-95.03733,43.73779],[-95.03733,43.73362],[-95.0415,43.73362],[-95.0415,43.73779],[-95.04566,43.73779],[-95.04566,43.74195],[-95.04983,43.74195],[-95.04983,43.75445],[-95.054,43.75445],[-95.054,43.75862],[-95.04983,43.75862],[-95.04983,43.76279],[-95.05817,43.76279],[-95.05817,43.77529],[-95.054,43.77529],[-95.054,43.79196],[-95.04983,43.79196],[-95.04983,43.81696],[-95.054,43.81696],[-95.054,43.82113],[-95.05817,43.82113],[-95.05817,43.82946],[-95.06233,43.82946],[-95.06233,43.83363],[-95.07067,43.83363],[-95.07067,43.85029],[-95.0665,43.85029],[-95.0665,43.8628],[-95.079,43.8628],[-95.079,43.8753],[-95.07067,43.8753],[-95.07067,43.88363],[-95.0665,43.88363],[-95.0665,43.8878],[-95.06233,43.8878],[-95.06233,43.89613],[-95.0665,43.89613],[-95.0665,43.90447],[-95.07067,43.90447],[-95.07067,43.90863],[-95.07483,43.90863],[-95.07483,43.92113],[-95.079,43.92113],[-95.079,43.9253],[-95.07483,43.9253],[-95.07483,43.9378],[-95.079,43.9378],[-95.079,43.95447],[-95.08317,43.95447],[-95.08317,43.95864],[-95.08733,43.95864],[-95.08733,43.9628],[-95.0915,43.9628],[-95.0915,43.96697],[-95.09567,43.96697],[-95.09567,43.97114],[-95.09984,43.97114],[-95.09984,43.96697],[-95.104,43.96697],[-95.104,43.9628],[-95.12067,43.9628],[-95.12067,43.96697],[-95.129,43.96697],[-95.129,43.97947],[-95.14567,43.97947],[-95.14567,43.98781],[-95.16234,43.98781],[-95.16234,43.98364],[-95.16651,43.98364],[-95.16651,43.98781],[-95.17484,43.98781],[-95.17484,43.99197],[-95.18734,43.99197],[-95.18734,43.99614],[-95.19568,43.99614],[-95.19568,44.00031],[-95.20401,44.00031],[-95.20401,44.00447],[-95.20818,44.00447],[-95.20818,44.00864],[-95.21234,44.00864],[-95.21234,44.01281],[-95.21651,44.01281],[-95.21651,44.01697],[-95.22068,44.01697],[-95.22068,44.02114],[-95.22485,44.02114],[-95.22485,44.02531],[-95.22901,44.02531],[-95.22901,44.02948],[-95.23735,44.02948],[-95.23735,44.02531],[-95.24151,44.02531],[-95.24151,44.02114],[-95.24568,44.02114],[-95.24568,44.00447],[-95.24985,44.00447],[-95.24985,44.00031],[-95.25401,44.00031],[-95.25401,43.99614],[-95.26652,43.99614],[-95.26652,43.98364],[-95.27068,43.98364],[-95.27068,43.97114],[-95.26652,43.97114],[-95.26652,43.9628],[-95.27068,43.9628],[-95.27068,43.95864],[-95.27485,43.95864],[-95.27485,43.95447],[-95.28318,43.95447],[-95.28318,43.94614],[-95.30402,43.94614],[-95.30402,43.9503],[-95.29985,43.9503],[-95.29985,43.95447],[-95.30402,43.95447],[-95.30402,43.95864],[-95.31235,43.95864],[-95.31235,43.95447],[-95.32069,43.95447],[-95.32069,43.94614],[-95.32902,43.94614],[-95.32902,43.95447],[-95.34152,43.95447],[-95.34152,43.9503],[-95.34569,43.9503],[-95.34569,43.95864],[-95.36236,43.95864],[-95.36236,43.9628],[-95.36652,43.9628],[-95.36652,43.97114],[-95.37902,43.97114],[-95.37902,43.9753],[-95.38319,43.9753],[-95.38319,43.97114],[-95.39986,43.97114],[-95.39986,43.9628],[-95.40403,43.9628],[-95.40403,43.95864],[-95.39986,43.95864],[-95.39986,43.94614],[-95.41236,43.94614],[-95.41236,43.9503],[-95.42069,43.9503],[-95.42069,43.95864],[-95.42486,43.95864],[-95.42486,43.9628],[-95.42903,43.9628],[-95.42903,43.96697],[-95.4332,43.96697],[-95.4332,43.97114],[-95.4457,43.97114],[-95.4457,43.96697],[-95.45403,43.96697],[-95.45403,43.97114],[-95.4582,43.97114],[-95.4582,43.9753],[-95.4707,43.9753],[-95.4707,43.97947],[-95.4832,43.97947],[-95.4832,43.98364],[-95.48737,43.98364],[-95.48737,43.97947],[-95.49153,43.97947],[-95.49153,43.98364],[-95.4957,43.98364],[-95.4957,43.98781],[-95.50404,43.98781],[-95.50404,43.99197],[-95.5082,43.99197],[-95.5082,44.00031],[-95.51237,44.00031],[-95.51237,44.00447],[-95.51654,44.00447],[-95.51654,44.00864],[-95.52487,44.00864],[-95.52487,44.01697],[-95.52904,44.01697],[-95.52904,44.02114],[-95.52487,44.02114],[-95.52487,44.02531],[-95.52904,44.02531],[-95.52904,44.03364],[-95.5332,44.03364],[-95.5332,44.03781],[-95.54154,44.03781],[-95.54154,44.03364],[-95.55404,44.03364],[-95.55404,44.03781],[-95.57904,44.03781],[-95.57904,44.04198],[-95.58737,44.04198],[-95.58737,44.05031],[-95.59571,44.05031],[-95.59571,44.05448],[-95.59988,44.05448],[-95.59988,44.05864],[-95.60404,44.05864],[-95.60404,44.06281],[-95.61238,44.06281],[-95.61238,44.06698],[-95.61654,44.06698],[-95.61654,44.07115],[-95.62071,44.07115],[-95.62071,44.07531],[-95.62904,44.07531],[-95.62904,44.08365],[-95.63738,44.08365],[-95.63738,44.08781],[-95.64571,44.08781],[-95.64571,44.09615],[-95.65405,44.09615],[-95.65405,44.10031],[-95.66238,44.10031],[-95.66238,44.09615],[-95.67905,44.09615],[-95.67905,44.09198],[-95.68738,44.09198],[-95.68738,44.08781],[-95.69572,44.08781],[-95.69572,44.08365],[-95.69988,44.08365],[-95.69988,44.07948],[-95.70405,44.07948],[-95.70405,44.08365],[-95.71238,44.08365],[-95.71238,44.07948],[-95.72072,44.07948],[-95.72072,44.07531],[-95.72489,44.07531],[-95.72489,44.07115],[-95.73739,44.07115],[-95.73739,44.06698],[-95.74155,44.06698],[-95.74155,44.06281],[-95.74572,44.06281],[-95.74572,44.05864],[-95.75405,44.05864],[-95.75405,44.05031],[-95.76656,44.05031],[-95.76656,44.05448],[-95.77072,44.05448],[-95.77072,44.06698],[-95.77489,44.06698],[-95.77489,44.07531],[-95.77906,44.07531],[-95.77906,44.08365],[-95.78322,44.08365],[-95.78322,44.08781],[-95.79156,44.08781],[-95.79156,44.09198],[-95.79989,44.09198],[-95.79989,44.10031],[-95.80406,44.10031],[-95.80406,44.09615],[-95.81239,44.09615],[-95.81239,44.10031],[-95.82489,44.10031],[-95.82489,44.09198],[-95.82906,44.09198],[-95.82906,44.07948],[-95.83323,44.07948],[-95.83323,44.07531],[-95.84156,44.07531],[-95.84156,44.07115],[-95.84573,44.07115],[-95.84573,44.06698],[-95.85406,44.06698],[-95.85406,44.06281],[-95.86656,44.06281],[-95.86656,44.05031],[-95.87073,44.05031],[-95.87073,44.04614],[-95.8749,44.04614],[-95.8749,44.05031],[-95.8874,44.05031],[-95.8874,44.04614],[-95.9124,44.04614],[-95.9124,44.05031],[-95.91657,44.05031],[-95.91657,44.05448],[-95.92073,44.05448],[-95.92073,44.05864],[-95.9249,44.05864],[-95.9249,44.06698],[-95.92907,44.06698],[-95.92907,44.07115],[-95.93324,44.07115],[-95.93324,44.07531],[-95.9374,44.07531],[-95.9374,44.08365],[-95.9499,44.08365],[-95.9499,44.09615],[-95.95407,44.09615],[-95.95407,44.10865],[-95.9624,44.10865],[-95.9624,44.12115],[-95.96657,44.12115],[-95.96657,44.12532],[-95.97491,44.12532],[-95.97491,44.12948],[-95.98741,44.12948],[-95.98741,44.13365],[-95.98324,44.13365],[-95.98324,44.15449],[-96.00408,44.15449],[-96.00408,44.15032],[-96.02491,44.15032],[-96.02491,44.15449],[-96.04991,44.15449],[-96.04991,44.15865],[-96.05825,44.15865],[-96.05825,44.15449],[-96.06658,44.15449],[-96.06658,44.16282],[-96.07075,44.16282]]]}}]}