{"type":"FeatureCollection","features":[{"type":"Feature","properties":{},"geometry":{"type":"Polygon","coordinates":[[[-94.64147,41.49177],[-94.64147,41.48761],[-94.65397,41.48761],[-94.65397,41.48344],[-94.65813,41.48344],[-94.65813,41.47927],[-94.66647,41.47927],[-94.66647,41.4751],[-94.67897,41.4751],[-94.67897,41.47094],[-94.68314,41.47094],[-94.68314,41.46677],[-94.69564,41.46677],[-94.69564,41.4626],[-94.70814,41.4626],[-94.70814,41.45844],[-94.71647,41.45844],[-94.71647,41.4501],[-94.72897,41.4501],[-94.72897,41.44177],[-94.73314,41.44177],[-94.73314,41.4376],[-94.73731,41.4376],[-94.73731,41.4251],[-94.74981,41.4251],[-94.74981,41.42093],[-94.75814,41.42093],[-94.75814,41.40843],[-94.78314,41.40843],[-94.78314,41.40427],[-94.78731,41.40427],[-94.78731,41.4001],[-94.79148,41.4001],[-94.79148,41.38343],[-94.79564,41.38343],[-94.79564,41.37926],[-94.79981,41.37926],[-94.79981,41.3751],[-94.80815,41.3751],[-94.80815,41.37093],[-94.81648,41.37093],[-94.81648,41.3626],[-94.81231,41.3626],[-94.81231,41.35009],[-94.81648,41.35009],[-94.81648,41.34593],[-94.82065,41.34593],[-94.82065,41.34176],[-94.82481,41.34176],[-94.82481,41.34593],[-94.82898,41.34593],[-94.82898,41.34176],[-94.83315,41.34176],[-94.83315,41.34593],[-94.84565,41.34593],[-94.84565,41.34176],[-94.84982,41.34176],[-94.84982,41.33759],[-94.85398,41.33759],[-94.85398,41.33343],[-94.86232,41.33343],[-94.86232,41.32926],[-94.87065,41.32926],[-94.87065,41.32509],[-94.88315,41.32509],[-94.88315,41.31259],[-94.90399,41.31259],[-94.90399,41.30842],[-94.90815,41.30842],[-94.90815,41.30009],[-94.92065,41.30009],[-94.92065,41.30426],[-94.92482,41.30426],[-94.92482,41.30842],[-94.92899,41.30842],[-94.92899,41.31259],[-94.94982,41.31259],[-94.94982,41.30842],[-94.95816,41.30842],[-94.95816,41.30426],[-94.96232,41.30426],[-94.96232,41.30842],[-94.99149,41.30842],[-94.99149,41.30426],[-95.00816,41.30426],[-95.00816,41.30009],[-95.03316,41.30009],[-95.03316,41.29592],[-95.04566,41.29592],[-95.04566,41.29176],[-95.054,41.29176],[-95.054,41.27509],[-95.05817,41.27509],[-95.05817,41.25009],[-95.06233,41.25009],[-95.06233,41.24175],[-95.0665,41.24175],[-95.0665,41.20842],[-95.06233,41.20842],[-95.06233,41.20425],[-95.0665,41.20425],[-95.0665,41.19175],[-95.07067,41.19175],[-95.07067,41.17925],[-95.0665,41.17925],[-95.0665,41.16675],[-95.07067,41.16675],[-95.07067,41.15008],[-95.0665,41.15008],[-95.0665,41.14591],[-95.07067,41.14591],[-95.07067,41.13341],[-95.05817,41.13341],[-95.05817,41.12924],[-95.06233,41.12924],[-95.06233,41.11674],[-95.05817,41.11674],[-95.05817,41.11258],[-95.06233,41.11258],[-95.06233,41.10424],[-95.0665,41.10424],[-95.0665,41.09174],[-95.07067,41.09174],[-95.07067,41.08341],[-95.06233,41.08341],[-95.06233,41.07924],[-95.05817,41.07924],[-95.05817,41.06674],[-95.04983,41.06674],[-95.04983,41.0584],[-95.04566,41.0584],[-95.04566,41.05007],[-95.04983,41.05007],[-95.04983,41.0459],[-95.054,41.0459],[-95.054,41.03757],[-95.05817,41.03757],[-95.05817,41.0334],[-95.06233,41.0334],[-95.06233,41.0084],[-95.0665,41.0084],[-95.0665,41.00007],[-95.07483,41.00007],[-95.07483,40.99173],[-95.07067,40.99173],[-95.07067,40.97506],[-95.06233,40.97506],[-95.06233,40.9709],[-95.0665,40.9709],[-95.0665,40.96256],[-95.07067,40.96256],[-95.07067,40.9584],[-95.0665,40.9584],[-95.0665,40.95423],[-95.06233,40.95423],[-95.06233,40.95006],[-95.05817,40.95006],[-95.05817,40.9459],[-95.04983,40.9459],[-95.04983,40.93339],[-95.054,40.93339],[-95.054,40.92089],[-95.05817,40.92089],[-95.05817,40.91673],[-95.06233,40.91673],[-95.06233,40.89589],[-95.05817,40.89589],[-95.05817,40.88756],[-95.0665,40.88756],[-95.0665,40.88339],[-95.07483,40.88339],[-95.07483,40.88756],[-95.079,40.88756],[-95.079,40.88339],[-95.08317,40.88339],[-95.08317,40.87922],[-95.079,40.87922],[-95.079,40.86256],[-95.08317,40.86256],[-95.08317,40.84589],[-95.08733,40.84589],[-95.08733,40.82505],[-95.0915,40.82505],[-95.0915,40.80422],[-95.08733,40.80422],[-95.08733,40.78338],[-95.08317,40.78338],[-95.08317,40.77922],[-95.079,40.77922],[-95.079,40.77088],[-95.08317,40.77088],[-95.08317,40.76671],[-95.0915,40.76671],[-95.0915,40.75421],[-95.08317,40.75421],[-95.08317,40.75005],[-95.06233,40.75005],[-95.06233,40.74588],[-95.04983,40.74588],[-95.04983,40.75005],[-95.0415,40.75005],[-95.0415,40.74588],[-95.03733,40.74588],[-95.03733,40.74171],[-95.03316,40.74171],[-95.03316,40.74588],[-95.02483,40.74588],[-95.02483,40.74171],[-95.0165,40.74171],[-95.0165,40.74588],[-95.004,40.74588],[-95.004,40.75005],[-94.99983,40.75005],[-94.99983,40.74588],[-94.99566,40.74588],[-94.99566,40.75005],[-94.99149,40.75005],[-94.99149,40.75838],[-94.98733,40.75838],[-94.98733,40.76671],[-94.98316,40.76671],[-94.98316,40.77088],[-94.97483,40.77088],[-94.97483,40.78338],[-94.97066,40.78338],[-94.97066,40.78755],[-94.97483,40.78755],[-94.97483,40.80005],[-94.97066,40.80005],[-94.97066,40.80838],[-94.96649,40.80838],[-94.96649,40.81255],[-94.95816,40.81255],[-94.95816,40.82922],[-94.95399,40.82922],[-94.95399,40.83339],[-94.94566,40.83339],[-94.94566,40.84172],[-94.94149,40.84172],[-94.94149,40.85005],[-94.94566,40.85005],[-94.94566,40.85422],[-94.94149,40.85422],[-94.94149,40.85839],[-94.94566,40.85839],[-94.94566,40.90423],[-94.94982,40.90423],[-94.94982,40.91256],[-94.94566,40.91256],[-94.94566,40.92923],[-94.94149,40.92923],[-94.94149,40.93339],[-94.93732,40.93339],[-94.93732,40.93756],[-94.93316,40.93756],[-94.93316,40.94173],[-94.92899,40.94173],[-94.92899,40.95423],[-94.92482,40.95423],[-94.92482,40.96256],[-94.92065,40.96256],[-94.92065,40.9709],[-94.91232,40.9709],[-94.91232,40.97506],[-94.90815,40.97506],[-94.90815,40.97923],[-94.90399,40.97923],[-94.90399,40.9834],[-94.89982,40.9834],[-94.89982,40.98757],[-94.89565,40.98757],[-94.89565,40.9959],[-94.88732,40.9959],[-94.88732,41.00007],[-94.87899,41.00007],[-94.87899,41.00423],[-94.84565,41.00423],[-94.84565,41.01257],[-94.82065,41.01257],[-94.82065,41.01673],[-94.81648,41.01673],[-94.81648,41.02507],[-94.82065,41.02507],[-94.82065,41.0334],[-94.81231,41.0334],[-94.81231,41.03757],[-94.79564,41.03757],[-94.79564,41.04174],[-94.79148,41.04174],[-94.79148,41.05007],[-94.77898,41.05007],[-94.77898,41.0584],[-94.77481,41.0584],[-94.77481,41.06674],[-94.76231,41.06674],[-94.76231,41.07507],[-94.74564,41.07507],[-94.74564,41.08341],[-94.73731,41.08341],[-94.73731,41.08757],[-94.73314,41.08757],[-94.73314,41.09174],[-94.72064,41.09174],[-94.72064,41.09591],[-94.71647,41.09591],[-94.71647,41.10424],[-94.6998,41.10424],[-94.6998,41.10007],[-94.69564,41.10007],[-94.69564,41.10424],[-94.6873,41.10424],[-94.6873,41.10841],[-94.6748,41.10841],[-94.6748,41.11258],[-94.67063,41.11258],[-94.67063,41.12091],[-94.6498,41.12091],[-94.6498,41.12508],[-94.64147,41.12508],[-94.64147,41.12924],[-94.6373,41.12924],[-94.6373,41.13341],[-94.6248,41.13341],[-94.6248,41.13758],[-94.62063,41.13758],[-94.62063,41.14174],[-94.61646,41.14174],[-94.61646,41.15008],[-94.59563,41.15008],[-94.59563,41.15425],[-94.59146,41.15425],[-94.59146,41.16258],[-94.58729,41.16258],[-94.58729,41.16675],[-94.57063,41.16675],[-94.57063,41.17508],[-94.56646,41.17508],[-94.56646,41.17925],[-94.55813,41.17925],[-94.55813,41.18341],[-94.55396,41.18341],[-94.55396,41.20425],[-94.54979,41.20425],[-94.54979,41.21258],[-94.54563,41.21258],[-94.54563,41.21675],[-94.53729,41.21675],[-94.53729,41.22092],[-94.53312,41.22092],[-94.53312,41.22508],[-94.52896,41.22508],[-94.52896,41.23759],[-94.52479,41.23759],[-94.52479,41.24175],[-94.51646,41.24175],[-94.51646,41.24592],[-94.51229,41.24592],[-94.51229,41.24175],[-94.50812,41.24175],[-94.50812,41.24592],[-94.50395,41.24592],[-94.50395,41.25009],[-94.49145,41.25009],[-94.49145,41.25425],[-94.48729,41.25425],[-94.48729,41.25842],[-94.47895,41.25842],[-94.47895,41.26675],[-94.47479,41.26675],[-94.47479,41.27092],[-94.47895,41.27092],[-94.47895,41.28342],[-94.47062,41.28342],[-94.47062,41.28759],[-94.46645,41.28759],[-94.46645,41.30842],[-94.46228,41.30842],[-94.46228,41.31259],[-94.44562,41.31259],[-94.44562,41.33759],[-94.44145,41.33759],[-94.44145,41.35426],[-94.44562,41.35426],[-94.44562,41.35843],[-94.44145,41.35843],[-94.44145,41.37093],[-94.45812,41.37093],[-94.45812,41.36676],[-94.48312,41.36676],[-94.48312,41.37093],[-94.49562,41.37093],[-94.49562,41.38343],[-94.49979,41.38343],[-94.49979,41.39176],[-94.50812,41.39176],[-94.50812,41.4126],[-94.51229,41.4126],[-94.51229,41.41677],[-94.52062,41.41677],[-94.52062,41.42093],[-94.52479,41.42093],[-94.52479,41.4251],[-94.52896,41.4251],[-94.52896,41.43343],[-94.53312,41.43343],[-94.53312,41.4376],[-94.53729,41.4376],[-94.53729,41.4501],[-94.54146,41.4501],[-94.54146,41.45844],[-94.54563,41.45844],[-94.54563,41.4626],[-94.55813,41.4626],[-94.55813,41.4501],[-94.56229,41.4501],[-94.56229,41.44594],[-94.57479,41.44594],[-94.57479,41.44177],[-94.58313,41.44177],[-94.58313,41.4501],[-94.59146,41.4501],[-94.59146,41.45427],[-94.5998,41.45427],[-94.5998,41.45844],[-94.60396,41.45844],[-94.60396,41.4626],[-94.61646,41.4626],[-94.61646,41.47094],[-94.62063,41.47094],[-94.62063,41.48344],[-94.6373,41.48344],[-94.6373,41.49177],[-94.64147,41.49177]]]}}]}