{"type":"FeatureCollection","features":[{"type":"Feature","properties":{},"geometry":{"type":"Polygon","coordinates":[[[-94.89149,42.93355],[-94.89149,42.92939],[-94.89982,42.92939],[-94.89982,42.92522],[-94.90815,42.92522],[-94.90815,42.92939],[-94.91649,42.92939],[-94.91649,42.92522],[-94.93316,42.92522],[-94.93316,42.92105],[-94.93732,42.92105],[-94.93732,42.91689],[-94.94566,42.91689],[-94.94566,42.91272],[-94.94982,42.91272],[-94.94982,42.90855],[-94.95399,42.90855],[-94.95399,42.90439],[-94.95816,42.90439],[-94.95816,42.90022],[-94.96649,42.90022],[-94.96649,42.89605],[-94.97066,42.89605],[-94.97066,42.89188],[-94.97899,42.89188],[-94.97899,42.88772],[-94.98733,42.88772],[-94.98733,42.88355],[-94.99149,42.88355],[-94.99149,42.88772],[-94.99566,42.88772],[-94.99566,42.89188],[-95.01233,42.89188],[-95.01233,42.88772],[-95.02066,42.88772],[-95.02066,42.89188],[-95.06233,42.89188],[-95.06233,42.90022],[-95.0665,42.90022],[-95.0665,42.90439],[-95.07067,42.90439],[-95.07067,42.90855],[-95.0665,42.90855],[-95.0665,42.91689],[-95.079,42.91689],[-95.079,42.91272],[-95.08317,42.91272],[-95.08317,42.90855],[-95.08733,42.90855],[-95.08733,42.90439],[-95.09567,42.90439],[-95.09567,42.89605],[-95.09984,42.89605],[-95.09984,42.88772],[-95.10817,42.88772],[-95.10817,42.87938],[-95.11234,42.87938],[-95.11234,42.87522],[-95.14151,42.87522],[-95.14151,42.88355],[-95.14567,42.88355],[-95.14567,42.87938],[-95.16234,42.87938],[-95.16234,42.87522],[-95.16651,42.87522],[-95.16651,42.87105],[-95.17068,42.87105],[-95.17068,42.85855],[-95.18318,42.85855],[-95.18318,42.86272],[-95.18734,42.86272],[-95.18734,42.86688],[-95.19151,42.86688],[-95.19151,42.87105],[-95.19568,42.87105],[-95.19568,42.87938],[-95.22068,42.87938],[-95.22068,42.88355],[-95.22485,42.88355],[-95.22485,42.87522],[-95.24151,42.87522],[-95.24151,42.87105],[-95.24568,42.87105],[-95.24568,42.86688],[-95.24985,42.86688],[-95.24985,42.85855],[-95.26235,42.85855],[-95.26235,42.85438],[-95.27068,42.85438],[-95.27068,42.84188],[-95.27902,42.84188],[-95.27902,42.82521],[-95.27485,42.82521],[-95.27485,42.81271],[-95.27902,42.81271],[-95.27902,42.80854],[-95.27485,42.80854],[-95.27485,42.80021],[-95.27068,42.80021],[-95.27068,42.77521],[-95.26652,42.77521],[-95.26652,42.76687],[-95.26235,42.76687],[-95.26235,42.75854],[-95.25818,42.75854],[-95.25818,42.75437],[-95.25401,42.75437],[-95.25401,42.74604],[-95.24985,42.74604],[-95.24985,42.73771],[-95.24568,42.73771],[-95.24568,42.7252],[-95.23735,42.7252],[-95.23735,42.70854],[-95.22901,42.70854],[-95.22901,42.70437],[-95.22485,42.70437],[-95.22485,42.69604],[-95.22068,42.69604],[-95.22068,42.68353],[-95.21651,42.68353],[-95.21651,42.67937],[-95.21234,42.67937],[-95.21234,42.67103],[-95.21651,42.67103],[-95.21651,42.66687],[-95.22068,42.66687],[-95.22068,42.6627],[-95.24151,42.6627],[-95.24151,42.66687],[-95.24568,42.66687],[-95.24568,42.67103],[-95.24985,42.67103],[-95.24985,42.6752],[-95.25401,42.6752],[-95.25401,42.67937],[-95.25818,42.67937],[-95.25818,42.68353],[-95.26235,42.68353],[-95.26235,42.6877],[-95.26652,42.6877],[-95.26652,42.69187],[-95.27068,42.69187],[-95.27068,42.69604],[-95.27902,42.69604],[-95.27902,42.70437],[-95.28318,42.70437],[-95.28318,42.7127],[-95.28735,42.7127],[-95.28735,42.71687],[-95.29152,42.71687],[-95.29152,42.7252],[-95.30402,42.7252],[-95.30402,42.72104],[-95.30819,42.72104],[-95.30819,42.7127],[-95.31235,42.7127],[-95.31235,42.70854],[-95.31652,42.70854],[-95.31652,42.69604],[-95.31235,42.69604],[-95.31235,42.68353],[-95.31652,42.68353],[-95.31652,42.67937],[-95.30819,42.67937],[-95.30819,42.67103],[-95.30402,42.67103],[-95.30402,42.66687],[-95.29985,42.66687],[-95.29985,42.65853],[-95.28735,42.65853],[-95.28735,42.64603],[-95.29152,42.64603],[-95.29152,42.6377],[-95.28735,42.6377],[-95.28735,42.63353],[-95.28318,42.63353],[-95.28318,42.62936],[-95.27902,42.62936],[-95.27902,42.6252],[-95.27485,42.6252],[-95.27485,42.6127],[-95.26235,42.6127],[-95.26235,42.60853],[-95.25818,42.60853],[-95.25818,42.60436],[-95.24985,42.60436],[-95.24985,42.60853],[-95.24151,42.60853],[-95.24151,42.60436],[-95.22901,42.60436],[-95.22901,42.60019],[-95.19151,42.60019],[-95.19151,42.59603],[-95.18318,42.59603],[-95.18318,42.59186],[-95.17901,42.59186],[-95.17901,42.58769],[-95.16651,42.58769],[-95.16651,42.57936],[-95.16234,42.57936],[-95.16234,42.57519],[-95.15817,42.57519],[-95.15817,42.56269],[-95.15401,42.56269],[-95.15401,42.54186],[-95.14567,42.54186],[-95.14567,42.53352],[-95.14151,42.53352],[-95.14151,42.51685],[-95.14567,42.51685],[-95.14567,42.50019],[-95.14151,42.50019],[-95.14151,42.49602],[-95.13734,42.49602],[-95.13734,42.48769],[-95.129,42.48769],[-95.129,42.49602],[-95.12067,42.49602],[-95.12067,42.50019],[-95.11234,42.50019],[-95.11234,42.49602],[-95.09984,42.49602],[-95.09984,42.49185],[-95.08733,42.49185],[-95.08733,42.48352],[-95.08317,42.48352],[-95.08317,42.47935],[-95.079,42.47935],[-95.079,42.47518],[-95.07483,42.47518],[-95.07483,42.46685],[-95.07067,42.46685],[-95.07067,42.46268],[-95.0665,42.46268],[-95.0665,42.45435],[-95.06233,42.45435],[-95.06233,42.44602],[-95.0665,42.44602],[-95.0665,42.44185],[-95.06233,42.44185],[-95.06233,42.43351],[-95.05817,42.43351],[-95.05817,42.42935],[-95.0665,42.42935],[-95.0665,42.42518],[-95.06233,42.42518],[-95.06233,42.42101],[-95.05817,42.42101],[-95.05817,42.41685],[-95.04566,42.41685],[-95.04566,42.40435],[-95.0415,42.40435],[-95.0415,42.38768],[-95.04566,42.38768],[-95.04566,42.38351],[-95.04983,42.38351],[-95.04983,42.37934],[-95.04566,42.37934],[-95.04566,42.37101],[-95.029,42.37101],[-95.029,42.36268],[-95.02066,42.36268],[-95.02066,42.35851],[-95.00816,42.35851],[-95.00816,42.35434],[-95.004,42.35434],[-95.004,42.35017],[-94.99983,42.35017],[-94.99983,42.35434],[-94.99149,42.35434],[-94.99149,42.35851],[-94.98733,42.35851],[-94.98733,42.36268],[-94.99149,42.36268],[-94.99149,42.36684],[-94.98316,42.36684],[-94.98316,42.39184],[-94.97899,42.39184],[-94.97899,42.39601],[-94.96232,42.39601],[-94.96232,42.40435],[-94.95816,42.40435],[-94.95816,42.40851],[-94.94566,42.40851],[-94.94566,42.40435],[-94.94149,42.40435],[-94.94149,42.40018],[-94.93732,42.40018],[-94.93732,42.38768],[-94.92899,42.38768],[-94.92899,42.38351],[-94.92482,42.38351],[-94.92482,42.38768],[-94.92065,42.38768],[-94.92065,42.39184],[-94.91649,42.39184],[-94.91649,42.39601],[-94.92065,42.39601],[-94.92065,42.40018],[-94.92482,42.40018],[-94.92482,42.40435],[-94.92065,42.40435],[-94.92065,42.41685],[-94.92482,42.41685],[-94.92482,42.42101],[-94.92065,42.42101],[-94.92065,42.42518],[-94.90815,42.42518],[-94.90815,42.42935],[-94.89149,42.42935],[-94.89149,42.42518],[-94.88732,42.42518],[-94.88732,42.42935],[-94.86648,42.42935],[-94.86648,42.43351],[-94.86232,42.43351],[-94.86232,42.43768],[-94.85815,42.43768],[-94.85815,42.44602],[-94.85398,42.44602],[-94.85398,42.45435],[-94.82481,42.45435],[-94.82481,42.45852],[-94.81231,42.45852],[-94.81231,42.46268],[-94.80815,42.46268],[-94.80815,42.46685],[-94.81231,42.46685],[-94.81231,42.47102],[-94.81648,42.47102],[-94.81648,42.47518],[-94.82065,42.47518],[-94.82065,42.48352],[-94.82481,42.48352],[-94.82481,42.49185],[-94.82065,42.49185],[-94.82065,42.50435],[-94.81648,42.50435],[-94.81648,42.50852],[-94.81231,42.50852],[-94.81231,42.51685],[-94.79981,42.51685],[-94.79981,42.51269],[-94.79564,42.51269],[-94.79564,42.51685],[-94.77898,42.51685],[-94.77898,42.52102],[-94.77064,42.52102],[-94.77064,42.52519],[-94.76648,42.52519],[-94.76648,42.52102],[-94.75397,42.52102],[-94.75397,42.52936],[-94.74981,42.52936],[-94.74981,42.53769],[-94.73731,42.53769],[-94.73731,42.54186],[-94.73314,42.54186],[-94.73314,42.55852],[-94.73731,42.55852],[-94.73731,42.57519],[-94.74981,42.57519],[-94.74981,42.57936],[-94.75397,42.57936],[-94.75397,42.58353],[-94.75814,42.58353],[-94.75814,42.59186],[-94.75397,42.59186],[-94.75397,42.59603],[-94.75814,42.59603],[-94.75814,42.60436],[-94.75397,42.60436],[-94.75397,42.60853],[-94.74981,42.60853],[-94.74981,42.61686],[-94.75397,42.61686],[-94.75397,42.62936],[-94.75814,42.62936],[-94.75814,42.63353],[-94.75397,42.63353],[-94.75397,42.6627],[-94.75814,42.6627],[-94.75814,42.66687],[-94.76231,42.66687],[-94.76231,42.67103],[-94.76648,42.67103],[-94.76648,42.6752],[-94.77064,42.6752],[-94.77064,42.67937],[-94.77481,42.67937],[-94.77481,42.68353],[-94.77064,42.68353],[-94.77064,42.71687],[-94.76648,42.71687],[-94.76648,42.7252],[-94.76231,42.7252],[-94.76231,42.72937],[-94.76648,42.72937],[-94.76648,42.73354],[-94.75814,42.73354],[-94.75814,42.73771],[-94.75397,42.73771],[-94.75397,42.74187],[-94.74981,42.74187],[-94.74981,42.74604],[-94.74564,42.74604],[-94.74564,42.75854],[-94.74981,42.75854],[-94.74981,42.76687],[-94.75397,42.76687],[-94.75397,42.77104],[-94.75814,42.77104],[-94.75814,42.77938],[-94.75397,42.77938],[-94.75397,42.78354],[-94.76231,42.78354],[-94.76231,42.79188],[-94.76648,42.79188],[-94.76648,42.80021],[-94.77064,42.80021],[-94.77064,42.80854],[-94.77898,42.80854],[-94.77898,42.81688],[-94.78731,42.81688],[-94.78731,42.82105],[-94.79564,42.82105],[-94.79564,42.82521],[-94.79981,42.82521],[-94.79981,42.82105],[-94.80398,42.82105],[-94.80398,42.83771],[-94.80815,42.83771],[-94.80815,42.84188],[-94.81231,42.84188],[-94.81231,42.85438],[-94.81648,42.85438],[-94.81648,42.86272],[-94.81231,42.86272],[-94.81231,42.86688],[-94.80815,42.86688],[-94.80815,42.87105],[-94.81648,42.87105],[-94.81648,42.87522],[-94.82065,42.87522],[-94.82065,42.87938],[-94.82481,42.87938],[-94.82481,42.88355],[-94.82898,42.88355],[-94.82898,42.89605],[-94.83315,42.89605],[-94.83315,42.91272],[-94.83731,42.91272],[-94.83731,42.91689],[-94.84148,42.91689],[-94.84148,42.92105],[-94.84565,42.92105],[-94.84565,42.92522],[-94.84982,42.92522],[-94.84982,42.92939],[-94.86648,42.92939],[-94.86648,42.93355],[-94.89149,42.93355]]]}}]}