{"type":"FeatureCollection","features":[{"type":"Feature","properties":{},"geometry":{"type":"Polygon","coordinates":[[[-91.6829,41.97931],[-91.6829,41.97514],[-91.68706,41.97514],[-91.68706,41.97098],[-91.69123,41.97098],[-91.69123,41.96681],[-91.6954,41.96681],[-91.6954,41.95848],[-91.67873,41.95848],[-91.67873,41.96264],[-91.67456,41.96264],[-91.67456,41.96681],[-91.67039,41.96681],[-91.67039,41.97098],[-91.66623,41.97098],[-91.66623,41.97514],[-91.67039,41.97514],[-91.67039,41.97931],[-91.6829,41.97931]]]}}]}