{"type":"FeatureCollection","features":[{"type":"Feature","properties":{},"geometry":{"type":"Polygon","coordinates":[[[-94.00971,41.47375],[-94.0201,41.47777],[-94.02383,41.4744],[-94.03353,41.47375],[-94.03989,41.46912],[-94.04701,41.47325],[-94.04857,41.46902],[-94.05224,41.46743],[-94.06194,41.46958],[-94.07093,41.46875],[-94.07861,41.47575],[-94.08793,41.47516],[-94.09444,41.47289],[-94.10295,41.47533],[-94.10957,41.47514],[-94.11174,41.47575],[-94.11307,41.48041],[-94.11451,41.48092],[-94.12466,41.48031],[-94.1327,41.49088],[-94.14205,41.48966],[-94.1501,41.49989],[-94.15559,41.49978],[-94.15855,41.49676],[-94.16772,41.49648],[-94.17818,41.50294],[-94.18132,41.50327],[-94.18442,41.50717],[-94.18768,41.50722],[-94.19151,41.50365],[-94.20081,41.50365],[-94.20899,41.5088],[-94.21207,41.51292],[-94.22235,41.51452],[-94.23122,41.51855],[-94.23834,41.51805],[-94.242,41.52218],[-94.24546,41.52184],[-94.25017,41.51507],[-94.26729,41.50962],[-94.27229,41.50517],[-94.27192,41.49873],[-94.27481,41.49811],[-94.27749,41.49976],[-94.28444,41.49768],[-94.29734,41.49926],[-94.30439,41.50372],[-94.30911,41.504],[-94.3203,41.50237],[-94.32913,41.49895],[-94.33618,41.50708],[-94.34537,41.5108],[-94.35847,41.51264],[-94.36852,41.52012],[-94.36997,41.52291],[-94.37792,41.52325],[-94.39819,41.5194],[-94.40988,41.52316],[-94.41911,41.52944],[-94.42228,41.52804],[-94.42562,41.52368],[-94.43024,41.52284],[-94.43364,41.51998],[-94.44077,41.52689],[-94.45619,41.53373],[-94.46029,41.54121],[-94.46823,41.53917],[-94.47129,41.53419],[-94.4807,41.53201],[-94.4842,41.52875],[-94.49617,41.52719],[-94.49951,41.53252],[-94.50942,41.53645],[-94.51177,41.54382],[-94.51532,41.54567],[-94.51636,41.5486],[-94.52001,41.54756],[-94.52116,41.55047],[-94.52994,41.55904],[-94.5304,41.56161],[-94.53516,41.56359],[-94.53416,41.5668],[-94.53989,41.57011],[-94.54785,41.56917],[-94.54908,41.57309],[-94.55209,41.57458],[-94.55089,41.57992],[-94.55465,41.58038],[-94.56384,41.5885],[-94.57538,41.59365],[-94.57666,41.59603],[-94.58255,41.59207],[-94.58968,41.59375],[-94.5952,41.5922],[-94.60105,41.59404],[-94.60776,41.60066],[-94.61315,41.60162],[-94.61429,41.6002],[-94.6244,41.60245],[-94.62837,41.60516],[-94.62928,41.61296],[-94.633,41.61319],[-94.63393,41.61622],[-94.64123,41.61573],[-94.6476,41.62004],[-94.6548,41.62179],[-94.65532,41.625],[-94.65256,41.62788],[-94.65051,41.62755],[-94.65034,41.63061],[-94.65279,41.63193],[-94.6526,41.63408],[-94.65708,41.63845],[-94.66496,41.63762],[-94.66804,41.64083],[-94.66977,41.63992],[-94.67271,41.64191],[-94.68044,41.65268],[-94.67725,41.65739],[-94.67971,41.66013],[-94.67893,41.66413],[-94.68083,41.66792],[-94.68747,41.67057],[-94.68864,41.67417],[-94.69474,41.6793],[-94.69544,41.68282],[-94.71342,41.69238],[-94.71277,41.701],[-94.71686,41.70232],[-94.71736,41.70404],[-94.7153,41.70656],[-94.71668,41.70914],[-94.7155,41.71058],[-94.72138,41.71364],[-94.72028,41.71556],[-94.72237,41.72153],[-94.72799,41.7214],[-94.73042,41.72355],[-94.7304,41.72621],[-94.73373,41.72926],[-94.73237,41.73344],[-94.73527,41.73824],[-94.73446,41.74322],[-94.74063,41.74297],[-94.74708,41.74681],[-94.74394,41.75194],[-94.7469,41.75433],[-94.74787,41.75751],[-94.74526,41.75973],[-94.74855,41.76629],[-94.7514,41.76754],[-94.75493,41.77255],[-94.7596,41.771],[-94.77191,41.77498],[-94.77249,41.77646],[-94.7711,41.77957],[-94.76914,41.77999],[-94.76907,41.78216],[-94.7759,41.78515],[-94.78233,41.79041],[-94.78312,41.79278],[-94.78825,41.79499],[-94.78624,41.79705],[-94.78987,41.8006],[-94.78995,41.80252],[-94.79635,41.80657],[-94.79955,41.81085],[-94.8003,41.81434],[-94.7991,41.81675],[-94.79474,41.81973],[-94.79591,41.82298],[-94.80025,41.82471],[-94.80724,41.82059],[-94.81242,41.82249],[-94.81266,41.8271],[-94.81473,41.83025],[-94.82472,41.83858],[-94.8276,41.84529],[-94.83184,41.84768],[-94.83001,41.85459],[-94.83085,41.85787],[-94.829,41.85973],[-94.83528,41.86845],[-94.83501,41.87024],[-94.84167,41.87341],[-94.84256,41.87594],[-94.85464,41.88378],[-94.85683,41.8837],[-94.85927,41.88806],[-94.85724,41.89109],[-94.85943,41.89301],[-94.86551,41.89344],[-94.8811,41.90176],[-94.88616,41.90053],[-94.89444,41.90264],[-94.89503,41.90632],[-94.89702,41.90806],[-94.89431,41.9093],[-94.89585,41.91315],[-94.90304,41.9132],[-94.90634,41.91807],[-94.91312,41.91937],[-94.91382,41.91748],[-94.91708,41.91655],[-94.91463,41.91425],[-94.92403,41.91219],[-94.9407,41.91799],[-94.94326,41.9229],[-94.94692,41.92449],[-94.94798,41.92682],[-94.95498,41.92947],[-94.95398,41.93229],[-94.95808,41.93752],[-94.96335,41.94034],[-94.96192,41.94298],[-94.96778,41.95049],[-94.96724,41.95412],[-94.96906,41.95578],[-94.97377,41.95617],[-94.97589,41.96068],[-94.98309,41.96469],[-94.97709,41.96822],[-94.97819,41.97244],[-94.98208,41.97559],[-94.98151,41.97868],[-94.98317,41.98123],[-94.98059,41.98461],[-94.98749,41.98964],[-94.99499,41.9922],[-94.99878,41.99159],[-95.00647,41.99656],[-95.004,42.00031],[-95.00535,42.00438],[-95.0115,42.00887],[-95.01176,42.01287],[-95.01947,42.02012],[-95.02299,42.02812],[-95.02181,42.02978],[-95.02301,42.03225],[-95.0416,42.04195],[-95.04325,42.04112],[-95.04924,42.04418],[-95.05171,42.04777],[-95.05093,42.0497],[-95.05314,42.05392],[-95.05001,42.0554],[-95.0515,42.05698],[-95.05011,42.06054],[-95.03977,42.06065],[-95.04077,42.06464],[-95.0316,42.0699],[-95.02943,42.06919],[-95.02514,42.07082],[-95.0279,42.07395],[-95.02835,42.07998],[-95.03434,42.08375],[-95.03477,42.08725],[-95.03905,42.08859],[-95.04023,42.09125],[-95.04274,42.09214],[-95.04175,42.09479],[-95.03979,42.09532],[-95.03862,42.09962],[-95.04083,42.10235],[-95.03703,42.10357],[-95.03839,42.10484],[-95.03708,42.10657],[-95.03851,42.1074],[-95.03666,42.10966],[-95.0372,42.11156],[-95.03448,42.11443],[-95.02796,42.11556],[-95.02698,42.12233],[-95.03182,42.12439],[-95.03423,42.1266],[-95.03382,42.13016],[-95.04013,42.13414],[-95.04112,42.13633],[-95.03871,42.13944],[-95.03951,42.14382],[-95.04268,42.14618],[-95.05561,42.14752],[-95.06487,42.15748],[-95.05971,42.1604],[-95.05382,42.16098],[-95.05132,42.16663],[-95.04571,42.16637],[-95.0492,42.16957],[-95.04501,42.16983],[-95.042,42.17253],[-95.04162,42.17648],[-95.03908,42.17868],[-95.04088,42.18213],[-95.03447,42.18865],[-95.02531,42.18913],[-95.01767,42.18691],[-95.01654,42.18932],[-95.0101,42.1914],[-95.00862,42.19365],[-95.00968,42.19581],[-95.00443,42.19473],[-95.00222,42.19647],[-94.99394,42.1965],[-94.99683,42.19882],[-94.99426,42.20122],[-94.99974,42.20244],[-95.00315,42.20531],[-95.00832,42.20587],[-95.00949,42.20877],[-95.00744,42.21013],[-95.0115,42.21302],[-95.01746,42.21093],[-95.02567,42.21644],[-95.02403,42.21965],[-95.03035,42.22161],[-95.02901,42.22729],[-95.04536,42.22917],[-95.04851,42.23114],[-95.05049,42.23569],[-95.05778,42.23612],[-95.05967,42.23764],[-95.05917,42.24315],[-95.06248,42.24595],[-95.06514,42.25297],[-95.06818,42.25613],[-95.07174,42.25677],[-95.07255,42.27029],[-95.07186,42.27514],[-95.06287,42.27568],[-95.06191,42.27878],[-95.05835,42.27917],[-95.05735,42.2811],[-95.05691,42.287],[-95.05873,42.28872],[-95.05665,42.29418],[-95.06167,42.29866],[-95.05824,42.30432],[-95.05904,42.30974],[-95.07414,42.31261],[-95.08151,42.3125],[-95.08843,42.32657],[-95.08873,42.33004],[-95.09608,42.34101],[-95.09874,42.34996],[-95.10327,42.35494],[-95.11389,42.35981],[-95.11281,42.3631],[-95.11925,42.36659],[-95.11477,42.373],[-95.11798,42.37565],[-95.11834,42.38054],[-95.11666,42.38366],[-95.11968,42.39021],[-95.11614,42.39332],[-95.11452,42.39285],[-95.1136,42.39721],[-95.10967,42.39926],[-95.1109,42.40104],[-95.10981,42.40412],[-95.11637,42.41067],[-95.11426,42.41271],[-95.11688,42.4144],[-95.11791,42.41752],[-95.116,42.42077],[-95.12,42.42295],[-95.11864,42.42706],[-95.12008,42.42942],[-95.11519,42.43646],[-95.117,42.44026],[-95.12189,42.44312],[-95.12447,42.44739],[-95.12128,42.44953],[-95.11918,42.4589],[-95.12348,42.46428],[-95.12064,42.47273],[-95.1219,42.47582],[-95.12734,42.47795],[-95.12955,42.4807],[-95.13027,42.48824],[-95.13978,42.49611],[-95.14016,42.50322],[-95.14284,42.50495],[-95.13645,42.51502],[-95.13729,42.51732],[-95.13456,42.52126],[-95.13464,42.52402],[-95.14174,42.53389],[-95.13812,42.53715],[-95.13933,42.5408],[-95.14682,42.53986],[-95.14765,42.54107],[-95.14626,42.54349],[-95.14968,42.54605],[-95.14583,42.55148],[-95.15134,42.55622],[-95.15122,42.56451],[-95.15311,42.5662],[-95.14605,42.56798],[-95.14981,42.57925],[-95.14753,42.5809],[-95.1502,42.58428],[-95.14855,42.58615],[-95.1512,42.5883],[-95.15134,42.59062],[-95.16049,42.59053],[-95.16712,42.58988],[-95.16592,42.58802],[-95.17163,42.58592],[-95.17968,42.58946],[-95.18037,42.59322],[-95.18967,42.59719],[-95.20326,42.59541],[-95.2075,42.59716],[-95.22555,42.59859],[-95.23908,42.60619],[-95.24613,42.60455],[-95.25017,42.60089],[-95.25601,42.60494],[-95.26054,42.60453],[-95.26506,42.60811],[-95.27068,42.60932],[-95.2689,42.61628],[-95.26654,42.61843],[-95.26748,42.6208],[-95.26979,42.62354],[-95.28043,42.62655],[-95.28765,42.6322],[-95.28829,42.63923],[-95.28442,42.64462],[-95.28511,42.64787],[-95.28827,42.65129],[-95.29341,42.65293],[-95.29765,42.65868],[-95.2981,42.66262],[-95.30182,42.66632],[-95.30148,42.66949],[-95.30352,42.67285],[-95.31196,42.67558],[-95.31448,42.68123],[-95.30982,42.68384],[-95.31225,42.68888],[-95.30996,42.6899],[-95.31121,42.69719],[-95.31009,42.70001],[-95.31259,42.70378],[-95.30511,42.70895],[-95.30175,42.70927],[-95.30055,42.71335],[-95.30257,42.71667],[-95.30623,42.71786],[-95.30599,42.72011],[-95.29907,42.72292],[-95.28974,42.72378],[-95.2756,42.70196],[-95.27567,42.69471],[-95.26612,42.69224],[-95.26514,42.6888],[-95.26618,42.68687],[-95.23739,42.65933],[-95.22568,42.661],[-95.22089,42.65964],[-95.20707,42.66764],[-95.20655,42.67047],[-95.20889,42.6726],[-95.20797,42.6732],[-95.20975,42.67716],[-95.20507,42.67874],[-95.20475,42.68034],[-95.20985,42.68051],[-95.21695,42.684],[-95.2236,42.69458],[-95.22328,42.70246],[-95.2301,42.70423],[-95.23207,42.70734],[-95.23003,42.70929],[-95.2329,42.7133],[-95.22945,42.71839],[-95.24425,42.72648],[-95.24709,42.73113],[-95.24354,42.73667],[-95.2514,42.74355],[-95.25067,42.75033],[-95.25513,42.75526],[-95.25044,42.75593],[-95.24738,42.75996],[-95.23575,42.76298],[-95.23593,42.76648],[-95.22641,42.77043],[-95.22338,42.77765],[-95.22532,42.78226],[-95.22384,42.78434],[-95.22611,42.79824],[-95.22383,42.80225],[-95.22797,42.80777],[-95.24094,42.81497],[-95.23903,42.82175],[-95.24112,42.82446],[-95.2396,42.82699],[-95.23429,42.82925],[-95.22401,42.83045],[-95.22088,42.83569],[-95.22172,42.83794],[-95.21757,42.84056],[-95.21875,42.84257],[-95.21611,42.84349],[-95.21092,42.8417],[-95.20496,42.84475],[-95.19806,42.84545],[-95.1974,42.8474],[-95.19147,42.84551],[-95.18492,42.84571],[-95.17442,42.85052],[-95.17263,42.8536],[-95.16472,42.85346],[-95.16343,42.85509],[-95.16339,42.86323],[-95.16102,42.86422],[-95.15859,42.87281],[-95.1438,42.87071],[-95.13367,42.87411],[-95.12648,42.87152],[-95.12579,42.86935],[-95.1192,42.86908],[-95.11667,42.87132],[-95.1174,42.87245],[-95.10875,42.87559],[-95.09767,42.87232],[-95.09127,42.87611],[-95.07821,42.87675],[-95.07094,42.88242],[-95.07128,42.88457],[-95.06777,42.88592],[-95.0694,42.88807],[-95.06571,42.88948],[-95.06266,42.88795],[-95.05824,42.89226],[-95.05463,42.89093],[-95.05217,42.88635],[-95.04691,42.88534],[-95.03929,42.88961],[-95.02713,42.88624],[-95.02388,42.88667],[-95.02014,42.88457],[-95.0216,42.88245],[-95.01228,42.87771],[-95.00736,42.883],[-95.00463,42.88389],[-95.00667,42.8864],[-95.00558,42.89281],[-95.00752,42.895],[-95.00344,42.89799],[-95.00321,42.90035],[-95.005,42.90153],[-94.99986,42.90932],[-94.99909,42.91499],[-94.99495,42.91585],[-94.99209,42.91943],[-94.98671,42.91202],[-94.98473,42.91173],[-94.97932,42.91409],[-94.97093,42.91472],[-94.96773,42.91802],[-94.96439,42.9177],[-94.9628,42.91444],[-94.96378,42.91106],[-94.95094,42.90991],[-94.94521,42.90434],[-94.94525,42.90191],[-94.9417,42.90135],[-94.9373,42.90803],[-94.93917,42.91145],[-94.93754,42.91483],[-94.93251,42.9129],[-94.9299,42.91501],[-94.92906,42.9213],[-94.92035,42.92388],[-94.91455,42.93252],[-94.91023,42.93166],[-94.90902,42.92833],[-94.90144,42.92409],[-94.89584,42.9238],[-94.89544,42.9255],[-94.89013,42.92839],[-94.88766,42.92812],[-94.88014,42.93225],[-94.8763,42.9305],[-94.86458,42.9295],[-94.85725,42.93167],[-94.85544,42.93656],[-94.85137,42.93607],[-94.84516,42.93045],[-94.84256,42.92383],[-94.84345,42.92146],[-94.83955,42.91789],[-94.84072,42.91633],[-94.83951,42.90948],[-94.83748,42.90642],[-94.83066,42.9067],[-94.82448,42.89926],[-94.83026,42.89606],[-94.82977,42.8938],[-94.82642,42.89132],[-94.82649,42.88816],[-94.82877,42.88565],[-94.82455,42.88393],[-94.82803,42.88116],[-94.82832,42.87887],[-94.82108,42.876],[-94.814,42.86902],[-94.8079,42.86905],[-94.80615,42.86695],[-94.80658,42.86072],[-94.80234,42.85842],[-94.80225,42.85704],[-94.80495,42.85592],[-94.81411,42.85374],[-94.8131,42.85235],[-94.81544,42.84983],[-94.81468,42.84403],[-94.81104,42.84359],[-94.81206,42.83682],[-94.79699,42.83346],[-94.7954,42.83011],[-94.797,42.82032],[-94.79398,42.81619],[-94.79425,42.8141],[-94.78666,42.8107],[-94.78226,42.81339],[-94.77645,42.81247],[-94.77238,42.8138],[-94.76999,42.81227],[-94.77052,42.80922],[-94.76283,42.80408],[-94.76179,42.79957],[-94.76312,42.79656],[-94.75972,42.79045],[-94.76,42.78624],[-94.75055,42.77958],[-94.74814,42.77086],[-94.73793,42.76641],[-94.73719,42.7593],[-94.73527,42.75717],[-94.73586,42.75095],[-94.74208,42.75038],[-94.74043,42.74764],[-94.74388,42.74607],[-94.74784,42.73123],[-94.75537,42.73018],[-94.76011,42.72653],[-94.76308,42.72682],[-94.76355,42.72347],[-94.76856,42.71908],[-94.76751,42.71603],[-94.75895,42.71148],[-94.75693,42.70241],[-94.75236,42.69868],[-94.75168,42.69571],[-94.74656,42.69396],[-94.74901,42.69045],[-94.75178,42.68953],[-94.76385,42.68908],[-94.76757,42.68257],[-94.76745,42.67961],[-94.7658,42.67866],[-94.76941,42.67439],[-94.7682,42.67215],[-94.759,42.66951],[-94.75568,42.6665],[-94.75693,42.66341],[-94.75579,42.66152],[-94.75654,42.65231],[-94.75918,42.64648],[-94.75124,42.64444],[-94.75485,42.64174],[-94.75248,42.64061],[-94.74983,42.63575],[-94.75099,42.63113],[-94.75525,42.62776],[-94.75506,42.62481],[-94.75676,42.62308],[-94.75377,42.61829],[-94.75575,42.61443],[-94.75445,42.61319],[-94.74796,42.60937],[-94.744,42.61083],[-94.7354,42.60845],[-94.72607,42.61184],[-94.72183,42.61712],[-94.72167,42.62018],[-94.71064,42.62562],[-94.70774,42.62642],[-94.69791,42.62284],[-94.6904,42.6231],[-94.68901,42.61747],[-94.68567,42.61579],[-94.68241,42.61634],[-94.67918,42.61367],[-94.67836,42.60946],[-94.67497,42.60968],[-94.6715,42.60773],[-94.66582,42.60052],[-94.65895,42.60118],[-94.65778,42.59998],[-94.65909,42.59436],[-94.64965,42.58976],[-94.64484,42.59048],[-94.63946,42.58661],[-94.63272,42.58507],[-94.6337,42.5795],[-94.62817,42.57823],[-94.62485,42.57473],[-94.61446,42.57206],[-94.5994,42.57407],[-94.59385,42.56781],[-94.58262,42.56193],[-94.57475,42.56051],[-94.57111,42.55637],[-94.56322,42.55354],[-94.55823,42.55355],[-94.55505,42.55143],[-94.53773,42.55063],[-94.53477,42.54905],[-94.53328,42.55141],[-94.52948,42.55153],[-94.52057,42.54539],[-94.5202,42.54138],[-94.51161,42.53887],[-94.50817,42.53411],[-94.49828,42.53238],[-94.49113,42.53564],[-94.48464,42.53415],[-94.4789,42.53689],[-94.4768,42.52867],[-94.47269,42.52725],[-94.47363,42.52485],[-94.47143,42.51937],[-94.46551,42.51831],[-94.45171,42.51117],[-94.44376,42.51377],[-94.43506,42.51395],[-94.42905,42.50494],[-94.42861,42.50039],[-94.42042,42.49806],[-94.41849,42.50016],[-94.41513,42.49969],[-94.40221,42.49624],[-94.40216,42.48943],[-94.40837,42.48717],[-94.408,42.48399],[-94.4034,42.47989],[-94.38935,42.47525],[-94.38706,42.47142],[-94.38702,42.47007],[-94.39434,42.46914],[-94.3975,42.46353],[-94.39363,42.45488],[-94.38762,42.45184],[-94.3813,42.43778],[-94.37401,42.43364],[-94.37442,42.43044],[-94.37106,42.42573],[-94.36655,42.42519],[-94.35894,42.42741],[-94.35673,42.42627],[-94.35636,42.42309],[-94.35232,42.42132],[-94.35051,42.41819],[-94.35457,42.41597],[-94.35455,42.4096],[-94.34828,42.4087],[-94.34677,42.40592],[-94.3418,42.40568],[-94.33723,42.40259],[-94.33351,42.40306],[-94.33236,42.40081],[-94.33451,42.39724],[-94.33475,42.39405],[-94.33349,42.3932],[-94.33499,42.39088],[-94.32727,42.38653],[-94.32368,42.38157],[-94.31782,42.38122],[-94.31853,42.38996],[-94.31318,42.39484],[-94.31323,42.39981],[-94.30646,42.40321],[-94.30539,42.40978],[-94.29188,42.41511],[-94.28572,42.4158],[-94.27811,42.41252],[-94.27154,42.41335],[-94.26918,42.40527],[-94.26016,42.4004],[-94.25127,42.39946],[-94.24671,42.39351],[-94.23936,42.39137],[-94.23426,42.38321],[-94.22731,42.37783],[-94.22376,42.36476],[-94.22587,42.36093],[-94.22447,42.35942],[-94.22753,42.35084],[-94.22508,42.34528],[-94.22078,42.3439],[-94.21623,42.33854],[-94.21848,42.33352],[-94.21576,42.32924],[-94.20901,42.32497],[-94.17109,42.32243],[-94.16092,42.31708],[-94.15378,42.31606],[-94.14493,42.31112],[-94.14492,42.30767],[-94.1418,42.30654],[-94.13431,42.29813],[-94.13427,42.29678],[-94.14057,42.29496],[-94.14332,42.29221],[-94.14749,42.2928],[-94.15051,42.28822],[-94.14759,42.28315],[-94.14491,42.27157],[-94.14696,42.26264],[-94.13952,42.25942],[-94.13744,42.25586],[-94.15035,42.24339],[-94.15633,42.24214],[-94.15784,42.23979],[-94.16282,42.2376],[-94.16197,42.23225],[-94.16537,42.23077],[-94.16832,42.22485],[-94.17767,42.22074],[-94.17586,42.21825],[-94.17656,42.21617],[-94.1813,42.21307],[-94.18331,42.20621],[-94.18732,42.20599],[-94.19051,42.20398],[-94.19132,42.20112],[-94.19528,42.19926],[-94.19467,42.19654],[-94.1838,42.19013],[-94.18102,42.19082],[-94.17787,42.18929],[-94.17719,42.18833],[-94.17968,42.18722],[-94.1754,42.18493],[-94.17352,42.18122],[-94.17816,42.17839],[-94.18255,42.18079],[-94.18955,42.18014],[-94.19535,42.18155],[-94.20033,42.179],[-94.19743,42.17626],[-94.20033,42.17469],[-94.20316,42.16961],[-94.19959,42.16848],[-94.2008,42.16584],[-94.19994,42.16079],[-94.2014,42.15723],[-94.20533,42.15656],[-94.20389,42.15282],[-94.20738,42.14647],[-94.21672,42.14706],[-94.21722,42.14292],[-94.21548,42.14052],[-94.22067,42.13853],[-94.22153,42.1359],[-94.22394,42.13554],[-94.22536,42.13326],[-94.2336,42.13151],[-94.23436,42.13011],[-94.22628,42.12144],[-94.2304,42.11282],[-94.23606,42.11358],[-94.24212,42.10789],[-94.24195,42.10581],[-94.2449,42.10282],[-94.24057,42.09878],[-94.2397,42.09377],[-94.23392,42.08926],[-94.23987,42.08717],[-94.24536,42.07945],[-94.24256,42.07313],[-94.24502,42.06598],[-94.25048,42.05994],[-94.25152,42.0513],[-94.24752,42.05038],[-94.24556,42.0473],[-94.25197,42.03901],[-94.25895,42.03756],[-94.25801,42.03481],[-94.25977,42.03282],[-94.25607,42.03004],[-94.2614,42.0251],[-94.25425,42.02297],[-94.2502,42.0198],[-94.24115,42.02001],[-94.23467,42.0171],[-94.24159,42.00899],[-94.23684,42.00712],[-94.23966,42.00332],[-94.23736,41.99943],[-94.23782,41.99685],[-94.24059,41.99544],[-94.24136,41.99242],[-94.24064,41.98968],[-94.2357,41.98977],[-94.23409,41.98649],[-94.23127,41.98598],[-94.22937,41.98056],[-94.2259,41.97878],[-94.22295,41.97995],[-94.22367,41.98213],[-94.22182,41.9844],[-94.22426,41.98763],[-94.21701,41.99166],[-94.20796,41.98917],[-94.20534,41.98653],[-94.19302,41.98532],[-94.19248,41.99149],[-94.18908,41.99481],[-94.19121,41.99674],[-94.1866,41.99901],[-94.18318,41.99669],[-94.18197,41.99406],[-94.1831,41.99247],[-94.18025,41.99014],[-94.18301,41.989],[-94.18272,41.98659],[-94.18059,41.98524],[-94.18312,41.97639],[-94.18956,41.97557],[-94.19013,41.97137],[-94.18955,41.96924],[-94.18582,41.96806],[-94.18383,41.96517],[-94.18658,41.96422],[-94.18779,41.96109],[-94.19035,41.96086],[-94.18957,41.95764],[-94.19283,41.95393],[-94.1909,41.95174],[-94.19031,41.94627],[-94.18661,41.94293],[-94.188,41.94122],[-94.18613,41.9388],[-94.18668,41.937],[-94.17972,41.93411],[-94.17816,41.93201],[-94.17078,41.93024],[-94.17491,41.92642],[-94.17368,41.92426],[-94.17666,41.91867],[-94.17578,41.91747],[-94.16749,41.91664],[-94.16047,41.91093],[-94.15628,41.91105],[-94.1475,41.91569],[-94.13478,41.91771],[-94.13288,41.91922],[-94.12429,41.91593],[-94.11569,41.91719],[-94.11627,41.91394],[-94.12131,41.91221],[-94.11234,41.90435],[-94.11284,41.89965],[-94.11415,41.89927],[-94.11113,41.89711],[-94.11377,41.89494],[-94.11071,41.89225],[-94.11224,41.88869],[-94.10879,41.88448],[-94.1102,41.88312],[-94.10635,41.87984],[-94.10552,41.86198],[-94.09702,41.85397],[-94.09844,41.8514],[-94.09475,41.84618],[-94.09873,41.84441],[-94.08899,41.83176],[-94.08019,41.82918],[-94.07721,41.82464],[-94.07034,41.82572],[-94.06451,41.81811],[-94.06691,41.80911],[-94.07248,41.80473],[-94.06793,41.80004],[-94.07035,41.79697],[-94.06388,41.79194],[-94.06515,41.78861],[-94.06342,41.78699],[-94.06279,41.78104],[-94.0646,41.77749],[-94.06252,41.76871],[-94.04824,41.76598],[-94.04573,41.77071],[-94.0415,41.77147],[-94.03069,41.76601],[-94.0325,41.7644],[-94.03146,41.7624],[-94.02751,41.7607],[-94.01861,41.74533],[-94.01757,41.74052],[-94.01894,41.73746],[-94.01736,41.73383],[-94.01858,41.73034],[-94.009,41.72431],[-94.01081,41.72134],[-94.00676,41.7185],[-94.00526,41.71305],[-94.00299,41.7125],[-94.00497,41.71072],[-94.00416,41.70962],[-93.99281,41.70875],[-93.9944,41.70598],[-93.99108,41.70338],[-93.9867,41.70438],[-93.98684,41.70154],[-93.98246,41.69924],[-93.971,41.69758],[-93.96709,41.68991],[-93.96789,41.6865],[-93.96662,41.68351],[-93.96334,41.6825],[-93.96115,41.68382],[-93.95771,41.68127],[-93.95886,41.67832],[-93.95797,41.67585],[-93.96028,41.67369],[-93.96032,41.66629],[-93.95627,41.66359],[-93.95515,41.66018],[-93.94558,41.65018],[-93.93579,41.64217],[-93.93621,41.63487],[-93.92841,41.62824],[-93.93204,41.62621],[-93.93921,41.62561],[-93.94147,41.62295],[-93.9409,41.62111],[-93.95032,41.61631],[-93.94958,41.60081],[-93.94579,41.59783],[-93.94259,41.59013],[-93.93591,41.58782],[-93.93036,41.58373],[-93.92556,41.57269],[-93.92621,41.56788],[-93.93295,41.56466],[-93.94192,41.5633],[-93.94274,41.5601],[-93.93976,41.55781],[-93.94012,41.55584],[-93.94959,41.54895],[-93.94945,41.54616],[-93.9457,41.54315],[-93.94525,41.54064],[-93.9418,41.53943],[-93.94111,41.53606],[-93.93913,41.53484],[-93.93939,41.53236],[-93.94142,41.53112],[-93.95325,41.5325],[-93.95976,41.53044],[-93.96288,41.53346],[-93.97316,41.52851],[-93.97179,41.51348],[-93.9775,41.50664],[-93.97209,41.50204],[-93.97146,41.49433],[-93.98633,41.49085],[-93.99453,41.49361],[-93.99686,41.49285],[-94.00136,41.48729],[-93.99879,41.4815],[-93.99903,41.47779],[-94.00322,41.47285],[-94.00971,41.47375]]]}}]}