{"type":"FeatureCollection","features":[{"type":"Feature","properties":{},"geometry":{"type":"Polygon","coordinates":[[[-92.1121,41.74596],[-92.1121,41.73763],[-92.11626,41.73763],[-92.11626,41.73346],[-92.12043,41.73346],[-92.12043,41.72929],[-92.1246,41.72929],[-92.1246,41.72512],[-92.15377,41.72512],[-92.15377,41.71679],[-92.15793,41.71679],[-92.15793,41.70846],[-92.1871,41.70846],[-92.1871,41.71262],[-92.19127,41.71262],[-92.19127,41.72096],[-92.20794,41.72096],[-92.20794,41.71679],[-92.2121,41.71679],[-92.2121,41.71262],[-92.22877,41.71262],[-92.22877,41.70429],[-92.23711,41.70429],[-92.23711,41.70012],[-92.23294,41.70012],[-92.23294,41.68762],[-92.22877,41.68762],[-92.22877,41.67929],[-92.20377,41.67929],[-92.20377,41.67512],[-92.19127,41.67512],[-92.19127,41.67929],[-92.1871,41.67929],[-92.1871,41.67512],[-92.18294,41.67512],[-92.18294,41.67095],[-92.1746,41.67095],[-92.1746,41.66679],[-92.1621,41.66679],[-92.1621,41.67095],[-92.14543,41.67095],[-92.14543,41.66679],[-92.14127,41.66679],[-92.14127,41.66262],[-92.1371,41.66262],[-92.1371,41.65845],[-92.12877,41.65845],[-92.12877,41.65429],[-92.11626,41.65429],[-92.11626,41.65012],[-92.09126,41.65012],[-92.09126,41.63345],[-92.07876,41.63345],[-92.07876,41.63762],[-92.07043,41.63762],[-92.07043,41.62512],[-92.07459,41.62512],[-92.07459,41.61678],[-92.06626,41.61678],[-92.06626,41.60845],[-92.04959,41.60845],[-92.04959,41.60428],[-92.04542,41.60428],[-92.04542,41.60011],[-92.03709,41.60011],[-92.03709,41.60428],[-92.03292,41.60428],[-92.03292,41.60011],[-92.02876,41.60011],[-92.02876,41.59178],[-92.02042,41.59178],[-92.02042,41.58761],[-92.00375,41.58761],[-92.00375,41.59178],[-91.99959,41.59178],[-91.99959,41.58761],[-91.99542,41.58761],[-91.99542,41.58345],[-91.97459,41.58345],[-91.97459,41.58761],[-91.97042,41.58761],[-91.97042,41.59178],[-91.94542,41.59178],[-91.94542,41.58761],[-91.92458,41.58761],[-91.92458,41.59178],[-91.89958,41.59178],[-91.89958,41.59595],[-91.89541,41.59595],[-91.89541,41.58761],[-91.88291,41.58761],[-91.88291,41.59595],[-91.86624,41.59595],[-91.86624,41.59178],[-91.82457,41.59178],[-91.82457,41.59595],[-91.81624,41.59595],[-91.81624,41.59178],[-91.81207,41.59178],[-91.81207,41.58761],[-91.79957,41.58761],[-91.79957,41.59178],[-91.79541,41.59178],[-91.79541,41.58345],[-91.77457,41.58345],[-91.77457,41.58761],[-91.7704,41.58761],[-91.7704,41.58345],[-91.76624,41.58345],[-91.76624,41.57928],[-91.7579,41.57928],[-91.7579,41.57511],[-91.75373,41.57511],[-91.75373,41.57095],[-91.73707,41.57095],[-91.73707,41.57511],[-91.7329,41.57511],[-91.7329,41.57095],[-91.7204,41.57095],[-91.7204,41.58345],[-91.71623,41.58345],[-91.71623,41.57511],[-91.70373,41.57511],[-91.70373,41.57928],[-91.6829,41.57928],[-91.6829,41.57511],[-91.67456,41.57511],[-91.67456,41.57928],[-91.67039,41.57928],[-91.67039,41.58345],[-91.66206,41.58345],[-91.66206,41.59178],[-91.64956,41.59178],[-91.64956,41.60011],[-91.64539,41.60011],[-91.64539,41.59595],[-91.64123,41.59595],[-91.64123,41.60011],[-91.63706,41.60011],[-91.63706,41.60428],[-91.63289,41.60428],[-91.63289,41.60845],[-91.62456,41.60845],[-91.62456,41.61262],[-91.62039,41.61262],[-91.62039,41.60845],[-91.61622,41.60845],[-91.61622,41.61262],[-91.61206,41.61262],[-91.61206,41.61678],[-91.60789,41.61678],[-91.60789,41.62095],[-91.60372,41.62095],[-91.60372,41.62512],[-91.59956,41.62512],[-91.59956,41.63762],[-91.60372,41.63762],[-91.60372,41.65012],[-91.60789,41.65012],[-91.60789,41.65429],[-91.61206,41.65429],[-91.61206,41.65845],[-91.61622,41.65845],[-91.61622,41.66262],[-91.62039,41.66262],[-91.62039,41.66679],[-91.62873,41.66679],[-91.62873,41.67095],[-91.64123,41.67095],[-91.64123,41.66262],[-91.65789,41.66262],[-91.65789,41.66679],[-91.66206,41.66679],[-91.66206,41.67095],[-91.67039,41.67095],[-91.67039,41.67512],[-91.69123,41.67512],[-91.69123,41.67095],[-91.6954,41.67095],[-91.6954,41.67929],[-91.7079,41.67929],[-91.7079,41.67512],[-91.73707,41.67512],[-91.73707,41.67929],[-91.7454,41.67929],[-91.7454,41.68762],[-91.75373,41.68762],[-91.75373,41.69179],[-91.76207,41.69179],[-91.76207,41.70012],[-91.79124,41.70012],[-91.79124,41.69596],[-91.80374,41.69596],[-91.80374,41.70012],[-91.80791,41.70012],[-91.80791,41.70429],[-91.84124,41.70429],[-91.84124,41.70012],[-91.85374,41.70012],[-91.85374,41.69179],[-91.86208,41.69179],[-91.86208,41.68762],[-91.87041,41.68762],[-91.87041,41.68345],[-91.93292,41.68345],[-91.93292,41.67929],[-91.94125,41.67929],[-91.94125,41.68345],[-91.94958,41.68345],[-91.94958,41.67512],[-91.96209,41.67512],[-91.96209,41.67929],[-91.96625,41.67929],[-91.96625,41.68345],[-91.97042,41.68345],[-91.97042,41.68762],[-91.97459,41.68762],[-91.97459,41.70012],[-91.97042,41.70012],[-91.97042,41.70429],[-91.97459,41.70429],[-91.97459,41.70846],[-91.99542,41.70846],[-91.99542,41.71262],[-92.00375,41.71262],[-92.00375,41.70846],[-92.01626,41.70846],[-92.01626,41.71262],[-92.03292,41.71262],[-92.03292,41.70846],[-92.03709,41.70846],[-92.03709,41.70429],[-92.04542,41.70429],[-92.04542,41.70846],[-92.04126,41.70846],[-92.04126,41.71262],[-92.04542,41.71262],[-92.04542,41.71679],[-92.05376,41.71679],[-92.05376,41.72512],[-92.05793,41.72512],[-92.05793,41.72929],[-92.07876,41.72929],[-92.07876,41.73346],[-92.08709,41.73346],[-92.08709,41.72929],[-92.09543,41.72929],[-92.09543,41.73346],[-92.10376,41.73346],[-92.10376,41.74179],[-92.10793,41.74179],[-92.10793,41.74596],[-92.1121,41.74596]]]}}]}