{"type":"FeatureCollection","features":[{"type":"Feature","properties":{},"geometry":{"type":"Polygon","coordinates":[[[-94.23727,42.48352],[-94.23727,42.47935],[-94.25393,42.47935],[-94.25393,42.46685],[-94.2581,42.46685],[-94.2581,42.45018],[-94.26227,42.45018],[-94.26227,42.44602],[-94.2581,42.44602],[-94.2581,42.43351],[-94.25393,42.43351],[-94.25393,42.42518],[-94.2581,42.42518],[-94.2581,42.42101],[-94.2706,42.42101],[-94.2706,42.41685],[-94.27477,42.41685],[-94.27477,42.40851],[-94.2706,42.40851],[-94.2706,42.40435],[-94.26644,42.40435],[-94.26644,42.38351],[-94.2581,42.38351],[-94.2581,42.35851],[-94.25393,42.35851],[-94.25393,42.35434],[-94.24977,42.35434],[-94.24977,42.35017],[-94.2456,42.35017],[-94.2456,42.34184],[-94.24143,42.34184],[-94.24143,42.33767],[-94.2456,42.33767],[-94.2456,42.33351],[-94.24143,42.33351],[-94.24143,42.32517],[-94.2331,42.32517],[-94.2331,42.32934],[-94.22893,42.32934],[-94.22893,42.33351],[-94.21643,42.33351],[-94.21643,42.32934],[-94.20393,42.32934],[-94.20393,42.32517],[-94.19143,42.32517],[-94.19143,42.32934],[-94.1956,42.32934],[-94.1956,42.33767],[-94.19976,42.33767],[-94.19976,42.35434],[-94.1831,42.35434],[-94.1831,42.35851],[-94.17893,42.35851],[-94.17893,42.36268],[-94.17059,42.36268],[-94.17059,42.35851],[-94.16643,42.35851],[-94.16643,42.36268],[-94.16226,42.36268],[-94.16226,42.37101],[-94.15809,42.37101],[-94.15809,42.37518],[-94.14976,42.37518],[-94.14976,42.37934],[-94.14559,42.37934],[-94.14559,42.38351],[-94.14143,42.38351],[-94.14143,42.38768],[-94.14559,42.38768],[-94.14559,42.39601],[-94.15393,42.39601],[-94.15393,42.40018],[-94.14976,42.40018],[-94.14976,42.40435],[-94.14559,42.40435],[-94.14559,42.41268],[-94.14143,42.41268],[-94.14143,42.41685],[-94.13726,42.41685],[-94.13726,42.42101],[-94.13309,42.42101],[-94.13309,42.42518],[-94.15809,42.42518],[-94.15809,42.42935],[-94.17476,42.42935],[-94.17476,42.42518],[-94.17893,42.42518],[-94.17893,42.42101],[-94.1831,42.42101],[-94.1831,42.42518],[-94.18726,42.42518],[-94.18726,42.42935],[-94.19143,42.42935],[-94.19143,42.43351],[-94.1956,42.43351],[-94.1956,42.43768],[-94.19143,42.43768],[-94.19143,42.44185],[-94.1956,42.44185],[-94.1956,42.44602],[-94.20393,42.44602],[-94.20393,42.45018],[-94.21227,42.45018],[-94.21227,42.45852],[-94.21643,42.45852],[-94.21643,42.46268],[-94.22893,42.46268],[-94.22893,42.48352],[-94.23727,42.48352]]]}}]}