{"type":"FeatureCollection","features":[{"type":"Feature","properties":{},"geometry":{"type":"Polygon","coordinates":[[[-94.21465,42.32859],[-94.21848,42.33352],[-94.21623,42.33854],[-94.22078,42.3439],[-94.22508,42.34528],[-94.22753,42.35084],[-94.22447,42.35942],[-94.22587,42.36093],[-94.22376,42.36476],[-94.22731,42.37783],[-94.23426,42.38321],[-94.23936,42.39137],[-94.24671,42.39351],[-94.25127,42.39946],[-94.26016,42.4004],[-94.26918,42.40527],[-94.27154,42.41335],[-94.26797,42.41559],[-94.26637,42.41917],[-94.25989,42.42124],[-94.2569,42.42662],[-94.25164,42.42754],[-94.25299,42.43089],[-94.25124,42.43555],[-94.25469,42.43781],[-94.2541,42.43892],[-94.25812,42.44342],[-94.25424,42.44458],[-94.25328,42.44728],[-94.25647,42.44835],[-94.25685,42.45022],[-94.25097,42.45268],[-94.25313,42.45459],[-94.25243,42.45921],[-94.24801,42.46495],[-94.24684,42.47062],[-94.23937,42.46468],[-94.23919,42.46148],[-94.24155,42.45693],[-94.23825,42.4529],[-94.23417,42.45291],[-94.23093,42.45641],[-94.22566,42.45529],[-94.2233,42.45664],[-94.22484,42.4605],[-94.22226,42.46193],[-94.21493,42.46063],[-94.2104,42.44948],[-94.19986,42.4443],[-94.19994,42.44181],[-94.18783,42.4387],[-94.18811,42.43459],[-94.19452,42.4307],[-94.19486,42.42898],[-94.19258,42.42673],[-94.16484,42.42477],[-94.1437,42.41764],[-94.13875,42.42211],[-94.13572,42.42209],[-94.13541,42.41887],[-94.13009,42.41587],[-94.10797,42.41142],[-94.10383,42.41329],[-94.10122,42.40784],[-94.09776,42.40794],[-94.09447,42.40517],[-94.09301,42.40038],[-94.08762,42.39537],[-94.08649,42.3903],[-94.08049,42.39043],[-94.07739,42.38889],[-94.08596,42.37624],[-94.09313,42.3747],[-94.09509,42.37222],[-94.09842,42.37163],[-94.10775,42.3746],[-94.10854,42.37897],[-94.11314,42.38268],[-94.11776,42.38374],[-94.12133,42.38872],[-94.1293,42.38838],[-94.12597,42.39689],[-94.1277,42.39811],[-94.13145,42.396],[-94.13402,42.3967],[-94.13666,42.39258],[-94.14136,42.39685],[-94.14669,42.39349],[-94.14895,42.39626],[-94.16706,42.39636],[-94.16477,42.3931],[-94.16543,42.39058],[-94.1758,42.38903],[-94.1746,42.38286],[-94.17171,42.3809],[-94.17467,42.37595],[-94.18994,42.37653],[-94.19585,42.3653],[-94.20216,42.36473],[-94.2033,42.36326],[-94.19746,42.36031],[-94.19673,42.35637],[-94.19368,42.35374],[-94.19687,42.34465],[-94.19627,42.34032],[-94.19322,42.33471],[-94.18937,42.33154],[-94.18949,42.32368],[-94.20901,42.32497],[-94.21465,42.32859]]]}}]}