{"type":"FeatureCollection","features":[{"type":"Feature","properties":{},"geometry":{"type":"Polygon","coordinates":[[[-95.24927,43.19377],[-95.26789,43.20092],[-95.26973,43.20531],[-95.28054,43.21269],[-95.28422,43.22158],[-95.28832,43.22385],[-95.28894,43.22631],[-95.29363,43.2272],[-95.29545,43.23048],[-95.29397,43.23247],[-95.29475,43.23587],[-95.29998,43.24187],[-95.29911,43.24363],[-95.30067,43.2487],[-95.29542,43.25232],[-95.29547,43.25665],[-95.28407,43.26165],[-95.28487,43.26538],[-95.28376,43.26677],[-95.27484,43.26753],[-95.27801,43.27598],[-95.27557,43.28338],[-95.26974,43.28804],[-95.26676,43.29327],[-95.24881,43.30419],[-95.24877,43.32424],[-95.25535,43.32264],[-95.27805,43.32849],[-95.28013,43.32962],[-95.27994,43.33498],[-95.28134,43.33578],[-95.32339,43.34504],[-95.33383,43.35033],[-95.33478,43.35126],[-95.3333,43.35441],[-95.33632,43.35682],[-95.33609,43.36642],[-95.33825,43.37005],[-95.33215,43.37737],[-95.32872,43.37825],[-95.32858,43.38233],[-95.3376,43.3834],[-95.34178,43.39222],[-95.33769,43.39475],[-95.35284,43.40296],[-95.36645,43.40128],[-95.38337,43.40284],[-95.38867,43.40179],[-95.395,43.40608],[-95.39985,43.40716],[-95.40325,43.4109],[-95.40975,43.41073],[-95.41507,43.41519],[-95.42997,43.41527],[-95.43565,43.42372],[-95.42746,43.42939],[-95.42751,43.4335],[-95.43375,43.43993],[-95.43458,43.44431],[-95.42775,43.4516],[-95.4261,43.45737],[-95.42755,43.46238],[-95.43401,43.46749],[-95.45757,43.47199],[-95.46323,43.47834],[-95.47824,43.48036],[-95.48603,43.47827],[-95.48903,43.48009],[-95.48939,43.48351],[-95.49484,43.48275],[-95.50138,43.47388],[-95.50489,43.47406],[-95.50528,43.47936],[-95.51987,43.48758],[-95.55003,43.49139],[-95.55666,43.49375],[-95.55917,43.49992],[-95.57326,43.49555],[-95.58171,43.497],[-95.5841,43.5026],[-95.58078,43.50714],[-95.5777,43.50737],[-95.57795,43.51213],[-95.56923,43.51143],[-95.5676,43.51278],[-95.57282,43.51562],[-95.57119,43.5171],[-95.56568,43.51594],[-95.565,43.51935],[-95.56719,43.52176],[-95.56343,43.53096],[-95.56159,43.53222],[-95.55786,43.53136],[-95.55724,43.53428],[-95.5646,43.5364],[-95.56686,43.54588],[-95.56389,43.54795],[-95.5606,43.54538],[-95.55546,43.54508],[-95.55381,43.54664],[-95.55384,43.55268],[-95.55912,43.55806],[-95.55868,43.55987],[-95.55394,43.56298],[-95.55403,43.56559],[-95.5509,43.56852],[-95.54807,43.56816],[-95.54371,43.56307],[-95.54402,43.56137],[-95.54099,43.56003],[-95.53959,43.55618],[-95.53476,43.55618],[-95.53324,43.55795],[-95.5239,43.55755],[-95.52524,43.56123],[-95.5358,43.57002],[-95.53444,43.57225],[-95.5281,43.57433],[-95.52622,43.57781],[-95.53505,43.58161],[-95.53583,43.5831],[-95.53413,43.58414],[-95.53996,43.58791],[-95.53953,43.59297],[-95.5294,43.60164],[-95.53195,43.60397],[-95.5324,43.60668],[-95.53908,43.61276],[-95.539,43.61449],[-95.54892,43.61472],[-95.55261,43.61599],[-95.55263,43.61762],[-95.54059,43.62507],[-95.52963,43.62683],[-95.52916,43.63048],[-95.52166,43.63065],[-95.51179,43.63478],[-95.51149,43.63879],[-95.50232,43.63962],[-95.49819,43.64279],[-95.49586,43.64093],[-95.4961,43.63886],[-95.49,43.63544],[-95.49051,43.63046],[-95.48281,43.62846],[-95.48007,43.62967],[-95.47253,43.62837],[-95.46525,43.63021],[-95.45768,43.62922],[-95.45431,43.63067],[-95.45559,43.63197],[-95.45409,43.63404],[-95.45529,43.64035],[-95.45189,43.64465],[-95.44057,43.65024],[-95.43466,43.6591],[-95.43609,43.66742],[-95.4301,43.66928],[-95.42838,43.66569],[-95.41537,43.6701],[-95.41107,43.66597],[-95.41018,43.6577],[-95.40037,43.64906],[-95.39031,43.65202],[-95.38497,43.64798],[-95.37841,43.64634],[-95.3753,43.65272],[-95.36895,43.65561],[-95.35908,43.65309],[-95.35715,43.64899],[-95.35078,43.64692],[-95.33265,43.64421],[-95.33031,43.64899],[-95.33549,43.65371],[-95.33509,43.65991],[-95.33004,43.66128],[-95.33036,43.66563],[-95.3111,43.66819],[-95.30075,43.66725],[-95.29671,43.67079],[-95.28885,43.65936],[-95.2844,43.6596],[-95.27821,43.65416],[-95.27139,43.65495],[-95.26871,43.65257],[-95.26966,43.64994],[-95.26546,43.64872],[-95.25944,43.65129],[-95.25161,43.65163],[-95.24758,43.65412],[-95.23973,43.64914],[-95.22913,43.64957],[-95.22172,43.65193],[-95.22019,43.65461],[-95.21432,43.655],[-95.21048,43.65378],[-95.21004,43.65175],[-95.20823,43.65241],[-95.20898,43.64895],[-95.20517,43.64595],[-95.18932,43.64604],[-95.18905,43.64436],[-95.18085,43.64297],[-95.17549,43.6465],[-95.16984,43.64737],[-95.16952,43.65103],[-95.16678,43.64997],[-95.16499,43.65795],[-95.16216,43.65886],[-95.15747,43.65741],[-95.15427,43.66072],[-95.14822,43.65881],[-95.14433,43.66302],[-95.14201,43.66314],[-95.13784,43.66054],[-95.13206,43.6607],[-95.1147,43.6556],[-95.1109,43.65904],[-95.10711,43.65806],[-95.10597,43.65754],[-95.10833,43.65163],[-95.10454,43.6475],[-95.10613,43.64571],[-95.08774,43.64118],[-95.08864,43.63913],[-95.0871,43.63638],[-95.08566,43.63524],[-95.08352,43.63628],[-95.08234,43.63413],[-95.07401,43.63297],[-95.06742,43.63603],[-95.06443,43.63401],[-95.06392,43.62627],[-95.06136,43.6251],[-95.06223,43.6214],[-95.06971,43.61734],[-95.06174,43.61449],[-95.06053,43.60817],[-95.06554,43.6043],[-95.06408,43.60231],[-95.06512,43.60115],[-95.07222,43.5973],[-95.07179,43.59503],[-95.06836,43.59383],[-95.06794,43.5891],[-95.06532,43.58932],[-95.06622,43.58509],[-95.06374,43.5774],[-95.06556,43.57519],[-95.06571,43.56669],[-95.06858,43.56383],[-95.06873,43.55879],[-95.07261,43.55569],[-95.06821,43.55028],[-95.07003,43.54555],[-95.06578,43.53971],[-95.06962,43.5353],[-95.06901,43.53138],[-95.06571,43.53035],[-95.06874,43.5293],[-95.07519,43.53098],[-95.0744,43.52282],[-95.08282,43.51786],[-95.08014,43.51697],[-95.08033,43.51305],[-95.07789,43.51154],[-95.06966,43.511],[-95.06333,43.50684],[-95.05731,43.50828],[-95.04817,43.50502],[-95.04508,43.50711],[-95.0418,43.5063],[-95.04138,43.50079],[-95.04284,43.49742],[-95.04645,43.49653],[-95.04838,43.49219],[-95.04629,43.49045],[-95.03978,43.49],[-95.03522,43.49184],[-95.02778,43.49007],[-95.01473,43.49059],[-95.01201,43.4877],[-95.00524,43.48594],[-94.9936,43.48589],[-94.99934,43.47873],[-94.99835,43.47162],[-95.00028,43.46892],[-95.00225,43.46945],[-95.00411,43.46784],[-95.00317,43.45872],[-95.00796,43.45637],[-95.01639,43.45615],[-95.01879,43.45404],[-95.01652,43.45066],[-95.01784,43.44778],[-95.01612,43.446],[-95.01722,43.44264],[-95.01437,43.44198],[-95.01111,43.43826],[-95.0141,43.4348],[-95.01359,43.43157],[-95.01101,43.43053],[-95.01471,43.42765],[-95.01156,43.41823],[-95.01789,43.4149],[-95.02184,43.4176],[-95.02481,43.41489],[-95.02884,43.41456],[-95.02475,43.40758],[-95.0252,43.40555],[-95.02205,43.40222],[-95.02913,43.39953],[-95.0294,43.39385],[-95.02719,43.39222],[-95.02822,43.38831],[-95.03254,43.38285],[-95.02884,43.38121],[-95.03089,43.37862],[-95.02986,43.37522],[-95.0331,43.37051],[-95.03835,43.36836],[-95.03975,43.3642],[-95.04496,43.36133],[-95.05136,43.35465],[-95.06499,43.34923],[-95.06303,43.34412],[-95.06467,43.34065],[-95.06783,43.34014],[-95.06759,43.33414],[-95.07254,43.32982],[-95.07215,43.32416],[-95.07648,43.32405],[-95.07504,43.32216],[-95.07991,43.31692],[-95.08064,43.31411],[-95.07908,43.31246],[-95.08172,43.30863],[-95.08077,43.30522],[-95.07678,43.30365],[-95.07929,43.30009],[-95.07451,43.29765],[-95.06925,43.29094],[-95.07328,43.28659],[-95.07486,43.2789],[-95.07794,43.27422],[-95.0801,43.27532],[-95.08309,43.27416],[-95.09019,43.26753],[-95.10585,43.26702],[-95.105,43.26327],[-95.11626,43.25988],[-95.11474,43.25224],[-95.11797,43.2483],[-95.1369,43.24923],[-95.14135,43.24483],[-95.14885,43.24395],[-95.15324,43.24083],[-95.15704,43.24184],[-95.17285,43.23767],[-95.17677,43.23793],[-95.17944,43.23478],[-95.18985,43.2353],[-95.19835,43.24061],[-95.20614,43.24281],[-95.21286,43.24155],[-95.219,43.24571],[-95.22211,43.24589],[-95.22269,43.24294],[-95.22628,43.24158],[-95.23188,43.24215],[-95.23041,43.23871],[-95.23187,43.2352],[-95.23406,43.23463],[-95.23477,43.22995],[-95.22611,43.22513],[-95.22218,43.21771],[-95.22207,43.21522],[-95.2249,43.21381],[-95.22237,43.21],[-95.22412,43.20188],[-95.2223,43.19873],[-95.2176,43.20026],[-95.21488,43.19882],[-95.2063,43.18788],[-95.20964,43.18511],[-95.21701,43.18539],[-95.23636,43.19136],[-95.24114,43.19466],[-95.24927,43.19377]]]}}]}