{"type":"FeatureCollection","features":[{"type":"Feature","properties":{},"geometry":{"type":"MultiPolygon","coordinates":[[[[-90.68282,42.246],[-90.68282,42.24183],[-90.68698,42.24183],[-90.68698,42.246],[-90.68282,42.246]]],[[[-90.69115,42.246],[-90.69115,42.24183],[-90.70365,42.24183],[-90.70365,42.23767],[-90.70782,42.23767],[-90.70782,42.2335],[-90.72032,42.2335],[-90.72032,42.22933],[-90.72449,42.22933],[-90.72449,42.21683],[-90.70782,42.21683],[-90.70782,42.2085],[-90.70365,42.2085],[-90.70365,42.20433],[-90.69948,42.20433],[-90.69948,42.17933],[-90.70365,42.17933],[-90.70365,42.17099],[-90.70782,42.17099],[-90.70782,42.17516],[-90.72449,42.17516],[-90.72449,42.17099],[-90.72865,42.17099],[-90.72865,42.16266],[-90.73282,42.16266],[-90.73282,42.15849],[-90.74115,42.15849],[-90.74115,42.15433],[-90.76616,42.15433],[-90.76616,42.14599],[-90.77449,42.14599],[-90.77449,42.14182],[-90.77866,42.14182],[-90.77866,42.14599],[-90.79949,42.14599],[-90.79949,42.15016],[-90.82033,42.15016],[-90.82033,42.15433],[-90.83283,42.15433],[-90.83283,42.15016],[-90.837,42.15016],[-90.837,42.15849],[-90.84116,42.15849],[-90.84116,42.16266],[-90.8495,42.16266],[-90.8495,42.17516],[-90.85366,42.17516],[-90.85366,42.17933],[-90.85783,42.17933],[-90.85783,42.18349],[-90.85366,42.18349],[-90.85366,42.18766],[-90.8495,42.18766],[-90.8495,42.19183],[-90.85366,42.19183],[-90.85366,42.20433],[-90.85783,42.20433],[-90.85783,42.2085],[-90.85366,42.2085],[-90.85366,42.21266],[-90.84533,42.21266],[-90.84533,42.22516],[-90.8495,42.22516],[-90.8495,42.22933],[-90.84533,42.22933],[-90.84533,42.23767],[-90.8495,42.23767],[-90.8495,42.25017],[-90.85783,42.25017],[-90.85783,42.25433],[-90.85366,42.25433],[-90.85366,42.2585],[-90.84116,42.2585],[-90.84116,42.271],[-90.837,42.271],[-90.837,42.2835],[-90.83283,42.2835],[-90.83283,42.29184],[-90.837,42.29184],[-90.837,42.30017],[-90.84116,42.30017],[-90.84116,42.30434],[-90.85366,42.30434],[-90.85366,42.31684],[-90.86616,42.31684],[-90.86616,42.32101],[-90.87033,42.32101],[-90.87033,42.33351],[-90.87866,42.33351],[-90.87866,42.33767],[-90.88283,42.33767],[-90.88283,42.35017],[-90.887,42.35017],[-90.887,42.35851],[-90.87866,42.35851],[-90.87866,42.36268],[-90.8745,42.36268],[-90.8745,42.36684],[-90.862,42.36684],[-90.862,42.37101],[-90.85783,42.37101],[-90.85783,42.37518],[-90.862,42.37518],[-90.862,42.38768],[-90.85783,42.38768],[-90.85783,42.39184],[-90.85366,42.39184],[-90.85366,42.40018],[-90.8495,42.40018],[-90.8495,42.40435],[-90.84116,42.40435],[-90.84116,42.40851],[-90.837,42.40851],[-90.837,42.42101],[-90.84116,42.42101],[-90.84116,42.42518],[-90.837,42.42518],[-90.837,42.42935],[-90.81616,42.42935],[-90.81616,42.43351],[-90.81199,42.43351],[-90.81199,42.42935],[-90.80783,42.42935],[-90.80783,42.41685],[-90.81199,42.41685],[-90.81199,42.41268],[-90.81616,42.41268],[-90.81616,42.40851],[-90.82449,42.40851],[-90.82449,42.39601],[-90.82033,42.39601],[-90.82033,42.39184],[-90.81616,42.39184],[-90.81616,42.37934],[-90.80783,42.37934],[-90.80783,42.37518],[-90.80366,42.37518],[-90.80366,42.37101],[-90.79949,42.37101],[-90.79949,42.37518],[-90.78699,42.37518],[-90.78699,42.38351],[-90.78282,42.38351],[-90.78282,42.38768],[-90.77449,42.38768],[-90.77449,42.39184],[-90.77032,42.39184],[-90.77032,42.39601],[-90.76199,42.39601],[-90.76199,42.40018],[-90.75782,42.40018],[-90.75782,42.40435],[-90.75365,42.40435],[-90.75365,42.40851],[-90.74949,42.40851],[-90.74949,42.41268],[-90.73699,42.41268],[-90.73699,42.41685],[-90.72449,42.41685],[-90.72449,42.41268],[-90.72032,42.41268],[-90.72032,42.40851],[-90.71198,42.40851],[-90.71198,42.40435],[-90.69532,42.40435],[-90.69532,42.40018],[-90.69115,42.40018],[-90.69115,42.39184],[-90.67865,42.39184],[-90.67865,42.39601],[-90.67032,42.39601],[-90.67032,42.40018],[-90.66615,42.40018],[-90.66615,42.38768],[-90.66198,42.38768],[-90.66198,42.38351],[-90.65781,42.38351],[-90.65781,42.37934],[-90.66198,42.37934],[-90.66198,42.36684],[-90.66615,42.36684],[-90.66615,42.35017],[-90.67032,42.35017],[-90.67032,42.34601],[-90.66615,42.34601],[-90.66615,42.32934],[-90.66198,42.32934],[-90.66198,42.32517],[-90.65365,42.32517],[-90.65365,42.32934],[-90.64531,42.32934],[-90.64531,42.31684],[-90.64948,42.31684],[-90.64948,42.31267],[-90.65365,42.31267],[-90.65365,42.3085],[-90.66198,42.3085],[-90.66198,42.30017],[-90.66615,42.30017],[-90.66615,42.30434],[-90.67032,42.30434],[-90.67032,42.296],[-90.68282,42.296],[-90.68282,42.29184],[-90.67865,42.29184],[-90.67865,42.26683],[-90.68698,42.26683],[-90.68698,42.246],[-90.69115,42.246]]]]}}]}