{"type":"FeatureCollection","features":[{"type":"Feature","properties":{},"geometry":{"type":"Polygon","coordinates":[[[-90.78393,42.14391],[-90.79058,42.14328],[-90.79271,42.14119],[-90.80107,42.1469],[-90.80545,42.14564],[-90.80822,42.14907],[-90.81309,42.14967],[-90.82398,42.15466],[-90.83848,42.15717],[-90.84364,42.16016],[-90.85138,42.16962],[-90.85033,42.17143],[-90.85471,42.17376],[-90.86025,42.17317],[-90.86328,42.17908],[-90.86632,42.18013],[-90.87322,42.17887],[-90.87509,42.18048],[-90.87896,42.18052],[-90.88324,42.17919],[-90.88809,42.18287],[-90.89451,42.1839],[-90.89678,42.18606],[-90.89923,42.18573],[-90.90194,42.18879],[-90.90574,42.1896],[-90.91058,42.19585],[-90.91586,42.19543],[-90.92251,42.19793],[-90.92191,42.20113],[-90.91668,42.2048],[-90.91533,42.21108],[-90.92087,42.21775],[-90.92552,42.217],[-90.93016,42.21864],[-90.9288,42.22095],[-90.93212,42.22402],[-90.93051,42.22679],[-90.93724,42.23209],[-90.93188,42.23694],[-90.92608,42.23759],[-90.92556,42.24008],[-90.93612,42.24146],[-90.93851,42.24364],[-90.93863,42.24596],[-90.94432,42.24666],[-90.94688,42.24535],[-90.95152,42.24946],[-90.95498,42.25024],[-90.95664,42.25303],[-90.97201,42.25449],[-90.97563,42.25856],[-90.975,42.25949],[-90.98058,42.26098],[-90.98203,42.26836],[-90.99123,42.27099],[-90.9921,42.27425],[-91.00045,42.27537],[-91.00102,42.27797],[-91.00901,42.27866],[-91.0114,42.28117],[-91.01731,42.28059],[-91.02339,42.28584],[-91.03154,42.28779],[-91.03492,42.2927],[-91.0476,42.29413],[-91.04998,42.29785],[-91.05454,42.2938],[-91.05986,42.29265],[-91.06019,42.2911],[-91.06661,42.29334],[-91.06732,42.29142],[-91.07503,42.28819],[-91.08182,42.29111],[-91.0893,42.28388],[-91.09537,42.28626],[-91.09615,42.28895],[-91.10048,42.29182],[-91.11449,42.29185],[-91.11945,42.28797],[-91.12609,42.28741],[-91.14303,42.2889],[-91.14325,42.2914],[-91.14926,42.29688],[-91.14858,42.29984],[-91.15468,42.31294],[-91.15682,42.31462],[-91.16087,42.31451],[-91.165,42.31746],[-91.16784,42.32497],[-91.17207,42.32595],[-91.17493,42.32894],[-91.17385,42.33133],[-91.17777,42.33528],[-91.19026,42.33812],[-91.19085,42.34014],[-91.19384,42.34152],[-91.19586,42.34649],[-91.2054,42.34932],[-91.20983,42.3491],[-91.21058,42.35045],[-91.21102,42.35317],[-91.2069,42.35337],[-91.20464,42.35527],[-91.18918,42.35586],[-91.19129,42.36501],[-91.18356,42.36544],[-91.17907,42.36945],[-91.17119,42.37184],[-91.1728,42.3766],[-91.17069,42.37822],[-91.17096,42.38043],[-91.17641,42.38374],[-91.17705,42.38651],[-91.17273,42.39246],[-91.17556,42.39718],[-91.17658,42.40436],[-91.18183,42.40905],[-91.1816,42.41272],[-91.17796,42.41479],[-91.17943,42.41689],[-91.16816,42.42145],[-91.17029,42.42594],[-91.1831,42.43301],[-91.18996,42.43916],[-91.18942,42.44216],[-91.19319,42.44654],[-91.19979,42.44866],[-91.20513,42.45526],[-91.20438,42.45677],[-91.20673,42.4602],[-91.20408,42.47167],[-91.20578,42.47401],[-91.20222,42.48073],[-91.19593,42.48131],[-91.19501,42.48396],[-91.20443,42.49318],[-91.20688,42.49837],[-91.21477,42.50135],[-91.21703,42.50602],[-91.22303,42.50867],[-91.22581,42.51424],[-91.22133,42.51825],[-91.22536,42.52914],[-91.22312,42.53221],[-91.21719,42.53556],[-91.21903,42.53855],[-91.21901,42.54331],[-91.22334,42.55017],[-91.22171,42.55534],[-91.22801,42.56014],[-91.23375,42.56077],[-91.23747,42.56364],[-91.24937,42.56464],[-91.25769,42.56204],[-91.26149,42.56535],[-91.26812,42.56564],[-91.27119,42.56924],[-91.27842,42.57112],[-91.27927,42.57491],[-91.27598,42.57678],[-91.27366,42.58149],[-91.26974,42.58153],[-91.26583,42.58417],[-91.25116,42.58222],[-91.2482,42.58394],[-91.24833,42.58588],[-91.24339,42.58812],[-91.23946,42.58503],[-91.21964,42.59126],[-91.219,42.59225],[-91.22181,42.59368],[-91.22202,42.59601],[-91.21941,42.59835],[-91.22048,42.59991],[-91.21899,42.603],[-91.22277,42.60623],[-91.22231,42.60837],[-91.22975,42.61503],[-91.22782,42.61706],[-91.22171,42.61737],[-91.22053,42.6206],[-91.21139,42.62483],[-91.20783,42.62051],[-91.20997,42.61659],[-91.20864,42.6107],[-91.2042,42.61041],[-91.20011,42.60695],[-91.20303,42.6003],[-91.20072,42.59811],[-91.19039,42.59703],[-91.1868,42.59168],[-91.17921,42.59489],[-91.17563,42.5933],[-91.17302,42.59572],[-91.1667,42.59694],[-91.16608,42.59844],[-91.1632,42.59767],[-91.15696,42.60225],[-91.15336,42.60119],[-91.15182,42.60246],[-91.15235,42.6069],[-91.14825,42.60599],[-91.14554,42.60761],[-91.13668,42.60334],[-91.12566,42.60181],[-91.12448,42.60047],[-91.1194,42.60234],[-91.10981,42.60251],[-91.1057,42.60177],[-91.1053,42.59958],[-91.10233,42.59888],[-91.09876,42.60061],[-91.0924,42.59863],[-91.09186,42.60218],[-91.08831,42.60439],[-91.08164,42.60495],[-91.08238,42.60807],[-91.07514,42.61145],[-91.07402,42.6189],[-91.07155,42.61792],[-91.06626,42.61915],[-91.06621,42.62506],[-91.06064,42.62696],[-91.05695,42.63089],[-91.05116,42.62728],[-91.04461,42.62827],[-91.04582,42.63033],[-91.0434,42.63494],[-91.03494,42.63607],[-91.03394,42.63689],[-91.03503,42.63843],[-91.03272,42.63881],[-91.03115,42.64149],[-91.02802,42.64177],[-91.02572,42.64502],[-91.01942,42.64786],[-91.01865,42.65147],[-91.01246,42.65111],[-91.00566,42.64721],[-91.00365,42.64955],[-90.99385,42.64959],[-90.98626,42.64539],[-90.98318,42.63974],[-90.97978,42.63815],[-90.98084,42.63491],[-90.98692,42.62941],[-90.98824,42.62533],[-90.97727,42.61682],[-90.98324,42.6127],[-90.98159,42.60811],[-90.98467,42.60738],[-90.98946,42.60116],[-90.99835,42.60081],[-91.00788,42.59484],[-91.00674,42.59134],[-91.01378,42.59081],[-91.01621,42.58768],[-91.01555,42.58657],[-91.02052,42.5841],[-91.02383,42.57612],[-91.02616,42.57555],[-91.02601,42.57434],[-91.01969,42.56957],[-91.02074,42.56864],[-91.01955,42.56454],[-91.01284,42.56282],[-91.00741,42.55665],[-91.00058,42.55429],[-90.99906,42.55058],[-90.99666,42.54907],[-90.99634,42.54613],[-90.9903,42.5402],[-90.9836,42.53712],[-90.97607,42.53695],[-90.97569,42.53359],[-90.9724,42.5307],[-90.96379,42.52868],[-90.95973,42.52369],[-90.96037,42.51995],[-90.96274,42.51929],[-90.97287,42.51948],[-90.97562,42.51727],[-90.98405,42.51818],[-90.98585,42.51604],[-90.98523,42.51204],[-90.99283,42.50857],[-90.99425,42.50645],[-90.99373,42.50362],[-90.99675,42.50198],[-90.99732,42.49973],[-91.01504,42.49653],[-91.01136,42.48972],[-91.01121,42.48321],[-91.0092,42.48045],[-91.01083,42.47991],[-91.01324,42.47321],[-91.0114,42.47072],[-91.01173,42.46577],[-91.01663,42.46272],[-91.02166,42.45029],[-91.01961,42.45009],[-91.01582,42.44605],[-91.01645,42.44495],[-91.0135,42.44309],[-90.99703,42.44021],[-90.98684,42.44316],[-90.97703,42.44239],[-90.97061,42.43973],[-90.96216,42.44061],[-90.96233,42.44236],[-90.95358,42.44409],[-90.95282,42.44828],[-90.93072,42.44475],[-90.92783,42.44788],[-90.92901,42.45074],[-90.91856,42.44791],[-90.90739,42.44989],[-90.90552,42.44804],[-90.89949,42.44833],[-90.89818,42.44565],[-90.8952,42.44565],[-90.89052,42.45434],[-90.88413,42.45623],[-90.86945,42.45592],[-90.86724,42.45971],[-90.86206,42.46037],[-90.85983,42.46364],[-90.84967,42.46482],[-90.85117,42.45833],[-90.84427,42.44848],[-90.83696,42.44792],[-90.8253,42.4516],[-90.82217,42.45124],[-90.81618,42.4471],[-90.81669,42.44562],[-90.81444,42.44433],[-90.80993,42.43651],[-90.81027,42.43467],[-90.80406,42.43075],[-90.80736,42.42776],[-90.81962,42.42412],[-90.82994,42.42372],[-90.82769,42.4145],[-90.82956,42.41302],[-90.82937,42.40931],[-90.82476,42.40444],[-90.82194,42.39873],[-90.82265,42.39759],[-90.81819,42.39231],[-90.81849,42.38897],[-90.81475,42.38641],[-90.81355,42.38249],[-90.79514,42.36832],[-90.78353,42.371],[-90.78176,42.37318],[-90.78376,42.37807],[-90.78108,42.38196],[-90.7741,42.384],[-90.76384,42.39393],[-90.75546,42.39573],[-90.75461,42.39947],[-90.7483,42.40029],[-90.75046,42.40417],[-90.74942,42.40742],[-90.74464,42.40982],[-90.73946,42.40955],[-90.7283,42.41467],[-90.72491,42.41425],[-90.721,42.41048],[-90.71517,42.41041],[-90.70741,42.40726],[-90.70061,42.40206],[-90.69136,42.40039],[-90.68771,42.39819],[-90.6856,42.39261],[-90.67975,42.3889],[-90.6783,42.38857],[-90.67132,42.39521],[-90.66648,42.39677],[-90.66235,42.39544],[-90.6604,42.39213],[-90.66356,42.38879],[-90.65683,42.38607],[-90.65909,42.38271],[-90.6555,42.37898],[-90.64982,42.37692],[-90.64907,42.37232],[-90.65655,42.36992],[-90.65652,42.36618],[-90.66424,42.35956],[-90.66359,42.35668],[-90.66584,42.35275],[-90.67408,42.34782],[-90.67436,42.34607],[-90.67026,42.34497],[-90.667,42.33943],[-90.66064,42.33652],[-90.66243,42.33351],[-90.6606,42.33221],[-90.66107,42.33037],[-90.66554,42.32773],[-90.6656,42.32603],[-90.66109,42.32247],[-90.65608,42.32367],[-90.65021,42.32095],[-90.64515,42.31527],[-90.64927,42.31106],[-90.6575,42.30721],[-90.66134,42.29866],[-90.66547,42.29748],[-90.66951,42.29254],[-90.67242,42.29293],[-90.67705,42.2899],[-90.67455,42.2856],[-90.67559,42.27989],[-90.67388,42.27795],[-90.67718,42.27378],[-90.67652,42.26668],[-90.68237,42.26351],[-90.67902,42.25451],[-90.68101,42.2507],[-90.67937,42.24985],[-90.68038,42.24534],[-90.67893,42.24134],[-90.68713,42.23953],[-90.6955,42.24041],[-90.70349,42.23372],[-90.70209,42.2313],[-90.70336,42.22965],[-90.71032,42.22866],[-90.71397,42.22214],[-90.72128,42.21943],[-90.71927,42.21693],[-90.71387,42.21589],[-90.70761,42.21003],[-90.70333,42.20906],[-90.70161,42.20689],[-90.70194,42.20327],[-90.69511,42.19655],[-90.69464,42.19389],[-90.69791,42.1902],[-90.69568,42.18772],[-90.6969,42.18569],[-90.6941,42.18474],[-90.6927,42.18092],[-90.6957,42.17929],[-90.69514,42.17296],[-90.70169,42.16866],[-90.70068,42.16754],[-90.70358,42.16309],[-90.70906,42.16104],[-90.70978,42.15812],[-90.71234,42.15794],[-90.71219,42.15354],[-90.71629,42.15072],[-90.72171,42.15171],[-90.72391,42.14984],[-90.73673,42.14817],[-90.74565,42.15095],[-90.75495,42.15175],[-90.76011,42.14627],[-90.77007,42.14223],[-90.77376,42.1389],[-90.78393,42.14391]]]}}]}