{"type":"FeatureCollection","features":[{"type":"Feature","properties":{},"geometry":{"type":"Polygon","coordinates":[[[-95.06105,40.74678],[-95.07064,40.74975],[-95.07447,40.74628],[-95.07796,40.74881],[-95.0866,40.75092],[-95.0869,40.75494],[-95.08453,40.75935],[-95.08035,40.76303],[-95.07627,40.76415],[-95.07379,40.77145],[-95.07477,40.77597],[-95.08115,40.77897],[-95.08177,40.78065],[-95.08157,40.78689],[-95.08391,40.79215],[-95.08226,40.79412],[-95.08147,40.80238],[-95.08662,40.80614],[-95.08762,40.81066],[-95.08436,40.81305],[-95.08639,40.82032],[-95.08171,40.82402],[-95.08075,40.82788],[-95.08025,40.83154],[-95.08158,40.83366],[-95.07955,40.83779],[-95.07944,40.84572],[-95.07492,40.84968],[-95.07522,40.85397],[-95.07986,40.85642],[-95.07384,40.86185],[-95.07269,40.8703],[-95.07782,40.87489],[-95.07071,40.88117],[-95.06436,40.87987],[-95.05581,40.88316],[-95.05398,40.8865],[-95.05333,40.8936],[-95.05817,40.89613],[-95.05939,40.90385],[-95.06156,40.90587],[-95.05484,40.90955],[-95.05445,40.91336],[-95.04593,40.92077],[-95.04772,40.9252],[-95.04265,40.92821],[-95.04032,40.93807],[-95.04545,40.94765],[-95.04486,40.95073],[-95.04992,40.956],[-95.06452,40.95826],[-95.06613,40.96013],[-95.06188,40.96747],[-95.06521,40.97055],[-95.06267,40.97377],[-95.06551,40.97705],[-95.06432,40.98426],[-95.06807,40.9883],[-95.06437,40.99852],[-95.06199,40.99824],[-95.05934,41.00044],[-95.06121,41.00321],[-95.05916,41.01032],[-95.05518,41.0119],[-95.05594,41.01504],[-95.05403,41.01725],[-95.0563,41.02046],[-95.05453,41.02391],[-95.05823,41.02612],[-95.05779,41.03081],[-95.05365,41.03347],[-95.0486,41.03434],[-95.04542,41.03913],[-95.04484,41.0448],[-95.04213,41.04583],[-95.04296,41.04808],[-95.04149,41.05078],[-95.04133,41.05465],[-95.04571,41.05649],[-95.04536,41.06415],[-95.04846,41.06389],[-95.05445,41.06682],[-95.05482,41.06869],[-95.05134,41.06956],[-95.04785,41.07588],[-95.05598,41.07937],[-95.0622,41.07855],[-95.06507,41.08003],[-95.06374,41.08705],[-95.06545,41.0906],[-95.06282,41.09536],[-95.05753,41.09794],[-95.05815,41.10412],[-95.05303,41.10657],[-95.05078,41.10951],[-95.05571,41.11908],[-95.04642,41.12839],[-95.04787,41.13],[-95.06331,41.13146],[-95.06575,41.13711],[-95.06174,41.1402],[-95.05781,41.14074],[-95.05839,41.14417],[-95.06429,41.15234],[-95.0628,41.15413],[-95.06295,41.15826],[-95.05911,41.15921],[-95.06019,41.16504],[-95.05741,41.16867],[-95.05929,41.17488],[-95.05697,41.17933],[-95.05918,41.18277],[-95.06272,41.1846],[-95.0635,41.18733],[-95.05937,41.19466],[-95.06132,41.19951],[-95.05915,41.2003],[-95.05885,41.20425],[-95.06281,41.20725],[-95.06103,41.21037],[-95.06238,41.21228],[-95.06031,41.21474],[-95.06144,41.218],[-95.05923,41.22414],[-95.06183,41.22644],[-95.05982,41.22822],[-95.06318,41.23538],[-95.06311,41.23953],[-95.05772,41.24051],[-95.0564,41.2445],[-95.05733,41.2482],[-95.05233,41.25144],[-95.05321,41.25756],[-95.05689,41.26165],[-95.05014,41.26495],[-95.05008,41.26873],[-95.05251,41.27076],[-95.04995,41.27359],[-95.05087,41.2801],[-95.04425,41.28744],[-95.04447,41.28887],[-95.0492,41.2908],[-95.04849,41.29589],[-95.04413,41.29747],[-95.03426,41.29413],[-95.02574,41.29599],[-95.02174,41.29371],[-95.01686,41.29351],[-95.0048,41.29892],[-94.99922,41.305],[-94.99477,41.30293],[-94.98228,41.30445],[-94.97298,41.30242],[-94.96211,41.30267],[-94.95324,41.29985],[-94.94669,41.3024],[-94.93961,41.30924],[-94.93472,41.30741],[-94.93041,41.30778],[-94.92659,41.31021],[-94.92371,41.30991],[-94.92308,41.30692],[-94.91928,41.30627],[-94.91713,41.30402],[-94.92078,41.30018],[-94.91994,41.2991],[-94.90839,41.29665],[-94.90496,41.29761],[-94.90338,41.30127],[-94.90463,41.30257],[-94.90403,41.30523],[-94.89697,41.30885],[-94.89003,41.30791],[-94.88863,41.30992],[-94.88547,41.30771],[-94.87686,41.31679],[-94.87482,41.32047],[-94.87569,41.32213],[-94.87317,41.32386],[-94.86575,41.32121],[-94.85754,41.3234],[-94.85464,41.32823],[-94.84415,41.33558],[-94.84607,41.34155],[-94.82246,41.33931],[-94.809,41.34481],[-94.80916,41.34789],[-94.80658,41.35043],[-94.80815,41.35283],[-94.80713,41.35629],[-94.80882,41.35732],[-94.80957,41.36138],[-94.80686,41.36384],[-94.80614,41.36806],[-94.80174,41.37228],[-94.79196,41.3765],[-94.78669,41.38159],[-94.78717,41.3958],[-94.78196,41.4046],[-94.77408,41.40547],[-94.77207,41.40704],[-94.76793,41.4059],[-94.75938,41.40746],[-94.75565,41.40663],[-94.75125,41.41367],[-94.7523,41.41675],[-94.74592,41.41792],[-94.7435,41.42215],[-94.74041,41.42242],[-94.74005,41.42759],[-94.73579,41.42944],[-94.73084,41.43656],[-94.72767,41.43799],[-94.72812,41.44214],[-94.71849,41.44355],[-94.71199,41.4463],[-94.7125,41.4491],[-94.70908,41.45295],[-94.70867,41.45722],[-94.70227,41.45689],[-94.69058,41.46145],[-94.68261,41.45723],[-94.67377,41.46544],[-94.67409,41.46786],[-94.66601,41.47042],[-94.66177,41.47604],[-94.65119,41.47988],[-94.64784,41.48358],[-94.6419,41.48614],[-94.63755,41.48571],[-94.63123,41.47871],[-94.62538,41.47861],[-94.62171,41.48098],[-94.61811,41.47987],[-94.60782,41.46957],[-94.60837,41.46508],[-94.61251,41.4586],[-94.60079,41.45656],[-94.59401,41.45306],[-94.59122,41.44902],[-94.57916,41.44739],[-94.57789,41.44619],[-94.57964,41.44232],[-94.57412,41.43907],[-94.56609,41.43909],[-94.564,41.44201],[-94.55573,41.44506],[-94.5549,41.44876],[-94.5532,41.44908],[-94.55504,41.45538],[-94.5538,41.45681],[-94.55445,41.4596],[-94.55042,41.46223],[-94.54525,41.46012],[-94.54337,41.45374],[-94.54005,41.45432],[-94.53618,41.45081],[-94.53681,41.44745],[-94.53067,41.44142],[-94.53149,41.43786],[-94.52918,41.43621],[-94.52982,41.43322],[-94.52571,41.43247],[-94.5236,41.42949],[-94.52354,41.42595],[-94.52045,41.42409],[-94.51945,41.42033],[-94.50485,41.41236],[-94.50586,41.40711],[-94.50338,41.40297],[-94.50468,41.3954],[-94.50135,41.38688],[-94.49954,41.38686],[-94.49794,41.38251],[-94.49024,41.3751],[-94.48994,41.37306],[-94.49193,41.37096],[-94.48212,41.36658],[-94.48153,41.36409],[-94.47766,41.36221],[-94.4695,41.36384],[-94.46537,41.36233],[-94.45573,41.36448],[-94.44959,41.36634],[-94.4472,41.36947],[-94.44042,41.36861],[-94.4378,41.36682],[-94.43848,41.36237],[-94.43401,41.35874],[-94.43482,41.35473],[-94.43952,41.35372],[-94.44103,41.35185],[-94.43873,41.34819],[-94.43943,41.34185],[-94.43567,41.33865],[-94.44018,41.33288],[-94.43974,41.32825],[-94.44342,41.32508],[-94.43854,41.31697],[-94.44521,41.30955],[-94.45241,41.31071],[-94.46269,41.3028],[-94.4618,41.29481],[-94.46435,41.2929],[-94.46412,41.29087],[-94.45871,41.28694],[-94.45878,41.28372],[-94.47845,41.27538],[-94.471,41.26852],[-94.4693,41.26482],[-94.47006,41.26268],[-94.47839,41.25803],[-94.48861,41.25629],[-94.49132,41.24997],[-94.49446,41.24857],[-94.49434,41.24618],[-94.50127,41.2398],[-94.50667,41.23846],[-94.51133,41.23985],[-94.52497,41.23305],[-94.52425,41.22553],[-94.53058,41.2195],[-94.53241,41.2149],[-94.5402,41.21467],[-94.54372,41.20887],[-94.54816,41.20918],[-94.54963,41.20211],[-94.55271,41.20103],[-94.55294,41.19879],[-94.55033,41.19728],[-94.55079,41.19522],[-94.54898,41.1927],[-94.55496,41.18809],[-94.55129,41.18268],[-94.55163,41.181],[-94.56989,41.17134],[-94.57304,41.16739],[-94.57183,41.16367],[-94.57458,41.1622],[-94.58331,41.16214],[-94.58572,41.15785],[-94.58839,41.15684],[-94.58749,41.14772],[-94.59179,41.14648],[-94.5954,41.14766],[-94.60196,41.14493],[-94.60842,41.14634],[-94.61642,41.14086],[-94.62258,41.1406],[-94.61803,41.13412],[-94.6293,41.12835],[-94.63625,41.12794],[-94.63812,41.12409],[-94.64359,41.12176],[-94.64536,41.12248],[-94.64724,41.12038],[-94.66333,41.11986],[-94.66565,41.11678],[-94.66616,41.10961],[-94.66824,41.10759],[-94.67536,41.10699],[-94.68686,41.10255],[-94.69218,41.10212],[-94.69613,41.09877],[-94.6987,41.09868],[-94.70218,41.10258],[-94.70653,41.10075],[-94.71299,41.10242],[-94.71399,41.09654],[-94.71799,41.09527],[-94.71962,41.08994],[-94.72507,41.09102],[-94.72836,41.08508],[-94.73492,41.08415],[-94.7348,41.08253],[-94.73858,41.0807],[-94.73862,41.07856],[-94.74777,41.07007],[-94.75288,41.071],[-94.76516,41.06383],[-94.77019,41.06386],[-94.77087,41.05796],[-94.77517,41.05562],[-94.77432,41.05399],[-94.77769,41.05193],[-94.77815,41.04986],[-94.78449,41.04846],[-94.78543,41.04307],[-94.78932,41.03939],[-94.78973,41.03672],[-94.79447,41.03367],[-94.79412,41.03194],[-94.80211,41.02991],[-94.81068,41.03129],[-94.8131,41.02988],[-94.81484,41.02724],[-94.81259,41.02487],[-94.81226,41.02126],[-94.81426,41.01853],[-94.81384,41.01444],[-94.8184,41.00978],[-94.83122,41.00805],[-94.8362,41.01062],[-94.83909,41.01011],[-94.8429,41.00028],[-94.84611,40.99812],[-94.85023,40.99927],[-94.85358,41.00355],[-94.86193,40.99826],[-94.87014,41.00235],[-94.87557,40.99778],[-94.87579,40.99364],[-94.87988,40.99234],[-94.89137,40.99334],[-94.89497,40.98766],[-94.89548,40.98363],[-94.89677,40.98365],[-94.89928,40.97823],[-94.9025,40.97662],[-94.9014,40.97511],[-94.90353,40.97329],[-94.90371,40.97023],[-94.90774,40.96919],[-94.91388,40.96335],[-94.91695,40.96291],[-94.92192,40.95446],[-94.92212,40.94172],[-94.92834,40.93691],[-94.93243,40.92492],[-94.93778,40.92172],[-94.93801,40.91838],[-94.94367,40.91144],[-94.94363,40.90765],[-94.94637,40.90521],[-94.93749,40.89844],[-94.93888,40.89006],[-94.94123,40.88883],[-94.93939,40.88027],[-94.94154,40.8682],[-94.93978,40.86551],[-94.94094,40.85929],[-94.93819,40.85525],[-94.94059,40.8501],[-94.93959,40.84892],[-94.94186,40.8465],[-94.93765,40.84031],[-94.93945,40.83744],[-94.94273,40.83768],[-94.94459,40.83152],[-94.95002,40.82835],[-94.95514,40.82197],[-94.95652,40.81544],[-94.95518,40.81395],[-94.95727,40.81048],[-94.95664,40.80645],[-94.96696,40.80282],[-94.96533,40.80112],[-94.96571,40.79699],[-94.96995,40.7894],[-94.96633,40.7812],[-94.97012,40.77815],[-94.97054,40.77387],[-94.9741,40.76966],[-94.97398,40.76766],[-94.97977,40.76431],[-94.98077,40.76029],[-94.98597,40.75795],[-94.9886,40.75493],[-94.98768,40.75285],[-94.99059,40.74992],[-94.99234,40.74284],[-94.99092,40.73428],[-94.99466,40.73136],[-94.9923,40.72849],[-94.99418,40.72397],[-94.99796,40.72198],[-95.00667,40.72092],[-95.01935,40.70526],[-95.02188,40.70915],[-95.02946,40.71182],[-95.03454,40.71809],[-95.03311,40.72017],[-95.03733,40.72337],[-95.04568,40.72497],[-95.04563,40.73097],[-95.05615,40.73796],[-95.05794,40.74026],[-95.05626,40.74212],[-95.06105,40.74678]]]}}]}