{"type":"FeatureCollection","features":[{"type":"Feature","properties":{},"geometry":{"type":"Polygon","coordinates":[[[-93.42054,42.52102],[-93.42054,42.51685],[-93.4247,42.51685],[-93.4247,42.51269],[-93.42887,42.51269],[-93.42887,42.50852],[-93.43304,42.50852],[-93.43304,42.50435],[-93.4372,42.50435],[-93.4372,42.49185],[-93.44137,42.49185],[-93.44137,42.48352],[-93.44554,42.48352],[-93.44554,42.47935],[-93.45387,42.47935],[-93.45387,42.44602],[-93.45804,42.44602],[-93.45804,42.43351],[-93.4622,42.43351],[-93.4622,42.42518],[-93.47054,42.42518],[-93.47054,42.42935],[-93.47471,42.42935],[-93.47471,42.43351],[-93.47887,42.43351],[-93.47887,42.44602],[-93.49137,42.44602],[-93.49137,42.45018],[-93.49554,42.45018],[-93.49554,42.45852],[-93.49971,42.45852],[-93.49971,42.46268],[-93.50387,42.46268],[-93.50387,42.45852],[-93.51221,42.45852],[-93.51221,42.46268],[-93.52054,42.46268],[-93.52054,42.46685],[-93.53304,42.46685],[-93.53304,42.47102],[-93.53721,42.47102],[-93.53721,42.47518],[-93.54138,42.47518],[-93.54138,42.47935],[-93.55388,42.47935],[-93.55388,42.46685],[-93.55805,42.46685],[-93.55805,42.44185],[-93.56221,42.44185],[-93.56221,42.43768],[-93.55805,42.43768],[-93.55805,42.43351],[-93.56221,42.43351],[-93.56221,42.42935],[-93.56638,42.42935],[-93.56638,42.40851],[-93.57055,42.40851],[-93.57055,42.40018],[-93.56638,42.40018],[-93.56638,42.39601],[-93.56221,42.39601],[-93.56221,42.38768],[-93.54554,42.38768],[-93.54554,42.39184],[-93.54138,42.39184],[-93.54138,42.38351],[-93.52888,42.38351],[-93.52888,42.37934],[-93.52471,42.37934],[-93.52471,42.37518],[-93.49971,42.37518],[-93.49971,42.37101],[-93.49554,42.37101],[-93.49554,42.36684],[-93.49137,42.36684],[-93.49137,42.35851],[-93.48304,42.35851],[-93.48304,42.35434],[-93.4622,42.35434],[-93.4622,42.35017],[-93.45804,42.35017],[-93.45804,42.35434],[-93.4497,42.35434],[-93.4497,42.35017],[-93.43304,42.35017],[-93.43304,42.35851],[-93.4247,42.35851],[-93.4247,42.36268],[-93.42054,42.36268],[-93.42054,42.36684],[-93.41637,42.36684],[-93.41637,42.37101],[-93.4122,42.37101],[-93.4122,42.37518],[-93.3872,42.37518],[-93.3872,42.36268],[-93.38303,42.36268],[-93.38303,42.35851],[-93.3747,42.35851],[-93.3747,42.35434],[-93.37053,42.35434],[-93.37053,42.35851],[-93.36636,42.35851],[-93.36636,42.35434],[-93.3622,42.35434],[-93.3622,42.35017],[-93.35803,42.35017],[-93.35803,42.33767],[-93.3497,42.33767],[-93.3497,42.33351],[-93.33719,42.33351],[-93.33719,42.33767],[-93.32053,42.33767],[-93.32053,42.32934],[-93.30803,42.32934],[-93.30803,42.32517],[-93.29552,42.32517],[-93.29552,42.32101],[-93.28719,42.32101],[-93.28719,42.3085],[-93.28302,42.3085],[-93.28302,42.30434],[-93.27886,42.30434],[-93.27886,42.3085],[-93.27052,42.3085],[-93.27052,42.31267],[-93.26219,42.31267],[-93.26219,42.3085],[-93.23719,42.3085],[-93.23719,42.30434],[-93.21218,42.30434],[-93.21218,42.30017],[-93.20802,42.30017],[-93.20802,42.30434],[-93.19135,42.30434],[-93.19135,42.30017],[-93.18718,42.30017],[-93.18718,42.296],[-93.18302,42.296],[-93.18302,42.29184],[-93.17468,42.29184],[-93.17468,42.296],[-93.16635,42.296],[-93.16635,42.30017],[-93.16218,42.30017],[-93.16218,42.30434],[-93.16635,42.30434],[-93.16635,42.3085],[-93.16218,42.3085],[-93.16218,42.31267],[-93.15801,42.31267],[-93.15801,42.31684],[-93.15385,42.31684],[-93.15385,42.32101],[-93.15801,42.32101],[-93.15801,42.32934],[-93.15385,42.32934],[-93.15385,42.33351],[-93.15801,42.33351],[-93.15801,42.33767],[-93.16218,42.33767],[-93.16218,42.34601],[-93.16635,42.34601],[-93.16635,42.35017],[-93.17051,42.35017],[-93.17051,42.34601],[-93.17468,42.34601],[-93.17468,42.35017],[-93.18302,42.35017],[-93.18302,42.35434],[-93.18718,42.35434],[-93.18718,42.35851],[-93.19552,42.35851],[-93.19552,42.36268],[-93.19968,42.36268],[-93.19968,42.36684],[-93.20385,42.36684],[-93.20385,42.37101],[-93.20802,42.37101],[-93.20802,42.37518],[-93.21218,42.37518],[-93.21218,42.37934],[-93.21635,42.37934],[-93.21635,42.38351],[-93.22469,42.38351],[-93.22469,42.38768],[-93.23719,42.38768],[-93.23719,42.39184],[-93.24135,42.39184],[-93.24135,42.39601],[-93.24552,42.39601],[-93.24552,42.40435],[-93.25802,42.40435],[-93.25802,42.41268],[-93.26636,42.41268],[-93.26636,42.42101],[-93.27052,42.42101],[-93.27052,42.42935],[-93.27469,42.42935],[-93.27469,42.43768],[-93.27886,42.43768],[-93.27886,42.44185],[-93.28302,42.44185],[-93.28302,42.44602],[-93.28719,42.44602],[-93.28719,42.45018],[-93.29552,42.45018],[-93.29552,42.45435],[-93.30386,42.45435],[-93.30386,42.45852],[-93.30803,42.45852],[-93.30803,42.46268],[-93.32053,42.46268],[-93.32053,42.46685],[-93.32469,42.46685],[-93.32469,42.47102],[-93.33719,42.47102],[-93.33719,42.47518],[-93.34553,42.47518],[-93.34553,42.47935],[-93.3497,42.47935],[-93.3497,42.48352],[-93.35803,42.48352],[-93.35803,42.48769],[-93.36636,42.48769],[-93.36636,42.49185],[-93.3747,42.49185],[-93.3747,42.49602],[-93.37053,42.49602],[-93.37053,42.50019],[-93.3747,42.50019],[-93.3747,42.50852],[-93.38303,42.50852],[-93.38303,42.51269],[-93.3872,42.51269],[-93.3872,42.51685],[-93.3997,42.51685],[-93.3997,42.51269],[-93.40387,42.51269],[-93.40387,42.51685],[-93.4122,42.51685],[-93.4122,42.52102],[-93.42054,42.52102]]]}}]}