{"type":"FeatureCollection","features":[{"type":"Feature","properties":{},"geometry":{"type":"Polygon","coordinates":[[[-93.87474,43.16274],[-93.87474,43.15857],[-93.87891,43.15857],[-93.87891,43.15441],[-93.89141,43.15441],[-93.89141,43.15857],[-93.90391,43.15857],[-93.90391,43.15441],[-93.91641,43.15441],[-93.91641,43.15024],[-93.92474,43.15024],[-93.92474,43.15441],[-93.93724,43.15441],[-93.93724,43.15024],[-93.94558,43.15024],[-93.94558,43.14607],[-93.95391,43.14607],[-93.95391,43.1419],[-93.95808,43.1419],[-93.95808,43.13357],[-93.96224,43.13357],[-93.96224,43.12107],[-93.97058,43.12107],[-93.97058,43.1169],[-93.98308,43.1169],[-93.98308,43.11274],[-93.98725,43.11274],[-93.98725,43.10857],[-93.99141,43.10857],[-93.99141,43.11274],[-93.99558,43.11274],[-93.99558,43.1169],[-93.99975,43.1169],[-93.99975,43.12107],[-94.00808,43.12107],[-94.00808,43.1169],[-94.01225,43.1169],[-94.01225,43.12107],[-94.02058,43.12107],[-94.02058,43.1169],[-94.03308,43.1169],[-94.03308,43.10857],[-94.04559,43.10857],[-94.04559,43.1044],[-94.04975,43.1044],[-94.04975,43.10023],[-94.05392,43.10023],[-94.05392,43.0919],[-94.06642,43.0919],[-94.06642,43.08773],[-94.07892,43.08773],[-94.07892,43.0669],[-94.09559,43.0669],[-94.09559,43.06273],[-94.10392,43.06273],[-94.10392,43.04606],[-94.10809,43.04606],[-94.10809,43.0419],[-94.14143,43.0419],[-94.14143,43.0294],[-94.14559,43.0294],[-94.14559,43.02523],[-94.14976,43.02523],[-94.14976,43.01689],[-94.15393,43.01689],[-94.15393,43.01273],[-94.14976,43.01273],[-94.14976,43.00023],[-94.14559,43.00023],[-94.14559,42.98356],[-94.14976,42.98356],[-94.14976,42.97106],[-94.14559,42.97106],[-94.14559,42.96689],[-94.14143,42.96689],[-94.14143,42.96272],[-94.13726,42.96272],[-94.13726,42.94606],[-94.13309,42.94606],[-94.13309,42.94189],[-94.12892,42.94189],[-94.12892,42.92939],[-94.12059,42.92939],[-94.12059,42.92522],[-94.10809,42.92522],[-94.10809,42.92105],[-94.10392,42.92105],[-94.10392,42.92522],[-94.09142,42.92522],[-94.09142,42.90022],[-94.09559,42.90022],[-94.09559,42.88355],[-94.09976,42.88355],[-94.09976,42.87938],[-94.10392,42.87938],[-94.10392,42.87105],[-94.10809,42.87105],[-94.10809,42.86688],[-94.10392,42.86688],[-94.10392,42.86272],[-94.10809,42.86272],[-94.10809,42.85855],[-94.11226,42.85855],[-94.11226,42.84605],[-94.09976,42.84605],[-94.09976,42.83771],[-94.09559,42.83771],[-94.09559,42.83355],[-94.08725,42.83355],[-94.08725,42.82938],[-94.07059,42.82938],[-94.07059,42.83355],[-94.05809,42.83355],[-94.05809,42.82938],[-94.04975,42.82938],[-94.04975,42.82521],[-94.03725,42.82521],[-94.03725,42.82938],[-94.02475,42.82938],[-94.02475,42.80854],[-94.02058,42.80854],[-94.02058,42.80021],[-94.01642,42.80021],[-94.01642,42.79604],[-94.02058,42.79604],[-94.02058,42.78771],[-94.01642,42.78771],[-94.01642,42.78354],[-94.00808,42.78354],[-94.00808,42.77938],[-94.01225,42.77938],[-94.01225,42.76687],[-94.01642,42.76687],[-94.01642,42.76271],[-94.01225,42.76271],[-94.01225,42.75021],[-94.00808,42.75021],[-94.00808,42.74604],[-94.00391,42.74604],[-94.00391,42.73771],[-93.99975,42.73771],[-93.99975,42.73354],[-93.99558,42.73354],[-93.99558,42.7252],[-93.99141,42.7252],[-93.99141,42.72104],[-93.98725,42.72104],[-93.98725,42.7127],[-93.99141,42.7127],[-93.99141,42.7002],[-93.99975,42.7002],[-93.99975,42.69604],[-94.01225,42.69604],[-94.01225,42.69187],[-94.01642,42.69187],[-94.01642,42.68353],[-94.03308,42.68353],[-94.03308,42.65853],[-94.02475,42.65853],[-94.02475,42.65437],[-94.02058,42.65437],[-94.02058,42.6502],[-94.02475,42.6502],[-94.02475,42.64603],[-94.02058,42.64603],[-94.02058,42.60436],[-94.01642,42.60436],[-94.01642,42.60853],[-93.99558,42.60853],[-93.99558,42.59603],[-93.99975,42.59603],[-93.99975,42.59186],[-93.99141,42.59186],[-93.99141,42.57519],[-93.97891,42.57519],[-93.97891,42.57103],[-93.97058,42.57103],[-93.97058,42.56269],[-93.96641,42.56269],[-93.96641,42.54602],[-93.97058,42.54602],[-93.97058,42.54186],[-93.96224,42.54186],[-93.96224,42.54602],[-93.95808,42.54602],[-93.95808,42.54186],[-93.95391,42.54186],[-93.95391,42.54602],[-93.93308,42.54602],[-93.93308,42.54186],[-93.92891,42.54186],[-93.92891,42.53769],[-93.92057,42.53769],[-93.92057,42.53352],[-93.91224,42.53352],[-93.91224,42.52936],[-93.90807,42.52936],[-93.90807,42.52519],[-93.89974,42.52519],[-93.89974,42.52102],[-93.89557,42.52102],[-93.89557,42.51685],[-93.89141,42.51685],[-93.89141,42.50852],[-93.88724,42.50852],[-93.88724,42.49602],[-93.87474,42.49602],[-93.87474,42.49185],[-93.87057,42.49185],[-93.87057,42.48769],[-93.8664,42.48769],[-93.8664,42.47935],[-93.86224,42.47935],[-93.86224,42.47518],[-93.8539,42.47518],[-93.8539,42.47102],[-93.84557,42.47102],[-93.84557,42.46685],[-93.83307,42.46685],[-93.83307,42.47102],[-93.8289,42.47102],[-93.8289,42.47518],[-93.82057,42.47518],[-93.82057,42.48352],[-93.8164,42.48352],[-93.8164,42.49185],[-93.82057,42.49185],[-93.82057,42.49602],[-93.82473,42.49602],[-93.82473,42.50019],[-93.8289,42.50019],[-93.8289,42.50435],[-93.82473,42.50435],[-93.82473,42.51685],[-93.8164,42.51685],[-93.8164,42.52102],[-93.81223,42.52102],[-93.81223,42.53769],[-93.8164,42.53769],[-93.8164,42.54186],[-93.81223,42.54186],[-93.81223,42.54602],[-93.80807,42.54602],[-93.80807,42.55019],[-93.8039,42.55019],[-93.8039,42.55852],[-93.80807,42.55852],[-93.80807,42.57103],[-93.8039,42.57103],[-93.8039,42.57519],[-93.79973,42.57519],[-93.79973,42.58353],[-93.80807,42.58353],[-93.80807,42.65437],[-93.7914,42.65437],[-93.7914,42.67937],[-93.7789,42.67937],[-93.7789,42.6752],[-93.7664,42.6752],[-93.7664,42.69187],[-93.77056,42.69187],[-93.77056,42.69604],[-93.77473,42.69604],[-93.77473,42.7002],[-93.7664,42.7002],[-93.7664,42.70437],[-93.76223,42.70437],[-93.76223,42.70854],[-93.75806,42.70854],[-93.75806,42.72104],[-93.75389,42.72104],[-93.75389,42.7252],[-93.74973,42.7252],[-93.74973,42.72937],[-93.75389,42.72937],[-93.75389,42.73354],[-93.74973,42.73354],[-93.74973,42.74187],[-93.74556,42.74187],[-93.74556,42.74604],[-93.74139,42.74604],[-93.74139,42.75021],[-93.72889,42.75021],[-93.72889,42.74187],[-93.72473,42.74187],[-93.72473,42.73771],[-93.72056,42.73771],[-93.72056,42.73354],[-93.71639,42.73354],[-93.71639,42.74604],[-93.70389,42.74604],[-93.70389,42.75021],[-93.69972,42.75021],[-93.69972,42.75437],[-93.69556,42.75437],[-93.69556,42.75854],[-93.69139,42.75854],[-93.69139,42.76271],[-93.69556,42.76271],[-93.69556,42.77521],[-93.69972,42.77521],[-93.69972,42.78354],[-93.70389,42.78354],[-93.70389,42.79188],[-93.70806,42.79188],[-93.70806,42.80021],[-93.70389,42.80021],[-93.70389,42.80854],[-93.69972,42.80854],[-93.69972,42.81688],[-93.70389,42.81688],[-93.70389,42.84605],[-93.70806,42.84605],[-93.70806,42.85021],[-93.69556,42.85021],[-93.69556,42.85855],[-93.68722,42.85855],[-93.68722,42.87105],[-93.68306,42.87105],[-93.68306,42.87522],[-93.68722,42.87522],[-93.68722,42.88355],[-93.69139,42.88355],[-93.69139,42.89188],[-93.72473,42.89188],[-93.72473,42.88772],[-93.73306,42.88772],[-93.73306,42.90855],[-93.72889,42.90855],[-93.72889,42.92522],[-93.73306,42.92522],[-93.73306,42.95022],[-93.74139,42.95022],[-93.74139,42.95856],[-93.74556,42.95856],[-93.74556,42.97522],[-93.74973,42.97522],[-93.74973,42.98773],[-93.74556,42.98773],[-93.74556,42.99606],[-93.74973,42.99606],[-93.74973,43.00023],[-93.75389,43.00023],[-93.75389,43.00439],[-93.75806,43.00439],[-93.75806,43.03356],[-93.76223,43.03356],[-93.76223,43.0419],[-93.7664,43.0419],[-93.7664,43.04606],[-93.77056,43.04606],[-93.77056,43.0544],[-93.77473,43.0544],[-93.77473,43.05856],[-93.7789,43.05856],[-93.7789,43.06273],[-93.78306,43.06273],[-93.78306,43.07523],[-93.78723,43.07523],[-93.78723,43.08357],[-93.7914,43.08357],[-93.7914,43.08773],[-93.79556,43.08773],[-93.79556,43.09607],[-93.8039,43.09607],[-93.8039,43.1044],[-93.80807,43.1044],[-93.80807,43.10857],[-93.81223,43.10857],[-93.81223,43.11274],[-93.82057,43.11274],[-93.82057,43.1169],[-93.82473,43.1169],[-93.82473,43.12107],[-93.83723,43.12107],[-93.83723,43.12524],[-93.8414,43.12524],[-93.8414,43.1294],[-93.84557,43.1294],[-93.84557,43.13774],[-93.8539,43.13774],[-93.8539,43.1419],[-93.84974,43.1419],[-93.84974,43.14607],[-93.85807,43.14607],[-93.85807,43.15024],[-93.86224,43.15024],[-93.86224,43.15857],[-93.87057,43.15857],[-93.87057,43.16274],[-93.87474,43.16274]]]}}]}