{"type":"FeatureCollection","features":[{"type":"Feature","properties":{},"geometry":{"type":"Polygon","coordinates":[[[-92.1871,42.07932],[-92.1871,42.05432],[-92.2121,42.05432],[-92.2121,42.05015],[-92.22461,42.05015],[-92.22461,42.04598],[-92.23294,42.04598],[-92.23294,42.05015],[-92.23711,42.05015],[-92.23711,42.04598],[-92.26211,42.04598],[-92.26211,42.04182],[-92.29545,42.04182],[-92.29545,42.03765],[-92.29128,42.03765],[-92.29128,42.03348],[-92.28294,42.03348],[-92.28294,42.02932],[-92.27878,42.02932],[-92.27878,42.01681],[-92.26628,42.01681],[-92.26628,42.01265],[-92.26211,42.01265],[-92.26211,42.00015],[-92.26628,42.00015],[-92.26628,41.99181],[-92.27044,41.99181],[-92.27044,41.98765],[-92.26628,41.98765],[-92.26628,41.97931],[-92.24544,41.97931],[-92.24544,41.98348],[-92.24127,41.98348],[-92.24127,41.97514],[-92.23294,41.97514],[-92.23294,41.96681],[-92.22877,41.96681],[-92.22877,41.95848],[-92.23294,41.95848],[-92.23294,41.95431],[-92.22877,41.95431],[-92.22877,41.93764],[-92.22044,41.93764],[-92.22044,41.93347],[-92.2121,41.93347],[-92.2121,41.92931],[-92.20377,41.92931],[-92.20377,41.93347],[-92.1871,41.93347],[-92.1871,41.92514],[-92.18294,41.92514],[-92.18294,41.91681],[-92.1871,41.91681],[-92.1871,41.90431],[-92.16627,41.90431],[-92.16627,41.90014],[-92.15377,41.90014],[-92.15377,41.89597],[-92.14127,41.89597],[-92.14127,41.8918],[-92.12043,41.8918],[-92.12043,41.90014],[-92.1121,41.90014],[-92.1121,41.89597],[-92.09126,41.89597],[-92.09126,41.90014],[-92.08293,41.90014],[-92.08293,41.89597],[-92.06626,41.89597],[-92.06626,41.8793],[-92.04542,41.8793],[-92.04542,41.87514],[-92.01626,41.87514],[-92.01626,41.87097],[-91.99125,41.87097],[-91.99125,41.87514],[-91.97042,41.87514],[-91.97042,41.87097],[-91.96625,41.87097],[-91.96625,41.8793],[-91.96209,41.8793],[-91.96209,41.88347],[-91.95375,41.88347],[-91.95375,41.88764],[-91.94958,41.88764],[-91.94958,41.88347],[-91.94125,41.88347],[-91.94125,41.88764],[-91.92875,41.88764],[-91.92875,41.88347],[-91.92041,41.88347],[-91.92041,41.88764],[-91.90791,41.88764],[-91.90791,41.88347],[-91.89958,41.88347],[-91.89958,41.8793],[-91.89541,41.8793],[-91.89541,41.88764],[-91.88291,41.88764],[-91.88291,41.8918],[-91.87874,41.8918],[-91.87874,41.89597],[-91.87458,41.89597],[-91.87458,41.90014],[-91.85791,41.90014],[-91.85791,41.90431],[-91.84124,41.90431],[-91.84124,41.90014],[-91.82457,41.90014],[-91.82457,41.90431],[-91.81624,41.90431],[-91.81624,41.90014],[-91.80791,41.90014],[-91.80791,41.89597],[-91.80374,41.89597],[-91.80374,41.90014],[-91.79957,41.90014],[-91.79957,41.90847],[-91.79541,41.90847],[-91.79541,41.91264],[-91.79124,41.91264],[-91.79124,41.90847],[-91.78707,41.90847],[-91.78707,41.91264],[-91.7829,41.91264],[-91.7829,41.91681],[-91.77457,41.91681],[-91.77457,41.92097],[-91.7704,41.92097],[-91.7704,41.92931],[-91.76624,41.92931],[-91.76624,41.93764],[-91.7704,41.93764],[-91.7704,41.94181],[-91.77874,41.94181],[-91.77874,41.96264],[-91.78707,41.96264],[-91.78707,41.95848],[-91.80791,41.95848],[-91.80791,41.95431],[-91.81207,41.95431],[-91.81207,41.95014],[-91.81624,41.95014],[-91.81624,41.94598],[-91.82874,41.94598],[-91.82874,41.94181],[-91.84124,41.94181],[-91.84124,41.93764],[-91.84958,41.93764],[-91.84958,41.94181],[-91.85374,41.94181],[-91.85374,41.94598],[-91.85791,41.94598],[-91.85791,41.95014],[-91.86624,41.95014],[-91.86624,41.95431],[-91.88291,41.95431],[-91.88291,41.95848],[-91.89541,41.95848],[-91.89541,41.96264],[-91.89958,41.96264],[-91.89958,41.96681],[-91.92041,41.96681],[-91.92041,41.97098],[-91.92875,41.97098],[-91.92875,41.96681],[-91.94542,41.96681],[-91.94542,41.97098],[-91.95792,41.97098],[-91.95792,41.97931],[-91.96209,41.97931],[-91.96209,41.98348],[-91.97042,41.98348],[-91.97042,41.98765],[-91.99125,41.98765],[-91.99125,41.99181],[-92.00375,41.99181],[-92.00375,42.00015],[-92.01209,42.00015],[-92.01209,42.01681],[-92.01626,42.01681],[-92.01626,42.02098],[-92.02459,42.02098],[-92.02459,42.01681],[-92.05376,42.01681],[-92.05376,42.01265],[-92.05793,42.01265],[-92.05793,42.01681],[-92.07459,42.01681],[-92.07459,42.01265],[-92.08709,42.01265],[-92.08709,42.01681],[-92.09126,42.01681],[-92.09126,42.02932],[-92.0996,42.02932],[-92.0996,42.03348],[-92.10376,42.03348],[-92.10376,42.03765],[-92.1121,42.03765],[-92.1121,42.04182],[-92.12043,42.04182],[-92.12043,42.04598],[-92.1246,42.04598],[-92.1246,42.05015],[-92.13293,42.05015],[-92.13293,42.05848],[-92.1371,42.05848],[-92.1371,42.06265],[-92.15377,42.06265],[-92.15377,42.07099],[-92.15793,42.07099],[-92.15793,42.07515],[-92.16627,42.07515],[-92.16627,42.07932],[-92.1871,42.07932]]]}}]}