{"type":"FeatureCollection","features":[{"type":"Feature","properties":{},"geometry":{"type":"Polygon","coordinates":[[[-93.78243,42.47639],[-93.78314,42.4809],[-93.77734,42.48285],[-93.77424,42.48711],[-93.77446,42.48986],[-93.77022,42.49093],[-93.76984,42.49945],[-93.7639,42.51065],[-93.75589,42.51058],[-93.75182,42.51294],[-93.74798,42.52158],[-93.74112,42.52678],[-93.73417,42.52717],[-93.72003,42.52369],[-93.71739,42.52485],[-93.71769,42.52705],[-93.70213,42.52825],[-93.69533,42.53447],[-93.68987,42.53731],[-93.68616,42.53538],[-93.68315,42.53922],[-93.67969,42.53983],[-93.67512,42.538],[-93.67214,42.54036],[-93.66555,42.5397],[-93.66044,42.53712],[-93.66028,42.53501],[-93.66294,42.53432],[-93.66325,42.53213],[-93.66044,42.5307],[-93.65947,42.52724],[-93.66448,42.52238],[-93.67065,42.52147],[-93.67101,42.5194],[-93.68385,42.5199],[-93.68818,42.51471],[-93.69618,42.5115],[-93.70302,42.51607],[-93.7073,42.51302],[-93.71368,42.51329],[-93.71267,42.50996],[-93.71483,42.50541],[-93.71451,42.49818],[-93.7242,42.49087],[-93.72269,42.48246],[-93.72491,42.47821],[-93.72817,42.47958],[-93.73829,42.4791],[-93.74717,42.48141],[-93.7527,42.47798],[-93.76015,42.47565],[-93.76537,42.47649],[-93.76561,42.47531],[-93.77114,42.47459],[-93.77393,42.47197],[-93.77735,42.47178],[-93.7792,42.47575],[-93.78243,42.47639]]]}}]}