{"type":"FeatureCollection","features":[{"type":"Feature","properties":{},"geometry":{"type":"Polygon","coordinates":[[[-93.6795,41.60132],[-93.67942,41.60464],[-93.68199,41.60709],[-93.68758,41.60855],[-93.68538,41.60994],[-93.68668,41.61956],[-93.69407,41.62864],[-93.69989,41.63177],[-93.69874,41.63406],[-93.70015,41.6355],[-93.70531,41.63813],[-93.70934,41.63805],[-93.71337,41.63559],[-93.71595,41.63789],[-93.7208,41.6386],[-93.72014,41.64055],[-93.72507,41.64604],[-93.73299,41.64613],[-93.73298,41.64985],[-93.73691,41.65328],[-93.73677,41.65787],[-93.73977,41.66101],[-93.74357,41.65953],[-93.75148,41.65974],[-93.75521,41.66618],[-93.76192,41.66656],[-93.76348,41.6715],[-93.75459,41.67439],[-93.75701,41.67548],[-93.75667,41.67738],[-93.76083,41.68226],[-93.76344,41.6831],[-93.76685,41.68855],[-93.76818,41.68488],[-93.77718,41.67907],[-93.77967,41.6798],[-93.78182,41.67588],[-93.79533,41.67391],[-93.79462,41.67193],[-93.79943,41.66873],[-93.80419,41.67001],[-93.81254,41.66735],[-93.81751,41.67619],[-93.82431,41.67777],[-93.82395,41.68578],[-93.82885,41.68635],[-93.83305,41.68486],[-93.84092,41.68931],[-93.83563,41.69563],[-93.8457,41.70062],[-93.84752,41.70409],[-93.84496,41.70476],[-93.84234,41.70808],[-93.85072,41.71527],[-93.84984,41.71786],[-93.85734,41.722],[-93.871,41.71934],[-93.88028,41.72095],[-93.88465,41.72392],[-93.89469,41.71821],[-93.90905,41.71803],[-93.91552,41.71268],[-93.92263,41.71283],[-93.9266,41.70906],[-93.92419,41.70287],[-93.91797,41.70034],[-93.91838,41.69582],[-93.92212,41.69745],[-93.93462,41.69737],[-93.94212,41.68994],[-93.94353,41.68662],[-93.95008,41.68642],[-93.95565,41.68355],[-93.95662,41.68125],[-93.96115,41.68382],[-93.96334,41.6825],[-93.96662,41.68351],[-93.96789,41.6865],[-93.96709,41.68991],[-93.971,41.69758],[-93.98246,41.69924],[-93.98684,41.70154],[-93.9867,41.70438],[-93.99108,41.70338],[-93.9944,41.70598],[-93.99281,41.70875],[-94.00416,41.70962],[-94.00497,41.71072],[-94.00299,41.7125],[-94.00526,41.71305],[-94.00676,41.7185],[-94.01081,41.72134],[-94.009,41.72431],[-94.01858,41.73034],[-94.01736,41.73383],[-94.01894,41.73746],[-94.01757,41.74052],[-94.01861,41.74533],[-94.02751,41.7607],[-94.03146,41.7624],[-94.0325,41.7644],[-94.03069,41.76601],[-94.0415,41.77147],[-94.04573,41.77071],[-94.04824,41.76598],[-94.06252,41.76871],[-94.0646,41.77749],[-94.06279,41.78104],[-94.06342,41.78699],[-94.06515,41.78861],[-94.06388,41.79194],[-94.07035,41.79697],[-94.06793,41.80004],[-94.07248,41.80473],[-94.06691,41.80911],[-94.06451,41.81811],[-94.07034,41.82572],[-94.07721,41.82464],[-94.08019,41.82918],[-94.08899,41.83176],[-94.09873,41.84441],[-94.09475,41.84618],[-94.09844,41.8514],[-94.09702,41.85397],[-94.10552,41.86198],[-94.10635,41.87984],[-94.1102,41.88312],[-94.10879,41.88448],[-94.11224,41.88869],[-94.11071,41.89225],[-94.11377,41.89494],[-94.11113,41.89711],[-94.11415,41.89927],[-94.11284,41.89965],[-94.11234,41.90435],[-94.12131,41.91221],[-94.11627,41.91394],[-94.11569,41.91719],[-94.12429,41.91593],[-94.13288,41.91922],[-94.13478,41.91771],[-94.1475,41.91569],[-94.15628,41.91105],[-94.16047,41.91093],[-94.16749,41.91664],[-94.17384,41.91682],[-94.17666,41.91867],[-94.17431,41.92116],[-94.17491,41.92642],[-94.17078,41.93024],[-94.17816,41.93201],[-94.17972,41.93411],[-94.18668,41.937],[-94.18613,41.9388],[-94.188,41.94122],[-94.18661,41.94293],[-94.19031,41.94627],[-94.1909,41.95174],[-94.19283,41.95393],[-94.18957,41.95764],[-94.19035,41.96086],[-94.18779,41.96109],[-94.18658,41.96422],[-94.18383,41.96517],[-94.18582,41.96806],[-94.18955,41.96924],[-94.19013,41.97137],[-94.18956,41.97557],[-94.18312,41.97639],[-94.18059,41.98524],[-94.18272,41.98659],[-94.18301,41.989],[-94.18025,41.99014],[-94.1831,41.99247],[-94.18197,41.99406],[-94.18318,41.99669],[-94.1866,41.99901],[-94.19121,41.99674],[-94.18908,41.99481],[-94.19248,41.99149],[-94.19302,41.98532],[-94.20534,41.98653],[-94.20796,41.98917],[-94.21701,41.99166],[-94.22426,41.98763],[-94.22174,41.98535],[-94.22432,41.97861],[-94.22937,41.98056],[-94.23127,41.98598],[-94.23409,41.98649],[-94.2357,41.98977],[-94.24064,41.98968],[-94.24129,41.99368],[-94.23782,41.99685],[-94.23736,41.99943],[-94.23925,42.00147],[-94.23944,42.00497],[-94.23684,42.00712],[-94.24159,42.00899],[-94.23467,42.0171],[-94.24115,42.02001],[-94.2502,42.0198],[-94.25425,42.02297],[-94.2614,42.0251],[-94.25607,42.03004],[-94.25977,42.03282],[-94.25801,42.03481],[-94.25895,42.03756],[-94.25197,42.03901],[-94.24556,42.0473],[-94.24752,42.05038],[-94.25152,42.0513],[-94.25048,42.05994],[-94.24502,42.06598],[-94.24256,42.07313],[-94.24536,42.07945],[-94.23987,42.08717],[-94.23392,42.08926],[-94.2397,42.09377],[-94.24057,42.09878],[-94.2449,42.10282],[-94.24195,42.10581],[-94.24212,42.10789],[-94.23606,42.11358],[-94.2304,42.11282],[-94.22628,42.12144],[-94.23436,42.13011],[-94.2336,42.13151],[-94.22536,42.13326],[-94.22394,42.13554],[-94.22153,42.1359],[-94.22067,42.13853],[-94.21548,42.14052],[-94.21722,42.14292],[-94.21672,42.14706],[-94.20738,42.14647],[-94.20389,42.15282],[-94.20533,42.15656],[-94.2014,42.15723],[-94.19994,42.16079],[-94.2008,42.16584],[-94.19959,42.16848],[-94.20316,42.16961],[-94.20033,42.17469],[-94.19743,42.17626],[-94.20033,42.179],[-94.19535,42.18155],[-94.18955,42.18014],[-94.18255,42.18079],[-94.17816,42.17839],[-94.17352,42.18122],[-94.1754,42.18493],[-94.17968,42.18722],[-94.17719,42.18833],[-94.17787,42.18929],[-94.18102,42.19082],[-94.1838,42.19013],[-94.19467,42.19654],[-94.19528,42.19926],[-94.19132,42.20112],[-94.19051,42.20398],[-94.18732,42.20599],[-94.18331,42.20621],[-94.1813,42.21307],[-94.17656,42.21617],[-94.17586,42.21825],[-94.17767,42.22074],[-94.16832,42.22485],[-94.16537,42.23077],[-94.16197,42.23225],[-94.16282,42.2376],[-94.15784,42.23979],[-94.15633,42.24214],[-94.15035,42.24339],[-94.13744,42.25586],[-94.13952,42.25942],[-94.14696,42.26264],[-94.14491,42.27157],[-94.14759,42.28315],[-94.15051,42.28822],[-94.14749,42.2928],[-94.14332,42.29221],[-94.14057,42.29496],[-94.13427,42.29678],[-94.13431,42.29813],[-94.1418,42.30654],[-94.14492,42.30767],[-94.14493,42.31112],[-94.15378,42.31606],[-94.16092,42.31708],[-94.17109,42.32243],[-94.20901,42.32497],[-94.21576,42.32924],[-94.21848,42.33352],[-94.21623,42.33854],[-94.22078,42.3439],[-94.22508,42.34528],[-94.22753,42.35084],[-94.22447,42.35942],[-94.22587,42.36093],[-94.22376,42.36476],[-94.22731,42.37783],[-94.23426,42.38321],[-94.23936,42.39137],[-94.24671,42.39351],[-94.25127,42.39946],[-94.26016,42.4004],[-94.26918,42.40527],[-94.27154,42.41335],[-94.27811,42.41252],[-94.28572,42.4158],[-94.29188,42.41511],[-94.30539,42.40978],[-94.30646,42.40321],[-94.31323,42.39981],[-94.31318,42.39484],[-94.31853,42.38996],[-94.31782,42.38122],[-94.32368,42.38157],[-94.32727,42.38653],[-94.33499,42.39088],[-94.33349,42.3932],[-94.33475,42.39405],[-94.33451,42.39724],[-94.33236,42.40081],[-94.33351,42.40306],[-94.33723,42.40259],[-94.3418,42.40568],[-94.34677,42.40592],[-94.34828,42.4087],[-94.35455,42.4096],[-94.35457,42.41597],[-94.35051,42.41819],[-94.35232,42.42132],[-94.35636,42.42309],[-94.35673,42.42627],[-94.35894,42.42741],[-94.36655,42.42519],[-94.37106,42.42573],[-94.37442,42.43044],[-94.37401,42.43364],[-94.3813,42.43778],[-94.38762,42.45184],[-94.39363,42.45488],[-94.3975,42.46353],[-94.39434,42.46914],[-94.38702,42.47007],[-94.38706,42.47142],[-94.38935,42.47525],[-94.4034,42.47989],[-94.408,42.48399],[-94.40837,42.48717],[-94.40216,42.48943],[-94.40221,42.49624],[-94.41513,42.49969],[-94.41849,42.50016],[-94.42042,42.49806],[-94.42861,42.50039],[-94.42905,42.50494],[-94.43506,42.51395],[-94.44376,42.51377],[-94.45171,42.51117],[-94.46551,42.51831],[-94.47143,42.51937],[-94.47363,42.52485],[-94.47269,42.52725],[-94.4768,42.52867],[-94.4789,42.53689],[-94.48464,42.53415],[-94.49113,42.53564],[-94.49828,42.53238],[-94.50817,42.53411],[-94.51161,42.53887],[-94.5202,42.54138],[-94.52057,42.54539],[-94.52948,42.55153],[-94.53328,42.55141],[-94.53477,42.54905],[-94.53773,42.55063],[-94.55505,42.55143],[-94.55823,42.55355],[-94.56322,42.55354],[-94.57111,42.55637],[-94.57475,42.56051],[-94.58262,42.56193],[-94.59385,42.56781],[-94.5994,42.57407],[-94.61446,42.57206],[-94.62485,42.57473],[-94.62817,42.57823],[-94.6337,42.5795],[-94.63272,42.58507],[-94.63946,42.58661],[-94.64484,42.59048],[-94.64965,42.58976],[-94.65909,42.59436],[-94.65778,42.59998],[-94.65895,42.60118],[-94.66582,42.60052],[-94.6715,42.60773],[-94.67497,42.60968],[-94.67836,42.60946],[-94.67918,42.61367],[-94.68241,42.61634],[-94.68567,42.61579],[-94.68901,42.61747],[-94.6904,42.6231],[-94.69791,42.62284],[-94.70774,42.62642],[-94.71064,42.62562],[-94.72167,42.62018],[-94.72183,42.61712],[-94.72607,42.61184],[-94.7354,42.60845],[-94.744,42.61083],[-94.74796,42.60937],[-94.75445,42.61319],[-94.75575,42.61443],[-94.75377,42.61829],[-94.75676,42.62308],[-94.75506,42.62481],[-94.75525,42.62776],[-94.75099,42.63113],[-94.74983,42.63575],[-94.75248,42.64061],[-94.75485,42.64174],[-94.75124,42.64444],[-94.75918,42.64648],[-94.75654,42.65231],[-94.75579,42.66152],[-94.75693,42.66341],[-94.75568,42.6665],[-94.759,42.66951],[-94.7682,42.67215],[-94.76941,42.67439],[-94.7658,42.67866],[-94.76745,42.67961],[-94.76757,42.68257],[-94.76385,42.68908],[-94.75178,42.68953],[-94.74901,42.69045],[-94.74656,42.69396],[-94.75168,42.69571],[-94.75236,42.69868],[-94.75693,42.70241],[-94.75895,42.71148],[-94.76751,42.71603],[-94.76856,42.71908],[-94.76355,42.72347],[-94.76308,42.72682],[-94.76011,42.72653],[-94.75537,42.73018],[-94.74784,42.73123],[-94.74388,42.74607],[-94.74043,42.74764],[-94.74208,42.75038],[-94.73586,42.75095],[-94.73527,42.75717],[-94.73719,42.7593],[-94.73793,42.76641],[-94.74814,42.77086],[-94.75055,42.77958],[-94.76,42.78624],[-94.75972,42.79045],[-94.76312,42.79656],[-94.76179,42.79957],[-94.76283,42.80408],[-94.77052,42.80922],[-94.76999,42.81227],[-94.77238,42.8138],[-94.77645,42.81247],[-94.78226,42.81339],[-94.78666,42.8107],[-94.79425,42.8141],[-94.79398,42.81619],[-94.797,42.82032],[-94.7954,42.83011],[-94.79699,42.83346],[-94.81206,42.83682],[-94.81104,42.84359],[-94.81468,42.84403],[-94.81544,42.84983],[-94.8131,42.85235],[-94.81411,42.85374],[-94.80495,42.85592],[-94.80225,42.85704],[-94.80234,42.85842],[-94.80658,42.86072],[-94.80615,42.86695],[-94.8079,42.86905],[-94.814,42.86902],[-94.82108,42.876],[-94.82832,42.87887],[-94.82803,42.88116],[-94.82455,42.88393],[-94.82877,42.88565],[-94.82649,42.88816],[-94.82642,42.89132],[-94.82977,42.8938],[-94.83026,42.89606],[-94.82448,42.89926],[-94.83066,42.9067],[-94.8357,42.90572],[-94.83951,42.90948],[-94.84072,42.91633],[-94.83955,42.91789],[-94.84345,42.92146],[-94.84256,42.92383],[-94.84516,42.93045],[-94.85137,42.93607],[-94.85544,42.93656],[-94.85725,42.93167],[-94.86641,42.9293],[-94.88014,42.93225],[-94.88766,42.92812],[-94.89013,42.92839],[-94.89544,42.9255],[-94.89584,42.9238],[-94.90144,42.92409],[-94.90902,42.92833],[-94.91023,42.93166],[-94.91455,42.93252],[-94.92035,42.92388],[-94.92906,42.9213],[-94.9299,42.91501],[-94.93251,42.9129],[-94.93754,42.91483],[-94.93917,42.91145],[-94.9373,42.90803],[-94.9417,42.90135],[-94.94525,42.90191],[-94.94521,42.90434],[-94.95094,42.90991],[-94.96378,42.91106],[-94.9628,42.91444],[-94.96439,42.9177],[-94.96773,42.91802],[-94.97093,42.91472],[-94.97932,42.91409],[-94.98473,42.91173],[-94.98904,42.91469],[-94.99272,42.92058],[-94.99276,42.92427],[-94.98917,42.92419],[-94.98707,42.92821],[-94.99149,42.92985],[-94.98982,42.93652],[-94.99086,42.94003],[-94.98523,42.94419],[-94.98052,42.95138],[-94.97744,42.95284],[-94.97768,42.9563],[-94.9734,42.96488],[-94.97365,42.97115],[-94.97116,42.97156],[-94.96996,42.97743],[-94.97185,42.98201],[-94.97456,42.98284],[-94.97519,42.98671],[-94.97394,42.98791],[-94.97622,42.99092],[-94.97532,42.99312],[-94.9769,42.99403],[-94.97624,42.99865],[-94.97399,42.99988],[-94.97608,43.00229],[-94.97464,43.00547],[-94.97524,43.00953],[-94.97212,43.00952],[-94.97037,43.00593],[-94.96385,43.00395],[-94.96246,43.0066],[-94.95236,43.00446],[-94.95067,43.00601],[-94.94294,43.00675],[-94.93991,43.00334],[-94.93691,43.00413],[-94.93561,43.0119],[-94.92747,43.01183],[-94.92904,43.01605],[-94.92648,43.01722],[-94.9308,43.01913],[-94.93233,43.02433],[-94.92963,43.02833],[-94.93401,43.03076],[-94.93058,43.03618],[-94.93142,43.04035],[-94.93014,43.0432],[-94.93191,43.04649],[-94.92954,43.04783],[-94.93094,43.05],[-94.92205,43.05073],[-94.92183,43.05323],[-94.91875,43.05348],[-94.90999,43.05129],[-94.90633,43.05371],[-94.89714,43.0692],[-94.89003,43.07783],[-94.88679,43.07745],[-94.88139,43.0812],[-94.8843,43.0834],[-94.8797,43.09268],[-94.88186,43.09611],[-94.87748,43.09895],[-94.86983,43.10054],[-94.8661,43.1042],[-94.86277,43.10414],[-94.86336,43.10654],[-94.86004,43.11111],[-94.86111,43.11632],[-94.85705,43.12017],[-94.85704,43.12276],[-94.85011,43.12345],[-94.85118,43.12642],[-94.85598,43.12661],[-94.85689,43.13457],[-94.86282,43.13673],[-94.85713,43.14383],[-94.86232,43.14747],[-94.85197,43.15337],[-94.84221,43.15239],[-94.84047,43.1534],[-94.84222,43.15628],[-94.84113,43.15779],[-94.84207,43.16126],[-94.83944,43.16311],[-94.84137,43.16496],[-94.8415,43.16832],[-94.83874,43.17221],[-94.84403,43.17659],[-94.83658,43.17894],[-94.83599,43.18143],[-94.83815,43.184],[-94.83589,43.18718],[-94.84616,43.19138],[-94.84643,43.1947],[-94.84966,43.1949],[-94.8418,43.19887],[-94.83916,43.20241],[-94.84449,43.20743],[-94.84348,43.20963],[-94.8463,43.21635],[-94.8484,43.21733],[-94.8472,43.22101],[-94.85248,43.22363],[-94.85456,43.22831],[-94.85186,43.23145],[-94.85236,43.23335],[-94.85945,43.24039],[-94.85702,43.24135],[-94.8561,43.25057],[-94.85249,43.25474],[-94.85491,43.25836],[-94.85382,43.261],[-94.85536,43.2637],[-94.85301,43.26796],[-94.85066,43.26734],[-94.8481,43.26947],[-94.84774,43.27457],[-94.85181,43.28108],[-94.85446,43.28095],[-94.86098,43.28567],[-94.86026,43.28939],[-94.86211,43.29469],[-94.86694,43.29828],[-94.86988,43.298],[-94.87431,43.30134],[-94.8765,43.301],[-94.87887,43.30606],[-94.88142,43.30787],[-94.87872,43.30921],[-94.87875,43.31199],[-94.87684,43.31287],[-94.87749,43.31958],[-94.87598,43.32219],[-94.8801,43.32412],[-94.87935,43.32574],[-94.88274,43.32796],[-94.88436,43.33277],[-94.8868,43.33387],[-94.88726,43.33512],[-94.88392,43.33743],[-94.88731,43.33946],[-94.8898,43.34814],[-94.90107,43.35509],[-94.90933,43.35761],[-94.91079,43.36034],[-94.90883,43.36173],[-94.91135,43.36378],[-94.91738,43.36091],[-94.9203,43.36173],[-94.92362,43.36984],[-94.92893,43.37241],[-94.92822,43.37544],[-94.93097,43.37858],[-94.93027,43.37964],[-94.93691,43.38346],[-94.93777,43.38668],[-94.9359,43.38885],[-94.93921,43.3914],[-94.94023,43.39866],[-94.93906,43.40104],[-94.94051,43.40348],[-94.93975,43.40539],[-94.93488,43.40726],[-94.93481,43.41466],[-94.938,43.4199],[-94.93544,43.42196],[-94.93583,43.42399],[-94.93141,43.42691],[-94.93018,43.43366],[-94.94075,43.43474],[-94.95575,43.43024],[-94.95567,43.4282],[-94.95876,43.42647],[-94.97111,43.4282],[-94.97911,43.43459],[-94.98578,43.43692],[-94.98899,43.4346],[-94.99778,43.43486],[-95.00735,43.43032],[-95.01359,43.43157],[-95.0141,43.4348],[-95.01111,43.43826],[-95.01437,43.44198],[-95.01722,43.44264],[-95.01612,43.446],[-95.01784,43.44778],[-95.01652,43.45066],[-95.01879,43.45404],[-95.01639,43.45615],[-95.00796,43.45637],[-95.00317,43.45872],[-95.00411,43.46784],[-95.00225,43.46945],[-95.00028,43.46892],[-94.99835,43.47162],[-94.99934,43.47873],[-94.9936,43.48589],[-95.00524,43.48594],[-95.01201,43.4877],[-95.01473,43.49059],[-95.02778,43.49007],[-95.03522,43.49184],[-95.03978,43.49],[-95.04629,43.49045],[-95.04838,43.49219],[-95.04645,43.49653],[-95.04284,43.49742],[-95.04138,43.50079],[-95.0418,43.5063],[-95.04508,43.50711],[-95.04817,43.50502],[-95.05731,43.50828],[-95.06333,43.50684],[-95.06966,43.511],[-95.07789,43.51154],[-95.08033,43.51305],[-95.08014,43.51697],[-95.08282,43.51786],[-95.0744,43.52282],[-95.07519,43.53098],[-95.06874,43.5293],[-95.06571,43.53035],[-95.06901,43.53138],[-95.06962,43.5353],[-95.06578,43.53971],[-95.07003,43.54555],[-95.06821,43.55028],[-95.07261,43.55569],[-95.06873,43.55879],[-95.06858,43.56383],[-95.06571,43.56669],[-95.06556,43.57519],[-95.06374,43.5774],[-95.06622,43.58509],[-95.06532,43.58932],[-95.06794,43.5891],[-95.06836,43.59383],[-95.07179,43.59503],[-95.07222,43.5973],[-95.06512,43.60115],[-95.06408,43.60231],[-95.06554,43.6043],[-95.06053,43.60817],[-95.06174,43.61449],[-95.06971,43.61734],[-95.06223,43.6214],[-95.06136,43.6251],[-95.06392,43.62627],[-95.06443,43.63401],[-95.06742,43.63603],[-95.07401,43.63297],[-95.08234,43.63413],[-95.08352,43.63628],[-95.08566,43.63524],[-95.0871,43.63638],[-95.08864,43.63913],[-95.08774,43.64118],[-95.10613,43.64571],[-95.10454,43.6475],[-95.10833,43.65163],[-95.10597,43.65754],[-95.10711,43.65806],[-95.1109,43.65904],[-95.1147,43.6556],[-95.13206,43.6607],[-95.13784,43.66054],[-95.14201,43.66314],[-95.14433,43.66302],[-95.14822,43.65881],[-95.15427,43.66072],[-95.15747,43.65741],[-95.16216,43.65886],[-95.16499,43.65795],[-95.16678,43.64997],[-95.16952,43.65103],[-95.16984,43.64737],[-95.17549,43.6465],[-95.18085,43.64297],[-95.18905,43.64436],[-95.18932,43.64604],[-95.20517,43.64595],[-95.20898,43.64895],[-95.20823,43.65241],[-95.21004,43.65175],[-95.21048,43.65378],[-95.21432,43.655],[-95.22019,43.65461],[-95.22172,43.65193],[-95.22913,43.64957],[-95.23973,43.64914],[-95.24758,43.65412],[-95.25161,43.65163],[-95.25944,43.65129],[-95.26546,43.64872],[-95.26966,43.64994],[-95.26871,43.65257],[-95.27139,43.65495],[-95.27821,43.65416],[-95.2844,43.6596],[-95.28885,43.65936],[-95.29671,43.67079],[-95.30075,43.66725],[-95.3111,43.66819],[-95.33036,43.66563],[-95.33004,43.66128],[-95.33509,43.65991],[-95.33549,43.65371],[-95.33031,43.64899],[-95.33265,43.64421],[-95.35078,43.64692],[-95.35715,43.64899],[-95.35908,43.65309],[-95.36895,43.65561],[-95.3753,43.65272],[-95.37841,43.64634],[-95.38497,43.64798],[-95.39031,43.65202],[-95.40037,43.64906],[-95.41018,43.6577],[-95.41107,43.66597],[-95.41537,43.6701],[-95.42838,43.66569],[-95.4301,43.66928],[-95.43609,43.66742],[-95.43466,43.6591],[-95.44057,43.65024],[-95.45189,43.64465],[-95.45529,43.64035],[-95.45409,43.63404],[-95.45559,43.63197],[-95.45431,43.63067],[-95.45768,43.62922],[-95.46525,43.63021],[-95.47253,43.62837],[-95.48007,43.62967],[-95.48281,43.62846],[-95.49051,43.63046],[-95.49,43.63544],[-95.4961,43.63886],[-95.49735,43.64284],[-95.50232,43.63962],[-95.51149,43.63879],[-95.51179,43.63478],[-95.52166,43.63065],[-95.52916,43.63048],[-95.52963,43.62683],[-95.54059,43.62507],[-95.55335,43.61707],[-95.56288,43.62081],[-95.56748,43.625],[-95.5668,43.62631],[-95.56907,43.62823],[-95.57084,43.63448],[-95.57775,43.63316],[-95.57753,43.63107],[-95.5796,43.63074],[-95.57998,43.62786],[-95.58557,43.62567],[-95.59391,43.61876],[-95.60079,43.62262],[-95.60612,43.62106],[-95.61304,43.62263],[-95.61489,43.62425],[-95.61282,43.63218],[-95.61079,43.63388],[-95.61324,43.64003],[-95.61585,43.63972],[-95.61604,43.64533],[-95.61813,43.64711],[-95.62563,43.64718],[-95.62724,43.65051],[-95.63258,43.65133],[-95.63639,43.65603],[-95.63467,43.65777],[-95.63553,43.6592],[-95.63988,43.65972],[-95.6412,43.66357],[-95.64761,43.66774],[-95.65292,43.6663],[-95.65241,43.66414],[-95.6537,43.6638],[-95.6611,43.6661],[-95.66011,43.67315],[-95.66339,43.67603],[-95.66357,43.68069],[-95.66539,43.68273],[-95.67737,43.68541],[-95.68517,43.69403],[-95.68833,43.69474],[-95.68999,43.69704],[-95.69674,43.69805],[-95.69919,43.7021],[-95.70394,43.70479],[-95.70505,43.71152],[-95.7032,43.7135],[-95.71233,43.71618],[-95.71067,43.72029],[-95.71155,43.7229],[-95.7152,43.7294],[-95.71728,43.73034],[-95.71428,43.73751],[-95.71224,43.73849],[-95.71556,43.74409],[-95.72155,43.74658],[-95.72343,43.74578],[-95.7239,43.74325],[-95.72888,43.74105],[-95.73834,43.74505],[-95.74048,43.74294],[-95.74728,43.74378],[-95.75061,43.74194],[-95.75206,43.74424],[-95.75483,43.74384],[-95.75456,43.74695],[-95.75743,43.74812],[-95.75811,43.74653],[-95.76116,43.74626],[-95.77598,43.74896],[-95.77968,43.75141],[-95.78867,43.75223],[-95.79795,43.7509],[-95.80156,43.7564],[-95.80636,43.75615],[-95.8082,43.76378],[-95.81187,43.76676],[-95.81388,43.76496],[-95.82386,43.76934],[-95.82656,43.76829],[-95.83328,43.77271],[-95.83548,43.77094],[-95.84828,43.77314],[-95.85018,43.77708],[-95.85408,43.77945],[-95.85503,43.78341],[-95.86136,43.7923],[-95.86448,43.79413],[-95.86726,43.80033],[-95.87011,43.79975],[-95.87209,43.80153],[-95.87648,43.80192],[-95.87658,43.80502],[-95.88216,43.80987],[-95.8822,43.81224],[-95.88563,43.81405],[-95.88537,43.81584],[-95.88207,43.81524],[-95.87796,43.81694],[-95.87779,43.82428],[-95.8725,43.82742],[-95.87234,43.83344],[-95.8767,43.84046],[-95.87305,43.84445],[-95.87737,43.84875],[-95.87028,43.85091],[-95.86645,43.85424],[-95.85934,43.85595],[-95.85879,43.85705],[-95.8612,43.85894],[-95.85758,43.85942],[-95.85521,43.86261],[-95.83962,43.86279],[-95.83274,43.8658],[-95.83181,43.86848],[-95.82858,43.87047],[-95.83699,43.87648],[-95.83141,43.87908],[-95.82905,43.88349],[-95.82405,43.88471],[-95.82468,43.88682],[-95.83258,43.88856],[-95.83644,43.88596],[-95.84205,43.88633],[-95.8473,43.88448],[-95.85739,43.89067],[-95.85951,43.89444],[-95.856,43.90231],[-95.84573,43.90733],[-95.84764,43.90945],[-95.85059,43.90916],[-95.84855,43.91397],[-95.85393,43.92123],[-95.85174,43.92565],[-95.85215,43.92805],[-95.85019,43.92859],[-95.84806,43.93361],[-95.84806,43.93827],[-95.85392,43.9404],[-95.85362,43.94247],[-95.84967,43.94765],[-95.84688,43.94879],[-95.8466,43.9514],[-95.85095,43.9537],[-95.85672,43.95385],[-95.86442,43.94793],[-95.86644,43.94403],[-95.86548,43.94181],[-95.86969,43.9396],[-95.87475,43.94137],[-95.87516,43.94481],[-95.88205,43.94903],[-95.89455,43.949],[-95.89653,43.95194],[-95.89545,43.95682],[-95.90123,43.96032],[-95.90156,43.96427],[-95.9076,43.96162],[-95.9119,43.96374],[-95.91169,43.96072],[-95.91652,43.9612],[-95.92139,43.95843],[-95.93603,43.95932],[-95.93739,43.96212],[-95.93988,43.96244],[-95.94429,43.95852],[-95.94189,43.95709],[-95.94112,43.95207],[-95.94369,43.94414],[-95.97956,43.94212],[-95.98518,43.95261],[-95.98318,43.95377],[-95.98255,43.95934],[-95.9918,43.96026],[-95.99531,43.9588],[-96.0031,43.96381],[-96.00582,43.96929],[-96.00872,43.9699],[-96.00821,43.97643],[-96.01134,43.97872],[-96.01017,43.98176],[-96.01482,43.98516],[-96.01708,43.99108],[-96.0218,43.99068],[-96.0245,43.99381],[-96.03341,43.99878],[-96.03285,43.99995],[-96.03963,44.00604],[-96.03918,44.00976],[-96.04084,44.01359],[-96.03736,44.01556],[-96.0455,44.02141],[-96.04553,44.02473],[-96.04225,44.02766],[-96.04415,44.02884],[-96.04592,44.03519],[-96.05766,44.04057],[-96.06091,44.048],[-96.06658,44.05052],[-96.07038,44.05643],[-96.06932,44.06289],[-96.07514,44.06299],[-96.07868,44.06516],[-96.08141,44.06437],[-96.08197,44.06768],[-96.08416,44.06913],[-96.08295,44.07125],[-96.0838,44.07325],[-96.0915,44.07679],[-96.0934,44.07956],[-96.09172,44.08257],[-96.09368,44.08457],[-96.09328,44.08762],[-96.08915,44.08843],[-96.0889,44.09356],[-96.1038,44.09545],[-96.10065,44.10003],[-96.1063,44.11026],[-96.10546,44.11169],[-96.11049,44.11287],[-96.11262,44.11614],[-96.10341,44.12677],[-96.10438,44.13471],[-96.09309,44.13365],[-96.0878,44.1295],[-96.08519,44.13069],[-96.08522,44.13334],[-96.08071,44.13493],[-96.07559,44.13354],[-96.06488,44.13474],[-96.05999,44.1307],[-96.05541,44.13167],[-96.04836,44.13693],[-96.03452,44.14042],[-96.03518,44.14819],[-96.02878,44.15102],[-96.02446,44.14878],[-96.02401,44.15345],[-96.01265,44.14716],[-96.00153,44.15213],[-95.97752,44.1532],[-95.97234,44.15924],[-95.97378,44.1635],[-95.97267,44.1654],[-95.97703,44.16738],[-95.98498,44.182],[-95.98323,44.18922],[-95.98078,44.1895],[-95.97921,44.19533],[-95.96879,44.19595],[-95.9655,44.20217],[-95.95595,44.20449],[-95.95042,44.20286],[-95.94813,44.20492],[-95.93899,44.19921],[-95.93319,44.2006],[-95.93227,44.19921],[-95.92715,44.19889],[-95.92769,44.19587],[-95.92421,44.19387],[-95.92004,44.19595],[-95.91491,44.19463],[-95.91343,44.19609],[-95.91554,44.19812],[-95.91429,44.20292],[-95.90926,44.20622],[-95.9104,44.21076],[-95.90609,44.213],[-95.90483,44.21608],[-95.90481,44.2203],[-95.90695,44.22201],[-95.89747,44.2273],[-95.90037,44.23052],[-95.89613,44.23382],[-95.88245,44.23252],[-95.88293,44.23612],[-95.88097,44.24222],[-95.8774,44.24662],[-95.87867,44.24824],[-95.8737,44.25436],[-95.87392,44.25636],[-95.86962,44.25837],[-95.86311,44.25863],[-95.86325,44.25992],[-95.86025,44.26106],[-95.85636,44.25547],[-95.85117,44.25499],[-95.85236,44.25273],[-95.84636,44.24687],[-95.84724,44.24568],[-95.8384,44.24588],[-95.83842,44.24805],[-95.83469,44.24969],[-95.82769,44.24965],[-95.82419,44.2462],[-95.81842,44.247],[-95.81847,44.24239],[-95.81579,44.24078],[-95.80526,44.23933],[-95.80263,44.23715],[-95.79743,44.23971],[-95.79655,44.24249],[-95.79399,44.24287],[-95.78696,44.23621],[-95.78357,44.23564],[-95.7825,44.23377],[-95.78604,44.23091],[-95.77588,44.22674],[-95.77543,44.21954],[-95.75904,44.20858],[-95.75883,44.20639],[-95.75621,44.2069],[-95.74266,44.19909],[-95.72761,44.19772],[-95.71994,44.19301],[-95.71817,44.18996],[-95.71539,44.18976],[-95.7128,44.18685],[-95.71385,44.18488],[-95.70453,44.17682],[-95.70355,44.17215],[-95.70063,44.16832],[-95.69769,44.16915],[-95.69116,44.167],[-95.6905,44.16211],[-95.68356,44.16055],[-95.68282,44.15818],[-95.67756,44.15613],[-95.67903,44.15346],[-95.67314,44.15029],[-95.67379,44.14748],[-95.6701,44.14428],[-95.67065,44.14161],[-95.66942,44.14046],[-95.66001,44.1379],[-95.65437,44.14001],[-95.65095,44.13929],[-95.64989,44.13986],[-95.65106,44.141],[-95.6417,44.14344],[-95.63069,44.13813],[-95.63183,44.13451],[-95.63747,44.13176],[-95.63033,44.12264],[-95.63444,44.12128],[-95.62994,44.11741],[-95.6311,44.11511],[-95.62311,44.10958],[-95.61856,44.10911],[-95.60938,44.1039],[-95.6036,44.10242],[-95.59644,44.09539],[-95.58995,44.0945],[-95.58823,44.09149],[-95.5832,44.09111],[-95.58107,44.08625],[-95.57612,44.08739],[-95.57348,44.08362],[-95.56566,44.08274],[-95.56268,44.07998],[-95.56076,44.07099],[-95.56306,44.06791],[-95.56263,44.06298],[-95.55746,44.06189],[-95.55325,44.0555],[-95.54132,44.05427],[-95.5382,44.05121],[-95.54124,44.05073],[-95.54091,44.04757],[-95.54732,44.04738],[-95.54593,44.04345],[-95.54175,44.03974],[-95.54099,44.03709],[-95.53314,44.03446],[-95.52654,44.03438],[-95.52596,44.02897],[-95.51727,44.02195],[-95.5169,44.02087],[-95.52238,44.01835],[-95.52295,44.01497],[-95.51766,44.01185],[-95.51876,44.00966],[-95.51587,44.00795],[-95.51648,44.0062],[-95.51443,44.00203],[-95.50869,43.99909],[-95.50848,43.99532],[-95.50428,43.99304],[-95.50401,43.98693],[-95.5015,43.98571],[-95.49788,43.98657],[-95.49296,43.98111],[-95.49246,43.97852],[-95.48645,43.97725],[-95.48146,43.97422],[-95.47761,43.97378],[-95.47928,43.98037],[-95.47518,43.98017],[-95.47117,43.9763],[-95.46142,43.97368],[-95.43781,43.95788],[-95.42796,43.95848],[-95.41932,43.95701],[-95.41557,43.95465],[-95.41393,43.9499],[-95.41533,43.94904],[-95.41503,43.94621],[-95.41242,43.94405],[-95.40625,43.94385],[-95.40381,43.94186],[-95.39655,43.94673],[-95.39648,43.95035],[-95.39919,43.95133],[-95.39463,43.95165],[-95.3922,43.95832],[-95.38614,43.96],[-95.37861,43.95749],[-95.37236,43.95319],[-95.36709,43.9519],[-95.36547,43.95304],[-95.36398,43.95001],[-95.36173,43.94973],[-95.35871,43.95187],[-95.35421,43.95104],[-95.35076,43.95475],[-95.34609,43.95488],[-95.34027,43.95968],[-95.33738,43.95743],[-95.33156,43.95794],[-95.32192,43.95562],[-95.31942,43.95688],[-95.31333,43.95573],[-95.30118,43.95687],[-95.29905,43.95134],[-95.29987,43.94565],[-95.29008,43.94158],[-95.28073,43.9432],[-95.2731,43.94909],[-95.26927,43.9494],[-95.26845,43.95265],[-95.26544,43.95343],[-95.26158,43.96099],[-95.25002,43.96331],[-95.24855,43.97105],[-95.25003,43.97524],[-95.2587,43.97535],[-95.26221,43.97754],[-95.26433,43.98315],[-95.26242,43.98886],[-95.25617,43.99251],[-95.25097,43.99316],[-95.24993,43.99508],[-95.24568,43.99539],[-95.24785,44.00052],[-95.24719,44.00223],[-95.23522,44.00464],[-95.23517,44.01134],[-95.23975,44.0125],[-95.23964,44.01361],[-95.23208,44.01634],[-95.23327,44.02224],[-95.23184,44.02491],[-95.21574,44.01783],[-95.21769,44.0159],[-95.21634,44.00954],[-95.2079,44.00242],[-95.2031,44.00315],[-95.19792,44.00152],[-95.19452,43.99687],[-95.19504,43.99267],[-95.193,43.99169],[-95.18809,43.99434],[-95.1789,43.99387],[-95.16875,43.98463],[-95.16075,43.98476],[-95.15552,43.98824],[-95.15084,43.98538],[-95.15083,43.98135],[-95.14885,43.98016],[-95.14156,43.9825],[-95.1395,43.98203],[-95.13906,43.97856],[-95.12728,43.97799],[-95.12566,43.97692],[-95.12598,43.9656],[-95.1217,43.96388],[-95.12036,43.9596],[-95.11686,43.95814],[-95.10791,43.95664],[-95.10714,43.961],[-95.10521,43.96221],[-95.10556,43.96506],[-95.11213,43.96846],[-95.11421,43.9738],[-95.11295,43.97479],[-95.10822,43.973],[-95.09746,43.97766],[-95.09248,43.97808],[-95.08834,43.97244],[-95.08526,43.97299],[-95.0831,43.96782],[-95.08214,43.95536],[-95.07585,43.95153],[-95.07331,43.94377],[-95.07446,43.93782],[-95.07335,43.92798],[-95.07651,43.92466],[-95.07655,43.92057],[-95.07158,43.91799],[-95.0718,43.91263],[-95.07024,43.90999],[-95.07269,43.90967],[-95.0744,43.90651],[-95.06991,43.90456],[-95.06005,43.89541],[-95.05434,43.8949],[-95.05619,43.89352],[-95.05271,43.88951],[-95.0587,43.88101],[-95.05751,43.87455],[-95.0608,43.87343],[-95.06216,43.87489],[-95.0651,43.87442],[-95.07019,43.87135],[-95.07277,43.87202],[-95.0739,43.86816],[-95.07624,43.86789],[-95.07711,43.86252],[-95.07226,43.85887],[-95.07012,43.85914],[-95.0643,43.86061],[-95.05747,43.86498],[-95.04887,43.85953],[-95.04564,43.85907],[-95.0539,43.85113],[-95.06017,43.84997],[-95.05851,43.84823],[-95.05935,43.84605],[-95.06383,43.84387],[-95.06213,43.83987],[-95.06324,43.83687],[-95.05766,43.82609],[-95.05639,43.81289],[-95.05048,43.80761],[-95.0451,43.80843],[-95.04323,43.80385],[-95.04855,43.79881],[-95.05059,43.79913],[-95.0526,43.79414],[-95.05152,43.79204],[-95.04675,43.79037],[-95.04133,43.79207],[-95.04249,43.78898],[-95.0477,43.78427],[-95.04694,43.77567],[-95.05034,43.77157],[-95.05378,43.7707],[-95.05233,43.76907],[-95.05708,43.76778],[-95.05744,43.76395],[-95.04808,43.75886],[-95.03533,43.76621],[-95.03002,43.76141],[-95.03012,43.75925],[-95.02759,43.75628],[-95.01939,43.75517],[-95.0163,43.75076],[-95.01989,43.74718],[-95.0184,43.74027],[-95.01346,43.73823],[-95.01106,43.73501],[-95.01145,43.73298],[-95.00817,43.73024],[-95.01985,43.72415],[-95.02306,43.71804],[-95.02279,43.71595],[-95.01731,43.71206],[-95.01692,43.70844],[-95.01176,43.70621],[-95.0117,43.70464],[-95.01778,43.69953],[-95.01629,43.69749],[-95.01325,43.69552],[-95.00257,43.69503],[-94.99901,43.69199],[-94.99105,43.69196],[-94.99029,43.68855],[-94.97813,43.68888],[-94.97693,43.68223],[-94.97832,43.6787],[-94.98438,43.67064],[-94.98927,43.66853],[-94.98611,43.66481],[-94.98588,43.65983],[-94.97846,43.65497],[-94.98486,43.64969],[-94.98171,43.64355],[-94.98187,43.63967],[-94.98036,43.63915],[-94.97815,43.64314],[-94.97215,43.64393],[-94.96926,43.64625],[-94.97241,43.64933],[-94.97161,43.65208],[-94.96872,43.6531],[-94.96375,43.65139],[-94.95771,43.65511],[-94.95844,43.66081],[-94.95706,43.66222],[-94.95451,43.66065],[-94.95106,43.66505],[-94.95265,43.67458],[-94.9469,43.67814],[-94.94775,43.67948],[-94.9456,43.6825],[-94.94163,43.68526],[-94.94052,43.69275],[-94.93847,43.69445],[-94.94093,43.70956],[-94.93467,43.7102],[-94.92859,43.71412],[-94.91559,43.71851],[-94.91258,43.72169],[-94.91613,43.72735],[-94.90781,43.72904],[-94.90522,43.73278],[-94.89664,43.73406],[-94.88924,43.72925],[-94.88969,43.72501],[-94.88764,43.72332],[-94.87992,43.72049],[-94.87072,43.72575],[-94.87087,43.72807],[-94.86864,43.73086],[-94.86157,43.73034],[-94.85045,43.72024],[-94.84925,43.7158],[-94.84404,43.71073],[-94.8378,43.70991],[-94.83476,43.70626],[-94.82258,43.70386],[-94.81609,43.69698],[-94.80755,43.69532],[-94.80321,43.69289],[-94.80044,43.68767],[-94.79677,43.68541],[-94.79794,43.68087],[-94.79634,43.67776],[-94.79028,43.67182],[-94.77479,43.67021],[-94.77409,43.66637],[-94.76798,43.66638],[-94.76589,43.66308],[-94.74763,43.65335],[-94.74555,43.65073],[-94.74398,43.65067],[-94.73805,43.65669],[-94.73747,43.65898],[-94.72976,43.66292],[-94.7269,43.66129],[-94.72483,43.6634],[-94.71947,43.66293],[-94.7198,43.6676],[-94.71812,43.66891],[-94.71197,43.66845],[-94.70091,43.6652],[-94.69918,43.65413],[-94.69568,43.65189],[-94.69753,43.64536],[-94.69235,43.6408],[-94.68096,43.63945],[-94.67405,43.64246],[-94.66845,43.64199],[-94.66515,43.64891],[-94.66037,43.65153],[-94.65467,43.64983],[-94.65434,43.64656],[-94.65071,43.6459],[-94.65178,43.6445],[-94.64396,43.64497],[-94.64451,43.63816],[-94.63273,43.64052],[-94.62219,43.63769],[-94.61528,43.6332],[-94.60702,43.63195],[-94.60221,43.62804],[-94.59578,43.62939],[-94.58454,43.62619],[-94.57981,43.62665],[-94.57779,43.62945],[-94.57131,43.63064],[-94.56277,43.62653],[-94.56307,43.6228],[-94.55196,43.61861],[-94.54054,43.61887],[-94.5372,43.61617],[-94.5402,43.6098],[-94.54539,43.60782],[-94.54243,43.60416],[-94.55108,43.59817],[-94.55598,43.59271],[-94.55591,43.58917],[-94.55203,43.58256],[-94.55242,43.57779],[-94.54476,43.57571],[-94.53756,43.56459],[-94.534,43.56615],[-94.52794,43.56431],[-94.52244,43.56719],[-94.51647,43.56527],[-94.51879,43.5608],[-94.51388,43.55748],[-94.50633,43.55936],[-94.50629,43.5539],[-94.51634,43.54782],[-94.52012,43.5485],[-94.51827,43.5446],[-94.51951,43.54316],[-94.51771,43.54261],[-94.51645,43.53859],[-94.51763,43.53638],[-94.52192,43.53503],[-94.5196,43.53096],[-94.52665,43.53194],[-94.52962,43.53433],[-94.53428,43.53245],[-94.54044,43.5333],[-94.54253,43.53196],[-94.54332,43.52712],[-94.53969,43.52558],[-94.54129,43.52055],[-94.53582,43.51736],[-94.52642,43.51753],[-94.5317,43.51114],[-94.52888,43.50864],[-94.53189,43.50662],[-94.5275,43.50419],[-94.52748,43.50241],[-94.53148,43.4997],[-94.53044,43.49809],[-94.52242,43.49598],[-94.51847,43.49271],[-94.51363,43.49434],[-94.51175,43.491],[-94.50895,43.49007],[-94.51034,43.48524],[-94.50393,43.48138],[-94.50343,43.47528],[-94.49508,43.47082],[-94.49582,43.4667],[-94.49332,43.46193],[-94.49124,43.46209],[-94.48908,43.45882],[-94.48309,43.45878],[-94.48534,43.45347],[-94.48244,43.45028],[-94.4822,43.44577],[-94.47779,43.43925],[-94.47815,43.43742],[-94.47434,43.43514],[-94.47327,43.43108],[-94.4687,43.43082],[-94.46144,43.43311],[-94.4609,43.43708],[-94.45755,43.4396],[-94.44796,43.43749],[-94.44267,43.43171],[-94.43741,43.43234],[-94.4344,43.43037],[-94.42734,43.43045],[-94.42742,43.43177],[-94.43319,43.43296],[-94.43419,43.43634],[-94.42967,43.44062],[-94.42169,43.43782],[-94.42153,43.444],[-94.42025,43.44515],[-94.4217,43.45141],[-94.41595,43.45105],[-94.41535,43.45372],[-94.41734,43.45568],[-94.41423,43.45793],[-94.41372,43.46163],[-94.41148,43.46193],[-94.40948,43.45902],[-94.40439,43.45964],[-94.40383,43.46286],[-94.39835,43.46122],[-94.39593,43.46317],[-94.39306,43.45813],[-94.38635,43.45763],[-94.38118,43.45891],[-94.37894,43.4631],[-94.37988,43.46432],[-94.36455,43.46682],[-94.36312,43.46411],[-94.36533,43.46124],[-94.3648,43.45854],[-94.35943,43.45539],[-94.36079,43.4528],[-94.36478,43.45214],[-94.3639,43.44601],[-94.35861,43.44435],[-94.35573,43.43888],[-94.35066,43.4357],[-94.35166,43.43443],[-94.35025,43.43047],[-94.34442,43.42942],[-94.3464,43.42353],[-94.34195,43.42125],[-94.33451,43.40865],[-94.32975,43.40482],[-94.33433,43.40234],[-94.33645,43.40336],[-94.34063,43.4004],[-94.32507,43.39928],[-94.32563,43.39421],[-94.31983,43.39141],[-94.31727,43.39244],[-94.30499,43.39034],[-94.30093,43.3915],[-94.29328,43.38996],[-94.29191,43.38756],[-94.28773,43.38792],[-94.27829,43.38527],[-94.26636,43.37916],[-94.26597,43.37555],[-94.24828,43.37246],[-94.24912,43.36959],[-94.24765,43.368],[-94.24141,43.36756],[-94.23658,43.36217],[-94.23884,43.35812],[-94.24323,43.35785],[-94.24418,43.35212],[-94.23566,43.35278],[-94.23363,43.34996],[-94.22489,43.34752],[-94.22093,43.34174],[-94.21721,43.34114],[-94.21626,43.34298],[-94.21195,43.34161],[-94.21097,43.34618],[-94.19931,43.34509],[-94.19457,43.34338],[-94.193,43.34068],[-94.1884,43.33826],[-94.18091,43.33543],[-94.17534,43.33559],[-94.17352,43.33216],[-94.168,43.32966],[-94.16909,43.32648],[-94.17315,43.32541],[-94.17269,43.32057],[-94.181,43.32154],[-94.18231,43.31987],[-94.1817,43.31646],[-94.18548,43.31491],[-94.18705,43.30997],[-94.17535,43.30272],[-94.17969,43.30259],[-94.18173,43.30076],[-94.1811,43.29778],[-94.18236,43.29619],[-94.18607,43.29559],[-94.18747,43.29382],[-94.18279,43.28998],[-94.18786,43.28739],[-94.18624,43.28583],[-94.18817,43.28289],[-94.18666,43.27802],[-94.18148,43.27382],[-94.18272,43.27045],[-94.17408,43.2679],[-94.17074,43.26535],[-94.17341,43.26194],[-94.17745,43.26188],[-94.18323,43.25852],[-94.18195,43.25627],[-94.18429,43.25402],[-94.17746,43.25339],[-94.17474,43.25009],[-94.16331,43.24546],[-94.16175,43.23991],[-94.15105,43.24133],[-94.14917,43.23763],[-94.14131,43.23593],[-94.13777,43.24338],[-94.13199,43.24457],[-94.12286,43.24302],[-94.11992,43.24703],[-94.11452,43.24851],[-94.11059,43.25333],[-94.10052,43.25536],[-94.09707,43.25439],[-94.09483,43.25602],[-94.08935,43.25634],[-94.08802,43.25839],[-94.08317,43.25742],[-94.07853,43.25985],[-94.07301,43.25802],[-94.066,43.26039],[-94.06307,43.26598],[-94.06777,43.26983],[-94.06337,43.27408],[-94.05833,43.27591],[-94.05995,43.27767],[-94.05923,43.28217],[-94.06137,43.28557],[-94.05534,43.28702],[-94.05455,43.292],[-94.0563,43.29447],[-94.0551,43.29721],[-94.05233,43.29705],[-94.05101,43.29939],[-94.05707,43.30442],[-94.07306,43.30627],[-94.07125,43.30789],[-94.07366,43.3148],[-94.0792,43.31726],[-94.0817,43.32125],[-94.07304,43.32446],[-94.07216,43.32604],[-94.07391,43.32912],[-94.06221,43.32913],[-94.05759,43.32694],[-94.05769,43.32526],[-94.05512,43.32398],[-94.05643,43.32139],[-94.05528,43.3187],[-94.04242,43.3121],[-94.03049,43.31433],[-94.02879,43.30244],[-94.02523,43.30451],[-94.01369,43.30282],[-94.01211,43.30755],[-94.00291,43.30344],[-93.99819,43.30363],[-93.99372,43.30634],[-93.97757,43.3099],[-93.97723,43.31493],[-93.97347,43.31589],[-93.97243,43.31822],[-93.97342,43.31965],[-93.97054,43.32104],[-93.97421,43.32097],[-93.98213,43.32688],[-93.97381,43.33422],[-93.97331,43.33745],[-93.97697,43.33983],[-93.9705,43.34199],[-93.96306,43.3408],[-93.95231,43.34405],[-93.94727,43.34248],[-93.94483,43.34333],[-93.94067,43.35097],[-93.94415,43.35391],[-93.94316,43.35513],[-93.93798,43.35292],[-93.93479,43.35474],[-93.93194,43.35402],[-93.92169,43.34971],[-93.91895,43.35172],[-93.91941,43.35488],[-93.91575,43.35467],[-93.9093,43.35915],[-93.90483,43.35778],[-93.90039,43.3607],[-93.89882,43.36367],[-93.90361,43.36573],[-93.90155,43.36914],[-93.89608,43.3703],[-93.88828,43.37483],[-93.88304,43.37346],[-93.8786,43.37495],[-93.87912,43.3814],[-93.86776,43.38571],[-93.86498,43.38823],[-93.86287,43.39348],[-93.85437,43.39596],[-93.85283,43.39506],[-93.85183,43.39786],[-93.84311,43.4047],[-93.84198,43.4083],[-93.83881,43.40978],[-93.83625,43.40848],[-93.83372,43.4094],[-93.83001,43.41586],[-93.82674,43.41839],[-93.82684,43.42043],[-93.81612,43.42463],[-93.81332,43.42641],[-93.81239,43.42937],[-93.81024,43.42969],[-93.81112,43.4345],[-93.80921,43.43603],[-93.8029,43.43581],[-93.80087,43.4375],[-93.79973,43.439],[-93.8026,43.44147],[-93.79253,43.4465],[-93.79231,43.4513],[-93.77535,43.44958],[-93.77582,43.45411],[-93.7741,43.45691],[-93.76672,43.45793],[-93.76614,43.46173],[-93.75889,43.46293],[-93.75519,43.46664],[-93.75516,43.47061],[-93.74882,43.47409],[-93.7462,43.47729],[-93.74023,43.47705],[-93.73841,43.47838],[-93.73462,43.47511],[-93.73394,43.47783],[-93.73051,43.47942],[-93.73152,43.48212],[-93.72323,43.48884],[-93.72002,43.48799],[-93.71992,43.48444],[-93.71062,43.48104],[-93.70551,43.47669],[-93.70072,43.47572],[-93.70796,43.47227],[-93.71071,43.46799],[-93.71397,43.46845],[-93.71935,43.46448],[-93.71373,43.46019],[-93.71179,43.46071],[-93.70749,43.45636],[-93.70672,43.45244],[-93.70346,43.45114],[-93.70402,43.44729],[-93.69679,43.44365],[-93.69675,43.43564],[-93.69989,43.43381],[-93.69841,43.43173],[-93.70659,43.42967],[-93.71068,43.42682],[-93.7225,43.42847],[-93.72659,43.42659],[-93.72984,43.42918],[-93.73671,43.42435],[-93.74092,43.42476],[-93.74209,43.41455],[-93.75463,43.40497],[-93.75228,43.40089],[-93.75462,43.39755],[-93.75843,43.39741],[-93.75785,43.39532],[-93.75942,43.39293],[-93.76408,43.38923],[-93.76181,43.38769],[-93.76198,43.38471],[-93.76805,43.37926],[-93.76855,43.37772],[-93.76632,43.37542],[-93.77202,43.36979],[-93.77559,43.37001],[-93.78204,43.36727],[-93.77988,43.36402],[-93.78181,43.36205],[-93.78077,43.35893],[-93.78311,43.35307],[-93.79455,43.33916],[-93.79094,43.33148],[-93.7746,43.32351],[-93.77049,43.31853],[-93.76857,43.31453],[-93.775,43.31111],[-93.77354,43.30603],[-93.7754,43.3042],[-93.76614,43.30449],[-93.76765,43.30165],[-93.76265,43.29618],[-93.75667,43.29358],[-93.75488,43.28737],[-93.7513,43.28501],[-93.75444,43.28219],[-93.75719,43.28379],[-93.75965,43.2823],[-93.76364,43.28327],[-93.76809,43.27604],[-93.77116,43.27417],[-93.76739,43.26447],[-93.77397,43.25771],[-93.7791,43.25607],[-93.78164,43.2579],[-93.79189,43.25359],[-93.78829,43.25056],[-93.78967,43.24805],[-93.78899,43.2425],[-93.81081,43.241],[-93.81358,43.23491],[-93.81978,43.23164],[-93.81639,43.22531],[-93.81976,43.22186],[-93.81678,43.21546],[-93.82474,43.20947],[-93.83497,43.21189],[-93.84053,43.21082],[-93.84113,43.21525],[-93.84458,43.21499],[-93.85421,43.21876],[-93.85996,43.21805],[-93.86532,43.21505],[-93.8643,43.21371],[-93.86619,43.21207],[-93.86222,43.20871],[-93.86729,43.20558],[-93.86323,43.20158],[-93.85825,43.20006],[-93.85938,43.19719],[-93.85617,43.18991],[-93.85957,43.18751],[-93.86248,43.18241],[-93.86165,43.17489],[-93.86895,43.17099],[-93.86415,43.16036],[-93.86729,43.15775],[-93.871,43.15755],[-93.87165,43.15528],[-93.86908,43.14891],[-93.86509,43.14755],[-93.86195,43.14378],[-93.84669,43.13836],[-93.84058,43.13354],[-93.83888,43.12412],[-93.8247,43.121],[-93.81229,43.10945],[-93.80281,43.10352],[-93.79984,43.09448],[-93.78943,43.08866],[-93.79094,43.0838],[-93.78337,43.08034],[-93.78072,43.07324],[-93.77906,43.07242],[-93.78017,43.06555],[-93.77475,43.0609],[-93.77537,43.05664],[-93.76905,43.05297],[-93.76612,43.04689],[-93.75954,43.03919],[-93.7597,43.03483],[-93.7542,43.0325],[-93.75643,43.02926],[-93.75224,43.01842],[-93.75389,43.01375],[-93.75386,43.00287],[-93.75126,42.99824],[-93.75102,42.99235],[-93.74717,42.98973],[-93.74196,42.99017],[-93.73901,42.98729],[-93.74214,42.98109],[-93.7382,42.97913],[-93.74105,42.97616],[-93.73891,42.97443],[-93.74567,42.97022],[-93.74425,42.967],[-93.73709,42.9655],[-93.73665,42.96335],[-93.73985,42.96088],[-93.73969,42.95715],[-93.73742,42.94755],[-93.73471,42.94449],[-93.73913,42.93953],[-93.74084,42.93268],[-93.73676,42.9289],[-93.73221,42.92836],[-93.73215,42.92561],[-93.72645,42.91961],[-93.7254,42.91422],[-93.72239,42.91341],[-93.72049,42.91072],[-93.72432,42.90945],[-93.72647,42.90622],[-93.7255,42.90138],[-93.72862,42.89896],[-93.72435,42.89716],[-93.7135,42.89622],[-93.70861,42.8986],[-93.70391,42.89632],[-93.70365,42.89337],[-93.70163,42.89246],[-93.70352,42.89083],[-93.70299,42.88936],[-93.69103,42.89204],[-93.68731,42.88609],[-93.6812,42.88529],[-93.68769,42.87926],[-93.69044,42.87956],[-93.69392,42.86967],[-93.69238,42.86607],[-93.69418,42.86285],[-93.69769,42.86094],[-93.69732,42.85717],[-93.69501,42.85633],[-93.69021,42.84812],[-93.69965,42.84446],[-93.70299,42.8411],[-93.69976,42.83815],[-93.70019,42.83445],[-93.69687,42.83148],[-93.69819,42.82865],[-93.70164,42.82741],[-93.69685,42.8234],[-93.6978,42.81979],[-93.69594,42.81849],[-93.69539,42.81378],[-93.69946,42.81321],[-93.6953,42.81103],[-93.69391,42.80831],[-93.69346,42.80569],[-93.69499,42.80385],[-93.68997,42.80284],[-93.69021,42.80142],[-93.68276,42.80042],[-93.68225,42.79797],[-93.68045,42.79728],[-93.68058,42.79465],[-93.68336,42.79294],[-93.67986,42.78803],[-93.67909,42.78072],[-93.68337,42.77726],[-93.68735,42.78006],[-93.69295,42.77882],[-93.69528,42.7735],[-93.69466,42.77133],[-93.69163,42.77054],[-93.68941,42.76726],[-93.69099,42.76233],[-93.68921,42.75653],[-93.68526,42.75324],[-93.68779,42.7486],[-93.68027,42.74466],[-93.67935,42.74209],[-93.67518,42.73978],[-93.67431,42.73658],[-93.65651,42.73289],[-93.65128,42.72849],[-93.65448,42.72299],[-93.64942,42.71439],[-93.66036,42.70937],[-93.6579,42.70711],[-93.65914,42.70558],[-93.65815,42.70405],[-93.66244,42.70025],[-93.66708,42.70015],[-93.67319,42.6975],[-93.6744,42.69236],[-93.67202,42.69093],[-93.67031,42.68499],[-93.67116,42.68361],[-93.66848,42.68232],[-93.6627,42.67411],[-93.66818,42.65815],[-93.65807,42.65898],[-93.64759,42.66473],[-93.64685,42.6602],[-93.64235,42.65613],[-93.6432,42.65295],[-93.64011,42.64985],[-93.64321,42.64879],[-93.64645,42.64265],[-93.64579,42.64045],[-93.64181,42.63853],[-93.64211,42.62884],[-93.63598,42.62524],[-93.63712,42.60824],[-93.6428,42.60843],[-93.65105,42.60402],[-93.65448,42.59975],[-93.65403,42.59609],[-93.65627,42.59335],[-93.65629,42.58935],[-93.66449,42.58655],[-93.66908,42.58209],[-93.66778,42.57856],[-93.65871,42.57355],[-93.65878,42.57194],[-93.65085,42.57219],[-93.64917,42.56733],[-93.65313,42.55927],[-93.66077,42.55062],[-93.66619,42.54153],[-93.66555,42.5397],[-93.66044,42.53712],[-93.66028,42.53501],[-93.66294,42.53432],[-93.66325,42.53213],[-93.66044,42.5307],[-93.65947,42.52724],[-93.66448,42.52238],[-93.67065,42.52147],[-93.6783,42.50313],[-93.6827,42.49947],[-93.68192,42.49502],[-93.68467,42.49142],[-93.69055,42.48962],[-93.69081,42.48431],[-93.68778,42.47853],[-93.69493,42.47777],[-93.70205,42.46975],[-93.70152,42.45833],[-93.69867,42.45582],[-93.70275,42.44856],[-93.70195,42.44465],[-93.70781,42.42956],[-93.70982,42.42611],[-93.71467,42.42281],[-93.71602,42.41859],[-93.7238,42.41153],[-93.72362,42.40916],[-93.7276,42.40602],[-93.7473,42.40522],[-93.74797,42.39962],[-93.75215,42.3986],[-93.75425,42.40007],[-93.75423,42.39657],[-93.75901,42.39407],[-93.75325,42.39205],[-93.75568,42.38895],[-93.75548,42.38616],[-93.76606,42.38359],[-93.76348,42.3748],[-93.75755,42.3729],[-93.75631,42.3673],[-93.76671,42.36005],[-93.7689,42.35609],[-93.76939,42.34642],[-93.77184,42.34444],[-93.77372,42.34436],[-93.77547,42.34688],[-93.78199,42.34674],[-93.78729,42.34424],[-93.79195,42.33908],[-93.78354,42.33236],[-93.78317,42.32775],[-93.77726,42.32291],[-93.77705,42.32072],[-93.78107,42.31841],[-93.79135,42.32329],[-93.80464,42.3243],[-93.80858,42.32328],[-93.81282,42.31956],[-93.82717,42.31688],[-93.82887,42.32006],[-93.83445,42.32],[-93.83534,42.32233],[-93.84177,42.32314],[-93.85178,42.31801],[-93.86568,42.3071],[-93.86688,42.31047],[-93.86981,42.31089],[-93.8737,42.31441],[-93.8845,42.31531],[-93.89252,42.30782],[-93.89423,42.30217],[-93.89896,42.30192],[-93.90193,42.29802],[-93.904,42.30033],[-93.90658,42.29931],[-93.90982,42.28832],[-93.90867,42.28598],[-93.9104,42.28397],[-93.9225,42.28211],[-93.92771,42.27559],[-93.92493,42.27182],[-93.92653,42.26956],[-93.93262,42.26744],[-93.9332,42.26216],[-93.93705,42.25667],[-93.93744,42.25322],[-93.94207,42.25183],[-93.94286,42.24866],[-93.94742,42.24765],[-93.94929,42.23612],[-93.94777,42.23233],[-93.95482,42.22896],[-93.95703,42.22232],[-93.96,42.21901],[-93.9513,42.2151],[-93.95111,42.21028],[-93.95412,42.20852],[-93.95155,42.20602],[-93.95337,42.20371],[-93.94721,42.20174],[-93.93996,42.20255],[-93.93322,42.20055],[-93.92832,42.19714],[-93.92225,42.19747],[-93.91723,42.19229],[-93.91348,42.19551],[-93.90713,42.19414],[-93.90082,42.19614],[-93.89885,42.19184],[-93.9015,42.18893],[-93.89903,42.18594],[-93.89982,42.18405],[-93.90955,42.18216],[-93.90234,42.17309],[-93.88912,42.16932],[-93.88591,42.16657],[-93.88743,42.16421],[-93.882,42.15668],[-93.8768,42.15606],[-93.87057,42.15032],[-93.86571,42.1506],[-93.86454,42.14707],[-93.86883,42.14222],[-93.87374,42.14084],[-93.88138,42.13568],[-93.89053,42.14139],[-93.89748,42.13738],[-93.89876,42.13442],[-93.89086,42.12567],[-93.8791,42.12539],[-93.87553,42.12014],[-93.87432,42.1134],[-93.87541,42.11133],[-93.87423,42.11029],[-93.87042,42.11079],[-93.86858,42.11302],[-93.86346,42.10957],[-93.86037,42.11069],[-93.85205,42.10843],[-93.85122,42.10612],[-93.85476,42.10376],[-93.85376,42.1015],[-93.8492,42.10041],[-93.84468,42.08767],[-93.84725,42.07816],[-93.83842,42.07655],[-93.8344,42.07307],[-93.83421,42.07084],[-93.83169,42.07],[-93.82896,42.06536],[-93.82957,42.0629],[-93.83288,42.06066],[-93.82655,42.04818],[-93.81951,42.04117],[-93.80709,42.03568],[-93.79889,42.03404],[-93.79056,42.02583],[-93.79063,42.01753],[-93.78082,42.0046],[-93.77609,41.99286],[-93.77239,41.9916],[-93.76895,41.98709],[-93.76031,41.98174],[-93.74568,41.98867],[-93.7352,41.98879],[-93.72901,41.98239],[-93.73612,41.97688],[-93.7302,41.97149],[-93.72526,41.97007],[-93.71739,41.96446],[-93.72027,41.96124],[-93.71959,41.95945],[-93.71364,41.95829],[-93.71305,41.95677],[-93.70787,41.95487],[-93.70992,41.95021],[-93.70776,41.94505],[-93.70412,41.94532],[-93.7008,41.93971],[-93.698,41.93838],[-93.70291,41.9362],[-93.70823,41.93042],[-93.72934,41.92781],[-93.7305,41.92943],[-93.73201,41.92878],[-93.73112,41.92523],[-93.71819,41.91363],[-93.71789,41.9114],[-93.71988,41.90965],[-93.71626,41.90384],[-93.71897,41.89949],[-93.71541,41.89736],[-93.71563,41.89376],[-93.70935,41.88643],[-93.70555,41.88431],[-93.70314,41.88037],[-93.69629,41.87691],[-93.69308,41.87247],[-93.69391,41.86901],[-93.69036,41.86518],[-93.68503,41.86272],[-93.68597,41.85924],[-93.68154,41.85838],[-93.68483,41.84799],[-93.68121,41.84515],[-93.68334,41.83583],[-93.68075,41.83281],[-93.67769,41.83427],[-93.67405,41.83307],[-93.6735,41.83146],[-93.66819,41.83082],[-93.66761,41.82718],[-93.67212,41.81829],[-93.66609,41.8145],[-93.66575,41.81227],[-93.66178,41.81056],[-93.65985,41.80738],[-93.64042,41.79401],[-93.63834,41.78753],[-93.64235,41.7816],[-93.63585,41.77792],[-93.63772,41.77411],[-93.63996,41.77335],[-93.63335,41.77002],[-93.62893,41.76402],[-93.62282,41.76402],[-93.61573,41.7601],[-93.61646,41.75857],[-93.6144,41.7545],[-93.61619,41.75253],[-93.60896,41.74981],[-93.61286,41.74712],[-93.60917,41.73705],[-93.61243,41.73287],[-93.61298,41.7279],[-93.61,41.72587],[-93.60397,41.72585],[-93.59669,41.7197],[-93.59321,41.72023],[-93.58656,41.71426],[-93.5893,41.71097],[-93.5897,41.708],[-93.58829,41.70625],[-93.58998,41.70487],[-93.59362,41.70396],[-93.59975,41.70522],[-93.59958,41.70041],[-93.59818,41.69902],[-93.6011,41.69693],[-93.60146,41.69445],[-93.59676,41.69282],[-93.59387,41.68793],[-93.59547,41.67688],[-93.59151,41.67148],[-93.59084,41.66691],[-93.58718,41.66581],[-93.58333,41.66056],[-93.58415,41.65421],[-93.58699,41.65334],[-93.58741,41.65058],[-93.5951,41.64936],[-93.59582,41.6468],[-93.59996,41.64685],[-93.60043,41.64304],[-93.60777,41.63597],[-93.61072,41.63607],[-93.61568,41.62711],[-93.61426,41.62241],[-93.60894,41.62449],[-93.60522,41.62398],[-93.60377,41.61998],[-93.5978,41.61608],[-93.60401,41.60678],[-93.60322,41.60228],[-93.60453,41.5989],[-93.6026,41.59518],[-93.59481,41.59025],[-93.59356,41.58641],[-93.60144,41.5828],[-93.61515,41.58026],[-93.62686,41.58298],[-93.63133,41.58971],[-93.63697,41.59015],[-93.64662,41.59672],[-93.6549,41.59875],[-93.66333,41.59861],[-93.67082,41.59648],[-93.67196,41.59455],[-93.67808,41.59447],[-93.67741,41.59987],[-93.6795,41.60132]],[[-93.91555,41.7617],[-93.91503,41.76286],[-93.90468,41.76378],[-93.90282,41.76622],[-93.88333,41.77339],[-93.88283,41.77473],[-93.88685,41.77645],[-93.89392,41.7741],[-93.90407,41.77507],[-93.89468,41.78211],[-93.89699,41.78636],[-93.92263,41.78142],[-93.92732,41.77571],[-93.92217,41.76583],[-93.92531,41.75771],[-93.92075,41.75748],[-93.91555,41.7617]],[[-93.82971,43.09343],[-93.82751,43.0902],[-93.83094,43.09039],[-93.83615,43.08768],[-93.8349,43.08563],[-93.83849,43.08275],[-93.83235,43.07433],[-93.82484,43.07147],[-93.82401,43.06664],[-93.81891,43.06387],[-93.8155,43.06483],[-93.81685,43.06894],[-93.81462,43.07268],[-93.81744,43.07694],[-93.81448,43.08558],[-93.8158,43.09754],[-93.82358,43.09794],[-93.82477,43.09525],[-93.8267,43.09866],[-93.82961,43.09667],[-93.82971,43.09343]],[[-95.77963,43.87781],[-95.7687,43.88188],[-95.76821,43.88463],[-95.77323,43.88321],[-95.77831,43.88504],[-95.78433,43.88277],[-95.78337,43.87953],[-95.77963,43.87781]]]}}]}