{"type":"FeatureCollection","features":[{"type":"Feature","properties":{},"geometry":{"type":"Polygon","coordinates":[[[-91.0913,42.45397],[-91.09873,42.45382],[-91.11334,42.46372],[-91.11877,42.46331],[-91.12349,42.46583],[-91.12692,42.46396],[-91.14085,42.46448],[-91.14612,42.47153],[-91.15804,42.47385],[-91.1674,42.47917],[-91.17713,42.47988],[-91.18182,42.4832],[-91.19501,42.48396],[-91.20443,42.49318],[-91.20688,42.49837],[-91.21477,42.50135],[-91.21703,42.50602],[-91.22303,42.50867],[-91.22581,42.51424],[-91.22133,42.51825],[-91.22536,42.52914],[-91.22312,42.53221],[-91.21719,42.53556],[-91.21903,42.53855],[-91.21901,42.54331],[-91.22334,42.55017],[-91.22214,42.55585],[-91.22801,42.56014],[-91.23375,42.56077],[-91.23747,42.56364],[-91.24937,42.56464],[-91.25769,42.56204],[-91.26149,42.56535],[-91.26812,42.56564],[-91.27119,42.56924],[-91.27842,42.57112],[-91.27927,42.57491],[-91.27598,42.57678],[-91.27366,42.58149],[-91.26974,42.58153],[-91.26583,42.58417],[-91.25116,42.58222],[-91.2482,42.58394],[-91.24833,42.58588],[-91.24339,42.58812],[-91.23946,42.58503],[-91.21964,42.59126],[-91.219,42.59225],[-91.22181,42.59368],[-91.22202,42.59601],[-91.21941,42.59835],[-91.22048,42.59991],[-91.21899,42.603],[-91.22277,42.60623],[-91.22231,42.60837],[-91.22975,42.61503],[-91.22782,42.61706],[-91.22171,42.61737],[-91.22053,42.6206],[-91.21139,42.62483],[-91.20783,42.62051],[-91.20997,42.61659],[-91.20864,42.6107],[-91.2042,42.61041],[-91.20011,42.60695],[-91.20303,42.6003],[-91.20072,42.59811],[-91.19039,42.59703],[-91.1868,42.59168],[-91.17921,42.59489],[-91.17563,42.5933],[-91.17302,42.59572],[-91.1667,42.59694],[-91.16608,42.59844],[-91.1632,42.59767],[-91.15696,42.60225],[-91.15336,42.60119],[-91.15182,42.60246],[-91.15235,42.6069],[-91.14825,42.60599],[-91.14554,42.60761],[-91.13668,42.60334],[-91.12566,42.60181],[-91.12448,42.60047],[-91.1194,42.60234],[-91.10981,42.60251],[-91.1057,42.60177],[-91.1053,42.59958],[-91.10233,42.59888],[-91.09876,42.60061],[-91.0924,42.59863],[-91.09186,42.60218],[-91.08831,42.60439],[-91.08164,42.60495],[-91.08238,42.60807],[-91.07514,42.61145],[-91.07402,42.6189],[-91.07155,42.61792],[-91.06626,42.61915],[-91.06621,42.62506],[-91.06064,42.62696],[-91.05695,42.63089],[-91.05116,42.62728],[-91.04461,42.62827],[-91.04582,42.63033],[-91.0434,42.63494],[-91.03494,42.63607],[-91.03394,42.63689],[-91.03503,42.63843],[-91.03272,42.63881],[-91.03115,42.64149],[-91.02802,42.64177],[-91.02572,42.64502],[-91.01942,42.64786],[-91.01865,42.65147],[-91.01246,42.65111],[-91.00566,42.64721],[-91.00365,42.64955],[-90.99519,42.64988],[-90.98878,42.64714],[-90.98318,42.63974],[-90.97978,42.63815],[-90.98084,42.63491],[-90.9882,42.62681],[-90.98824,42.62533],[-90.97727,42.61682],[-90.98324,42.6127],[-90.98159,42.60811],[-90.98467,42.60738],[-90.99077,42.60052],[-90.99569,42.60134],[-91.00231,42.59871],[-91.00359,42.59645],[-91.00788,42.59484],[-91.00674,42.59134],[-91.01378,42.59081],[-91.01621,42.58768],[-91.01555,42.58657],[-91.02052,42.5841],[-91.02383,42.57612],[-91.02616,42.57555],[-91.02601,42.57434],[-91.01969,42.56957],[-91.02074,42.56864],[-91.01955,42.56454],[-91.01284,42.56282],[-91.00741,42.55665],[-91.00058,42.55429],[-90.99906,42.55058],[-90.99666,42.54907],[-90.99634,42.54613],[-90.9903,42.5402],[-90.9836,42.53712],[-90.97607,42.53695],[-90.97569,42.53359],[-90.9724,42.5307],[-90.96379,42.52868],[-90.95973,42.52369],[-90.96037,42.51995],[-90.96968,42.51843],[-90.97287,42.51948],[-90.97562,42.51727],[-90.98405,42.51818],[-90.98585,42.51604],[-90.98523,42.51204],[-90.99283,42.50857],[-90.99425,42.50645],[-90.99373,42.50362],[-90.99675,42.50198],[-90.99732,42.49973],[-91.01504,42.49653],[-91.01136,42.48972],[-91.01121,42.48321],[-91.0092,42.48045],[-91.01083,42.47991],[-91.01324,42.47321],[-91.0114,42.47072],[-91.01173,42.46577],[-91.01663,42.46272],[-91.02166,42.45029],[-91.03328,42.44694],[-91.04534,42.44987],[-91.0496,42.44846],[-91.05167,42.44676],[-91.05176,42.44445],[-91.05347,42.44413],[-91.07606,42.44903],[-91.08236,42.44791],[-91.09011,42.44914],[-91.08975,42.45336],[-91.0913,42.45397]]]}}]}