{"type":"FeatureCollection","features":[{"type":"Feature","properties":{},"geometry":{"type":"Polygon","coordinates":[[[-94.89149,42.93355],[-94.89149,42.92939],[-94.89982,42.92939],[-94.89982,42.92522],[-94.90815,42.92522],[-94.90815,42.92939],[-94.91649,42.92939],[-94.91649,42.92522],[-94.93316,42.92522],[-94.93316,42.92105],[-94.93732,42.92105],[-94.93732,42.91689],[-94.94566,42.91689],[-94.94566,42.91272],[-94.94982,42.91272],[-94.94982,42.90855],[-94.95399,42.90855],[-94.95399,42.90439],[-94.95816,42.90439],[-94.95816,42.90022],[-94.96649,42.90022],[-94.96649,42.89605],[-94.97066,42.89605],[-94.97066,42.89188],[-94.97899,42.89188],[-94.97899,42.88772],[-94.98733,42.88772],[-94.98733,42.88355],[-94.99149,42.88355],[-94.99149,42.88772],[-94.99566,42.88772],[-94.99566,42.89188],[-95.01233,42.89188],[-95.01233,42.88772],[-95.02066,42.88772],[-95.02066,42.89188],[-95.06233,42.89188],[-95.06233,42.90022],[-95.0665,42.90022],[-95.0665,42.90439],[-95.07067,42.90439],[-95.07067,42.90855],[-95.0665,42.90855],[-95.0665,42.91689],[-95.079,42.91689],[-95.079,42.91272],[-95.08317,42.91272],[-95.08317,42.90855],[-95.08733,42.90855],[-95.08733,42.90439],[-95.09567,42.90439],[-95.09567,42.89605],[-95.09984,42.89605],[-95.09984,42.88772],[-95.10817,42.88772],[-95.10817,42.87938],[-95.11234,42.87938],[-95.11234,42.87522],[-95.14151,42.87522],[-95.14151,42.88355],[-95.14567,42.88355],[-95.14567,42.87938],[-95.16234,42.87938],[-95.16234,42.87522],[-95.16651,42.87522],[-95.16651,42.87105],[-95.17068,42.87105],[-95.17068,42.85855],[-95.18318,42.85855],[-95.18318,42.86272],[-95.18734,42.86272],[-95.18734,42.86688],[-95.19151,42.86688],[-95.19151,42.87105],[-95.19568,42.87105],[-95.19568,42.87938],[-95.22068,42.87938],[-95.22068,42.88355],[-95.22485,42.88355],[-95.22485,42.87522],[-95.24151,42.87522],[-95.24151,42.87105],[-95.24568,42.87105],[-95.24568,42.86688],[-95.24985,42.86688],[-95.24985,42.85855],[-95.26235,42.85855],[-95.26235,42.85438],[-95.27068,42.85438],[-95.27068,42.84188],[-95.27902,42.84188],[-95.27902,42.82521],[-95.27485,42.82521],[-95.27485,42.81271],[-95.27902,42.81271],[-95.27902,42.80854],[-95.27485,42.80854],[-95.27485,42.80021],[-95.27068,42.80021],[-95.27068,42.77521],[-95.26652,42.77521],[-95.26652,42.76687],[-95.26235,42.76687],[-95.26235,42.75854],[-95.25818,42.75854],[-95.25818,42.75437],[-95.25401,42.75437],[-95.25401,42.74604],[-95.24985,42.74604],[-95.24985,42.73771],[-95.24568,42.73771],[-95.24568,42.7252],[-95.23735,42.7252],[-95.23735,42.70854],[-95.22901,42.70854],[-95.22901,42.70437],[-95.22485,42.70437],[-95.22485,42.69604],[-95.22068,42.69604],[-95.22068,42.68353],[-95.21651,42.68353],[-95.21651,42.67937],[-95.21234,42.67937],[-95.21234,42.67103],[-95.21651,42.67103],[-95.21651,42.66687],[-95.22068,42.66687],[-95.22068,42.6627],[-95.24151,42.6627],[-95.24151,42.66687],[-95.24568,42.66687],[-95.24568,42.67103],[-95.24985,42.67103],[-95.24985,42.6752],[-95.25401,42.6752],[-95.25401,42.67937],[-95.25818,42.67937],[-95.25818,42.68353],[-95.26235,42.68353],[-95.26235,42.6877],[-95.26652,42.6877],[-95.26652,42.69187],[-95.27068,42.69187],[-95.27068,42.69604],[-95.27902,42.69604],[-95.27902,42.70437],[-95.28318,42.70437],[-95.28318,42.7127],[-95.28735,42.7127],[-95.28735,42.71687],[-95.29152,42.71687],[-95.29152,42.7252],[-95.30402,42.7252],[-95.30402,42.72104],[-95.30819,42.72104],[-95.30819,42.7127],[-95.31235,42.7127],[-95.31235,42.70854],[-95.31652,42.70854],[-95.31652,42.69604],[-95.31235,42.69604],[-95.31235,42.68353],[-95.31652,42.68353],[-95.31652,42.67937],[-95.30819,42.67937],[-95.30819,42.67103],[-95.30402,42.67103],[-95.30402,42.66687],[-95.29985,42.66687],[-95.29985,42.65853],[-95.28735,42.65853],[-95.28735,42.64603],[-95.29152,42.64603],[-95.29152,42.6377],[-95.28735,42.6377],[-95.28735,42.63353],[-95.28318,42.63353],[-95.28318,42.62936],[-95.27902,42.62936],[-95.27902,42.6252],[-95.27485,42.6252],[-95.27485,42.6127],[-95.26235,42.6127],[-95.26235,42.60853],[-95.25818,42.60853],[-95.25818,42.60436],[-95.24985,42.60436],[-95.24985,42.60853],[-95.24151,42.60853],[-95.24151,42.60436],[-95.22901,42.60436],[-95.22901,42.60019],[-95.19151,42.60019],[-95.19151,42.59603],[-95.18318,42.59603],[-95.18318,42.59186],[-95.17901,42.59186],[-95.17901,42.58769],[-95.16651,42.58769],[-95.16651,42.57936],[-95.16234,42.57936],[-95.16234,42.57519],[-95.15817,42.57519],[-95.15817,42.56269],[-95.15401,42.56269],[-95.15401,42.54186],[-95.14567,42.54186],[-95.14567,42.53352],[-95.14151,42.53352],[-95.14151,42.51685],[-95.14567,42.51685],[-95.14567,42.50019],[-95.14151,42.50019],[-95.14151,42.49602],[-95.13734,42.49602],[-95.13734,42.48769],[-95.13317,42.48769],[-95.13317,42.48352],[-95.129,42.48352],[-95.129,42.47518],[-95.12484,42.47518],[-95.12484,42.44602],[-95.12067,42.44602],[-95.12067,42.41268],[-95.1165,42.41268],[-95.1165,42.40435],[-95.12067,42.40435],[-95.12067,42.39184],[-95.12484,42.39184],[-95.12484,42.38768],[-95.12067,42.38768],[-95.12067,42.36684],[-95.1165,42.36684],[-95.1165,42.35851],[-95.10817,42.35851],[-95.10817,42.35434],[-95.104,42.35434],[-95.104,42.35017],[-95.09984,42.35017],[-95.09984,42.34184],[-95.104,42.34184],[-95.104,42.32517],[-95.10817,42.32517],[-95.10817,42.3085],[-95.09984,42.3085],[-95.09984,42.30017],[-95.104,42.30017],[-95.104,42.296],[-95.09984,42.296],[-95.09984,42.29184],[-95.104,42.29184],[-95.104,42.28767],[-95.09567,42.28767],[-95.09567,42.2835],[-95.0915,42.2835],[-95.0915,42.271],[-95.08733,42.271],[-95.08733,42.26267],[-95.08317,42.26267],[-95.08317,42.2585],[-95.079,42.2585],[-95.079,42.22516],[-95.07483,42.22516],[-95.07483,42.221],[-95.0665,42.221],[-95.0665,42.21683],[-95.054,42.21683],[-95.054,42.21266],[-95.04983,42.21266],[-95.04983,42.2085],[-95.0415,42.2085],[-95.0415,42.196],[-95.03733,42.196],[-95.03733,42.19183],[-95.02066,42.19183],[-95.02066,42.18766],[-94.98733,42.18766],[-94.98733,42.18349],[-94.97483,42.18349],[-94.97483,42.17933],[-94.97066,42.17933],[-94.97066,42.17516],[-94.96649,42.17516],[-94.96649,42.18349],[-94.97066,42.18349],[-94.97066,42.18766],[-94.96649,42.18766],[-94.96649,42.2085],[-94.97066,42.2085],[-94.97066,42.21266],[-94.96649,42.21266],[-94.96649,42.221],[-94.96232,42.221],[-94.96232,42.22516],[-94.95816,42.22516],[-94.95816,42.22933],[-94.95399,42.22933],[-94.95399,42.2335],[-94.94982,42.2335],[-94.94982,42.22933],[-94.94149,42.22933],[-94.94149,42.22516],[-94.93316,42.22516],[-94.93316,42.221],[-94.92482,42.221],[-94.92482,42.21683],[-94.92065,42.21683],[-94.92065,42.2085],[-94.91649,42.2085],[-94.91649,42.20433],[-94.91232,42.20433],[-94.91232,42.20016],[-94.90815,42.20016],[-94.90815,42.196],[-94.90399,42.196],[-94.90399,42.19183],[-94.89149,42.19183],[-94.89149,42.18766],[-94.88732,42.18766],[-94.88732,42.18349],[-94.88315,42.18349],[-94.88315,42.17933],[-94.87482,42.17933],[-94.87482,42.17516],[-94.86648,42.17516],[-94.86648,42.17099],[-94.85398,42.17099],[-94.85398,42.16683],[-94.84565,42.16683],[-94.84565,42.16266],[-94.82898,42.16266],[-94.82898,42.16683],[-94.82481,42.16683],[-94.82481,42.16266],[-94.82065,42.16266],[-94.82065,42.15849],[-94.81648,42.15849],[-94.81648,42.15433],[-94.80815,42.15433],[-94.80815,42.14599],[-94.79981,42.14599],[-94.79981,42.14182],[-94.79148,42.14182],[-94.79148,42.13766],[-94.78731,42.13766],[-94.78731,42.12932],[-94.78314,42.12932],[-94.78314,42.12516],[-94.78731,42.12516],[-94.78731,42.12099],[-94.78314,42.12099],[-94.78314,42.11682],[-94.77898,42.11682],[-94.77898,42.12099],[-94.76648,42.12099],[-94.76648,42.11682],[-94.75814,42.11682],[-94.75814,42.12099],[-94.74981,42.12099],[-94.74981,42.11682],[-94.73731,42.11682],[-94.73731,42.10849],[-94.72897,42.10849],[-94.72897,42.10015],[-94.72064,42.10015],[-94.72064,42.09182],[-94.73314,42.09182],[-94.73314,42.08765],[-94.73731,42.08765],[-94.73731,42.08349],[-94.74147,42.08349],[-94.74147,42.07515],[-94.73314,42.07515],[-94.73314,42.07932],[-94.72897,42.07932],[-94.72897,42.07515],[-94.72481,42.07515],[-94.72481,42.07099],[-94.72064,42.07099],[-94.72064,42.07515],[-94.71647,42.07515],[-94.71647,42.07099],[-94.71231,42.07099],[-94.71231,42.06682],[-94.70814,42.06682],[-94.70814,42.06265],[-94.70397,42.06265],[-94.70397,42.05848],[-94.6998,42.05848],[-94.6998,42.05432],[-94.69564,42.05432],[-94.69564,42.05015],[-94.6873,42.05015],[-94.6873,42.04598],[-94.68314,42.04598],[-94.68314,42.05432],[-94.67897,42.05432],[-94.67897,42.05015],[-94.67063,42.05015],[-94.67063,42.04598],[-94.66647,42.04598],[-94.66647,42.03765],[-94.6623,42.03765],[-94.6623,42.03348],[-94.65813,42.03348],[-94.65813,42.02515],[-94.65397,42.02515],[-94.65397,42.01681],[-94.64563,42.01681],[-94.64563,42.00848],[-94.64147,42.00848],[-94.64147,42.01265],[-94.6373,42.01265],[-94.6373,42.01681],[-94.62896,42.01681],[-94.62896,42.02098],[-94.6248,42.02098],[-94.6248,42.02515],[-94.62063,42.02515],[-94.62063,42.02932],[-94.61646,42.02932],[-94.61646,42.03348],[-94.6123,42.03348],[-94.6123,42.03765],[-94.60813,42.03765],[-94.60813,42.04182],[-94.59563,42.04182],[-94.59563,42.03765],[-94.58729,42.03765],[-94.58729,42.03348],[-94.58313,42.03348],[-94.58313,42.02932],[-94.57896,42.02932],[-94.57896,42.01265],[-94.57479,42.01265],[-94.57479,42.00848],[-94.57063,42.00848],[-94.57063,42.00431],[-94.56646,42.00431],[-94.56646,41.99181],[-94.56229,41.99181],[-94.56229,41.98765],[-94.55396,41.98765],[-94.55396,41.97931],[-94.54979,41.97931],[-94.54979,41.99181],[-94.54563,41.99181],[-94.54563,41.99598],[-94.54979,41.99598],[-94.54979,42.00431],[-94.54563,42.00431],[-94.54563,42.01265],[-94.53312,42.01265],[-94.53312,42.00848],[-94.52479,42.00848],[-94.52479,42.00431],[-94.49979,42.00431],[-94.49979,42.00015],[-94.49562,42.00015],[-94.49562,41.99598],[-94.48729,41.99598],[-94.48729,41.98765],[-94.49145,41.98765],[-94.49145,41.98348],[-94.48729,41.98348],[-94.48729,41.97931],[-94.48312,41.97931],[-94.48312,41.97514],[-94.47062,41.97514],[-94.47062,41.96681],[-94.46228,41.96681],[-94.46228,41.96264],[-94.44145,41.96264],[-94.44145,41.96681],[-94.43728,41.96681],[-94.43728,41.96264],[-94.42895,41.96264],[-94.42895,41.95848],[-94.42478,41.95848],[-94.42478,41.94598],[-94.42061,41.94598],[-94.42061,41.94181],[-94.41645,41.94181],[-94.41645,41.93764],[-94.41228,41.93764],[-94.41228,41.94181],[-94.40811,41.94181],[-94.40811,41.93764],[-94.40395,41.93764],[-94.40395,41.94181],[-94.39145,41.94181],[-94.39145,41.93764],[-94.38311,41.93764],[-94.38311,41.93347],[-94.37895,41.93347],[-94.37895,41.95014],[-94.38311,41.95014],[-94.38311,41.96681],[-94.37895,41.96681],[-94.37895,41.97098],[-94.37478,41.97098],[-94.37478,41.97514],[-94.37061,41.97514],[-94.37061,41.97931],[-94.35811,41.97931],[-94.35811,41.98348],[-94.35394,41.98348],[-94.35394,41.99181],[-94.34978,41.99181],[-94.34978,41.99598],[-94.35394,41.99598],[-94.35394,42.00015],[-94.35811,42.00015],[-94.35811,42.00431],[-94.36228,42.00431],[-94.36228,42.00848],[-94.37478,42.00848],[-94.37478,42.01681],[-94.38728,42.01681],[-94.38728,42.02098],[-94.39145,42.02098],[-94.39145,42.02515],[-94.39561,42.02515],[-94.39561,42.02932],[-94.40395,42.02932],[-94.40395,42.02515],[-94.40811,42.02515],[-94.40811,42.02098],[-94.42061,42.02098],[-94.42061,42.02515],[-94.42478,42.02515],[-94.42478,42.02932],[-94.42895,42.02932],[-94.42895,42.03765],[-94.43312,42.03765],[-94.43312,42.04598],[-94.44562,42.04598],[-94.44562,42.05015],[-94.45812,42.05015],[-94.45812,42.05432],[-94.46645,42.05432],[-94.46645,42.06682],[-94.47062,42.06682],[-94.47062,42.07932],[-94.46645,42.07932],[-94.46645,42.09182],[-94.47062,42.09182],[-94.47062,42.09599],[-94.46645,42.09599],[-94.46645,42.10015],[-94.46228,42.10015],[-94.46228,42.10432],[-94.45812,42.10432],[-94.45812,42.10849],[-94.46228,42.10849],[-94.46228,42.11266],[-94.47062,42.11266],[-94.47062,42.11682],[-94.47479,42.11682],[-94.47479,42.12099],[-94.48312,42.12099],[-94.48312,42.11682],[-94.48729,42.11682],[-94.48729,42.12099],[-94.49145,42.12099],[-94.49145,42.12516],[-94.49979,42.12516],[-94.49979,42.12932],[-94.50812,42.12932],[-94.50812,42.13349],[-94.51229,42.13349],[-94.51229,42.13766],[-94.51646,42.13766],[-94.51646,42.14599],[-94.52062,42.14599],[-94.52062,42.17099],[-94.52479,42.17099],[-94.52479,42.196],[-94.52062,42.196],[-94.52062,42.2085],[-94.52896,42.2085],[-94.52896,42.21266],[-94.52479,42.21266],[-94.52479,42.21683],[-94.52896,42.21683],[-94.52896,42.22516],[-94.53312,42.22516],[-94.53312,42.22933],[-94.52896,42.22933],[-94.52896,42.2335],[-94.52479,42.2335],[-94.52479,42.23767],[-94.51646,42.23767],[-94.51646,42.24183],[-94.51229,42.24183],[-94.51229,42.246],[-94.50395,42.246],[-94.50395,42.25017],[-94.49979,42.25017],[-94.49979,42.26267],[-94.49562,42.26267],[-94.49562,42.26683],[-94.49979,42.26683],[-94.49979,42.271],[-94.48729,42.271],[-94.48729,42.27517],[-94.46645,42.27517],[-94.46645,42.27934],[-94.46228,42.27934],[-94.46228,42.27517],[-94.45812,42.27517],[-94.45812,42.2835],[-94.45395,42.2835],[-94.45395,42.29184],[-94.45812,42.29184],[-94.45812,42.296],[-94.46228,42.296],[-94.46228,42.30017],[-94.47062,42.30017],[-94.47062,42.3085],[-94.45812,42.3085],[-94.45812,42.31267],[-94.47062,42.31267],[-94.47062,42.32934],[-94.47479,42.32934],[-94.47479,42.33351],[-94.46228,42.33351],[-94.46228,42.33767],[-94.44978,42.33767],[-94.44978,42.34184],[-94.44562,42.34184],[-94.44562,42.35017],[-94.44978,42.35017],[-94.44978,42.35434],[-94.45395,42.35434],[-94.45395,42.35851],[-94.44978,42.35851],[-94.44978,42.37101],[-94.44145,42.37101],[-94.44145,42.38351],[-94.44562,42.38351],[-94.44562,42.38768],[-94.44978,42.38768],[-94.44978,42.39601],[-94.45395,42.39601],[-94.45395,42.41685],[-94.46228,42.41685],[-94.46228,42.42101],[-94.47062,42.42101],[-94.47062,42.41685],[-94.47895,42.41685],[-94.47895,42.42101],[-94.48312,42.42101],[-94.48312,42.42518],[-94.48729,42.42518],[-94.48729,42.43351],[-94.49145,42.43351],[-94.49145,42.44185],[-94.48729,42.44185],[-94.48729,42.44602],[-94.48312,42.44602],[-94.48312,42.45018],[-94.48729,42.45018],[-94.48729,42.45435],[-94.49562,42.45435],[-94.49562,42.45852],[-94.49979,42.45852],[-94.49979,42.46685],[-94.49562,42.46685],[-94.49562,42.47102],[-94.49145,42.47102],[-94.49145,42.48352],[-94.48729,42.48352],[-94.48729,42.49185],[-94.50812,42.49185],[-94.50812,42.49602],[-94.51229,42.49602],[-94.51229,42.51269],[-94.51646,42.51269],[-94.51646,42.52102],[-94.51229,42.52102],[-94.51229,42.52519],[-94.50812,42.52519],[-94.50812,42.52936],[-94.51229,42.52936],[-94.51229,42.53352],[-94.50812,42.53352],[-94.50812,42.54186],[-94.51646,42.54186],[-94.51646,42.54602],[-94.52479,42.54602],[-94.52479,42.55019],[-94.52896,42.55019],[-94.52896,42.55436],[-94.55396,42.55436],[-94.55396,42.55852],[-94.55813,42.55852],[-94.55813,42.56269],[-94.56646,42.56269],[-94.56646,42.55852],[-94.57479,42.55852],[-94.57479,42.56269],[-94.58313,42.56269],[-94.58313,42.56686],[-94.59563,42.56686],[-94.59563,42.57103],[-94.5998,42.57103],[-94.5998,42.57519],[-94.60813,42.57519],[-94.60813,42.57936],[-94.61646,42.57936],[-94.61646,42.58353],[-94.6373,42.58353],[-94.6373,42.58769],[-94.64563,42.58769],[-94.64563,42.59186],[-94.6498,42.59186],[-94.6498,42.59603],[-94.65813,42.59603],[-94.65813,42.60019],[-94.6623,42.60019],[-94.6623,42.60436],[-94.67063,42.60436],[-94.67063,42.60853],[-94.68314,42.60853],[-94.68314,42.61686],[-94.6873,42.61686],[-94.6873,42.62103],[-94.69147,42.62103],[-94.69147,42.6252],[-94.70397,42.6252],[-94.70397,42.62936],[-94.72897,42.62936],[-94.72897,42.61686],[-94.74981,42.61686],[-94.74981,42.62103],[-94.75397,42.62103],[-94.75397,42.62936],[-94.75814,42.62936],[-94.75814,42.63353],[-94.75397,42.63353],[-94.75397,42.6627],[-94.75814,42.6627],[-94.75814,42.66687],[-94.76231,42.66687],[-94.76231,42.67103],[-94.76648,42.67103],[-94.76648,42.6752],[-94.77064,42.6752],[-94.77064,42.67937],[-94.77481,42.67937],[-94.77481,42.68353],[-94.77064,42.68353],[-94.77064,42.71687],[-94.76648,42.71687],[-94.76648,42.7252],[-94.76231,42.7252],[-94.76231,42.72937],[-94.76648,42.72937],[-94.76648,42.73354],[-94.75814,42.73354],[-94.75814,42.73771],[-94.75397,42.73771],[-94.75397,42.74187],[-94.74981,42.74187],[-94.74981,42.74604],[-94.74564,42.74604],[-94.74564,42.75854],[-94.74981,42.75854],[-94.74981,42.76687],[-94.75397,42.76687],[-94.75397,42.77104],[-94.75814,42.77104],[-94.75814,42.77938],[-94.75397,42.77938],[-94.75397,42.78354],[-94.76231,42.78354],[-94.76231,42.79188],[-94.76648,42.79188],[-94.76648,42.80021],[-94.77064,42.80021],[-94.77064,42.80854],[-94.77898,42.80854],[-94.77898,42.81688],[-94.78731,42.81688],[-94.78731,42.82105],[-94.79564,42.82105],[-94.79564,42.82521],[-94.79981,42.82521],[-94.79981,42.82105],[-94.80398,42.82105],[-94.80398,42.83771],[-94.80815,42.83771],[-94.80815,42.84188],[-94.81231,42.84188],[-94.81231,42.85438],[-94.81648,42.85438],[-94.81648,42.86272],[-94.81231,42.86272],[-94.81231,42.86688],[-94.80815,42.86688],[-94.80815,42.87105],[-94.81648,42.87105],[-94.81648,42.87522],[-94.82065,42.87522],[-94.82065,42.87938],[-94.82481,42.87938],[-94.82481,42.88355],[-94.82898,42.88355],[-94.82898,42.89605],[-94.83315,42.89605],[-94.83315,42.91272],[-94.83731,42.91272],[-94.83731,42.91689],[-94.84148,42.91689],[-94.84148,42.92105],[-94.84565,42.92105],[-94.84565,42.92522],[-94.84982,42.92522],[-94.84982,42.92939],[-94.86648,42.92939],[-94.86648,42.93355],[-94.89149,42.93355]],[[-94.53729,42.2335],[-94.53312,42.2335],[-94.53312,42.22933],[-94.53729,42.22933],[-94.53729,42.2335]]]}}]}