{"type":"FeatureCollection","features":[{"type":"Feature","properties":{},"geometry":{"type":"Polygon","coordinates":[[[-93.21165,42.29943],[-93.24064,42.30655],[-93.24463,42.30389],[-93.25617,42.30448],[-93.26866,42.30915],[-93.27062,42.30682],[-93.28029,42.30383],[-93.28227,42.30087],[-93.28496,42.30258],[-93.28632,42.30814],[-93.28065,42.31186],[-93.27928,42.31744],[-93.29097,42.32032],[-93.30163,42.31968],[-93.30487,42.32834],[-93.31197,42.32229],[-93.31668,42.32168],[-93.31435,42.32798],[-93.31886,42.32974],[-93.32049,42.33421],[-93.32803,42.33772],[-93.33979,42.32925],[-93.34745,42.32867],[-93.34799,42.33187],[-93.35482,42.33611],[-93.35689,42.34022],[-93.35804,42.34445],[-93.35539,42.34866],[-93.35837,42.349],[-93.35878,42.35164],[-93.37876,42.35573],[-93.38168,42.36044],[-93.3926,42.35913],[-93.3955,42.36245],[-93.39976,42.35871],[-93.40353,42.36333],[-93.40645,42.36169],[-93.41102,42.36187],[-93.41785,42.35588],[-93.42273,42.35568],[-93.42495,42.35839],[-93.43089,42.35298],[-93.43239,42.34936],[-93.43942,42.34646],[-93.44793,42.34932],[-93.45533,42.34612],[-93.45875,42.34887],[-93.46297,42.34908],[-93.46438,42.35092],[-93.47105,42.35073],[-93.47591,42.35402],[-93.47808,42.35173],[-93.47754,42.348],[-93.48002,42.34762],[-93.4817,42.3481],[-93.48212,42.35148],[-93.49057,42.35548],[-93.48909,42.35895],[-93.48539,42.35937],[-93.48592,42.36523],[-93.48341,42.36722],[-93.4894,42.36881],[-93.49394,42.36689],[-93.49894,42.3683],[-93.50642,42.36134],[-93.51591,42.36875],[-93.53034,42.37622],[-93.52807,42.37998],[-93.52923,42.38147],[-93.53648,42.3824],[-93.5441,42.38765],[-93.56012,42.38047],[-93.55995,42.38293],[-93.56384,42.38469],[-93.56596,42.38823],[-93.56829,42.3986],[-93.56373,42.40353],[-93.56528,42.40582],[-93.56349,42.40939],[-93.56486,42.41827],[-93.56083,42.42316],[-93.56035,42.42693],[-93.55541,42.43053],[-93.55647,42.43448],[-93.55234,42.4378],[-93.55527,42.44329],[-93.55279,42.44742],[-93.55541,42.45285],[-93.5546,42.45808],[-93.5508,42.46255],[-93.55127,42.46846],[-93.54748,42.47238],[-93.54796,42.4758],[-93.55065,42.47701],[-93.54801,42.48137],[-93.54928,42.48369],[-93.54608,42.48769],[-93.54816,42.48949],[-93.54706,42.49081],[-93.55284,42.50334],[-93.56096,42.50357],[-93.56502,42.50543],[-93.56562,42.50322],[-93.57058,42.50119],[-93.5816,42.50802],[-93.58709,42.50586],[-93.59245,42.50611],[-93.61506,42.51152],[-93.61856,42.50881],[-93.61631,42.50405],[-93.619,42.50361],[-93.62147,42.50087],[-93.62108,42.49959],[-93.61767,42.50003],[-93.61623,42.49694],[-93.61783,42.4951],[-93.6251,42.49157],[-93.6325,42.49169],[-93.63396,42.49],[-93.63339,42.4865],[-93.63633,42.48673],[-93.64346,42.48302],[-93.64324,42.47882],[-93.65199,42.47745],[-93.6527,42.47397],[-93.65596,42.47311],[-93.66098,42.47507],[-93.66165,42.47865],[-93.6572,42.48829],[-93.6651,42.4948],[-93.66452,42.49687],[-93.66127,42.49851],[-93.66696,42.50273],[-93.66511,42.50457],[-93.66282,42.50438],[-93.66503,42.50858],[-93.66427,42.51669],[-93.66726,42.51886],[-93.67102,42.51913],[-93.67065,42.52147],[-93.66448,42.52238],[-93.65947,42.52724],[-93.66044,42.5307],[-93.66325,42.53213],[-93.66294,42.53432],[-93.66028,42.53501],[-93.66044,42.53712],[-93.66555,42.5397],[-93.66619,42.54153],[-93.66409,42.5455],[-93.65445,42.55731],[-93.64917,42.56733],[-93.637,42.56695],[-93.63608,42.56436],[-93.63311,42.56517],[-93.62692,42.56312],[-93.6222,42.56577],[-93.61794,42.56207],[-93.61745,42.56474],[-93.61225,42.56624],[-93.60774,42.57017],[-93.60434,42.56532],[-93.59485,42.56419],[-93.59147,42.56627],[-93.58233,42.56523],[-93.57606,42.56227],[-93.56844,42.56149],[-93.56648,42.55799],[-93.55973,42.55663],[-93.55806,42.5577],[-93.55915,42.5593],[-93.55688,42.56227],[-93.54862,42.56614],[-93.54606,42.57106],[-93.53797,42.57455],[-93.53684,42.578],[-93.52721,42.57366],[-93.52487,42.57614],[-93.52112,42.57403],[-93.5173,42.5782],[-93.5152,42.57351],[-93.51257,42.57362],[-93.51293,42.57118],[-93.506,42.5701],[-93.49016,42.57408],[-93.48515,42.57195],[-93.48369,42.56805],[-93.47737,42.56867],[-93.47465,42.56316],[-93.46938,42.5603],[-93.46266,42.56866],[-93.44211,42.56972],[-93.42014,42.56181],[-93.41905,42.55907],[-93.42099,42.55605],[-93.41993,42.55559],[-93.40656,42.55675],[-93.4054,42.55571],[-93.40654,42.55379],[-93.39609,42.55048],[-93.40006,42.54564],[-93.39908,42.54321],[-93.40624,42.54226],[-93.40808,42.54],[-93.4081,42.5354],[-93.41128,42.53231],[-93.41009,42.53065],[-93.41317,42.52894],[-93.41392,42.52635],[-93.41333,42.5207],[-93.40481,42.51617],[-93.40249,42.51734],[-93.38617,42.51413],[-93.38328,42.51305],[-93.38301,42.51064],[-93.3787,42.50942],[-93.3781,42.50753],[-93.37088,42.50923],[-93.36033,42.5055],[-93.36269,42.49882],[-93.37616,42.48754],[-93.36102,42.48502],[-93.36084,42.4832],[-93.35454,42.48085],[-93.35103,42.47568],[-93.34417,42.47863],[-93.3395,42.4775],[-93.33801,42.47193],[-93.33172,42.46948],[-93.32878,42.47115],[-93.32599,42.46927],[-93.32518,42.46616],[-93.32792,42.46329],[-93.32986,42.45773],[-93.32871,42.45144],[-93.32594,42.45155],[-93.32156,42.44851],[-93.32448,42.444],[-93.3201,42.43815],[-93.32156,42.43055],[-93.31931,42.42899],[-93.32146,42.42489],[-93.31791,42.42186],[-93.31432,42.42193],[-93.30598,42.41705],[-93.29279,42.41651],[-93.28278,42.41405],[-93.27816,42.41252],[-93.2756,42.40974],[-93.26444,42.40947],[-93.26193,42.40838],[-93.26117,42.40592],[-93.25745,42.40635],[-93.2577,42.40413],[-93.24818,42.40322],[-93.23951,42.40602],[-93.23902,42.40276],[-93.24273,42.39625],[-93.2409,42.39502],[-93.24092,42.39191],[-93.23469,42.38749],[-93.22677,42.3861],[-93.22649,42.38321],[-93.22272,42.38088],[-93.22312,42.37822],[-93.21787,42.37777],[-93.21548,42.37339],[-93.21051,42.37262],[-93.20888,42.36575],[-93.20594,42.36635],[-93.19421,42.3634],[-93.19421,42.35831],[-93.18998,42.35962],[-93.18873,42.35792],[-93.18615,42.35814],[-93.1846,42.35049],[-93.18084,42.3501],[-93.17355,42.34459],[-93.16774,42.34635],[-93.16479,42.34279],[-93.15475,42.34591],[-93.15263,42.34399],[-93.15825,42.33594],[-93.15612,42.33461],[-93.15236,42.32615],[-93.15292,42.31903],[-93.14732,42.31486],[-93.14588,42.3119],[-93.16255,42.30877],[-93.16561,42.30725],[-93.1657,42.30418],[-93.1689,42.30397],[-93.16864,42.30016],[-93.1703,42.29813],[-93.16308,42.29456],[-93.16626,42.29339],[-93.17126,42.29539],[-93.17201,42.29171],[-93.17161,42.28888],[-93.16945,42.28711],[-93.17006,42.28518],[-93.17587,42.28725],[-93.17921,42.29388],[-93.18338,42.29484],[-93.1872,42.2984],[-93.19564,42.30078],[-93.19786,42.3003],[-93.19995,42.29725],[-93.20472,42.298],[-93.20588,42.29602],[-93.21165,42.29943]]]}}]}