{"type":"FeatureCollection","features":[{"type":"Feature","properties":{},"geometry":{"type":"Polygon","coordinates":[[[-95.054,42.04598],[-95.054,42.04182],[-95.06233,42.04182],[-95.06233,42.03348],[-95.0665,42.03348],[-95.0665,42.02932],[-95.104,42.02932],[-95.104,42.03348],[-95.10817,42.03348],[-95.10817,42.02932],[-95.11234,42.02932],[-95.11234,42.03348],[-95.12067,42.03348],[-95.12067,42.02932],[-95.12484,42.02932],[-95.12484,42.02515],[-95.129,42.02515],[-95.129,42.02098],[-95.13734,42.02098],[-95.13734,42.01681],[-95.14151,42.01681],[-95.14151,42.02098],[-95.14984,42.02098],[-95.14984,42.01681],[-95.17068,42.01681],[-95.17068,42.02098],[-95.18318,42.02098],[-95.18318,42.01681],[-95.18734,42.01681],[-95.18734,42.01265],[-95.19568,42.01265],[-95.19568,42.00848],[-95.20401,42.00848],[-95.20401,41.99598],[-95.22068,41.99598],[-95.22068,41.99181],[-95.24151,41.99181],[-95.24151,41.98765],[-95.24985,41.98765],[-95.24985,41.97514],[-95.25401,41.97514],[-95.25401,41.96264],[-95.25818,41.96264],[-95.25818,41.95848],[-95.26652,41.95848],[-95.26652,41.95431],[-95.27068,41.95431],[-95.27068,41.95014],[-95.26652,41.95014],[-95.26652,41.94598],[-95.28735,41.94598],[-95.28735,41.94181],[-95.29152,41.94181],[-95.29152,41.92931],[-95.29568,41.92931],[-95.29568,41.92514],[-95.29985,41.92514],[-95.29985,41.92931],[-95.31235,41.92931],[-95.31235,41.92514],[-95.32485,41.92514],[-95.32485,41.92931],[-95.32902,41.92931],[-95.32902,41.92097],[-95.33319,41.92097],[-95.33319,41.91264],[-95.33736,41.91264],[-95.33736,41.91681],[-95.34152,41.91681],[-95.34152,41.91264],[-95.34986,41.91264],[-95.34986,41.90847],[-95.35819,41.90847],[-95.35819,41.90431],[-95.36652,41.90431],[-95.36652,41.90014],[-95.37486,41.90014],[-95.37486,41.89597],[-95.37902,41.89597],[-95.37902,41.8918],[-95.39569,41.8918],[-95.39569,41.88764],[-95.39986,41.88764],[-95.39986,41.88347],[-95.40403,41.88347],[-95.40403,41.8793],[-95.40819,41.8793],[-95.40819,41.87097],[-95.40403,41.87097],[-95.40403,41.8668],[-95.39153,41.8668],[-95.39153,41.8543],[-95.38736,41.8543],[-95.38736,41.85013],[-95.38319,41.85013],[-95.38319,41.84597],[-95.37902,41.84597],[-95.37902,41.8418],[-95.37486,41.8418],[-95.37486,41.83763],[-95.38319,41.83763],[-95.38319,41.83347],[-95.38736,41.83347],[-95.38736,41.80846],[-95.37902,41.80846],[-95.37902,41.79596],[-95.37069,41.79596],[-95.37069,41.7918],[-95.37486,41.7918],[-95.37486,41.78763],[-95.38736,41.78763],[-95.38736,41.78346],[-95.39153,41.78346],[-95.39153,41.7793],[-95.39569,41.7793],[-95.39569,41.77513],[-95.39986,41.77513],[-95.39986,41.76679],[-95.39569,41.76679],[-95.39569,41.74179],[-95.40819,41.74179],[-95.40819,41.73763],[-95.41236,41.73763],[-95.41236,41.73346],[-95.40819,41.73346],[-95.40819,41.72929],[-95.40403,41.72929],[-95.40403,41.72512],[-95.39986,41.72512],[-95.39986,41.71679],[-95.39569,41.71679],[-95.39569,41.70846],[-95.39153,41.70846],[-95.39153,41.70429],[-95.38736,41.70429],[-95.38736,41.69179],[-95.39153,41.69179],[-95.39153,41.68345],[-95.39569,41.68345],[-95.39569,41.67095],[-95.39986,41.67095],[-95.39986,41.66679],[-95.40819,41.66679],[-95.40819,41.64595],[-95.41653,41.64595],[-95.41653,41.64178],[-95.42069,41.64178],[-95.42069,41.62095],[-95.42486,41.62095],[-95.42486,41.61678],[-95.42903,41.61678],[-95.42903,41.61262],[-95.4332,41.61262],[-95.4332,41.60845],[-95.43736,41.60845],[-95.43736,41.60011],[-95.44986,41.60011],[-95.44986,41.59178],[-95.45403,41.59178],[-95.45403,41.58761],[-95.44986,41.58761],[-95.44986,41.57511],[-95.45403,41.57511],[-95.45403,41.55844],[-95.4582,41.55844],[-95.4582,41.54594],[-95.46236,41.54594],[-95.46236,41.53761],[-95.46653,41.53761],[-95.46653,41.52511],[-95.4707,41.52511],[-95.4707,41.52094],[-95.47487,41.52094],[-95.47487,41.51677],[-95.47903,41.51677],[-95.47903,41.51261],[-95.4832,41.51261],[-95.4832,41.50844],[-95.4957,41.50844],[-95.4957,41.50011],[-95.49987,41.50011],[-95.49987,41.4626],[-95.5082,41.4626],[-95.5082,41.45427],[-95.51237,41.45427],[-95.51237,41.4376],[-95.51654,41.4376],[-95.51654,41.42927],[-95.5207,41.42927],[-95.5207,41.42093],[-95.52487,41.42093],[-95.52487,41.4126],[-95.52904,41.4126],[-95.52904,41.40843],[-95.53737,41.40843],[-95.53737,41.40427],[-95.5457,41.40427],[-95.5457,41.4001],[-95.54987,41.4001],[-95.54987,41.39176],[-95.55404,41.39176],[-95.55404,41.3876],[-95.55821,41.3876],[-95.55821,41.37926],[-95.57487,41.37926],[-95.57487,41.36676],[-95.59154,41.36676],[-95.59154,41.3626],[-95.59571,41.3626],[-95.59571,41.35426],[-95.60404,41.35426],[-95.60404,41.35009],[-95.60821,41.35009],[-95.60821,41.33343],[-95.61238,41.33343],[-95.61238,41.32926],[-95.62071,41.32926],[-95.62071,41.30842],[-95.62488,41.30842],[-95.62488,41.30426],[-95.62904,41.30426],[-95.62904,41.30009],[-95.64155,41.30009],[-95.64155,41.27926],[-95.64571,41.27926],[-95.64571,41.27092],[-95.64988,41.27092],[-95.64988,41.26675],[-95.65405,41.26675],[-95.65405,41.22508],[-95.64988,41.22508],[-95.64988,41.20425],[-95.64571,41.20425],[-95.64571,41.18758],[-95.63738,41.18758],[-95.63738,41.18341],[-95.64571,41.18341],[-95.64571,41.17508],[-95.64988,41.17508],[-95.64988,41.16675],[-95.65821,41.16675],[-95.65821,41.14174],[-95.66238,41.14174],[-95.66238,41.12924],[-95.67488,41.12924],[-95.67488,41.11674],[-95.66655,41.11674],[-95.66655,41.10007],[-95.66238,41.10007],[-95.66238,41.08757],[-95.66655,41.08757],[-95.66655,41.07924],[-95.67488,41.07924],[-95.67488,41.07091],[-95.67905,41.07091],[-95.67905,41.0584],[-95.67488,41.0584],[-95.67488,41.05007],[-95.67905,41.05007],[-95.67905,41.0459],[-95.67488,41.0459],[-95.67488,41.04174],[-95.68322,41.04174],[-95.68322,41.03757],[-95.67488,41.03757],[-95.67488,41.0334],[-95.67072,41.0334],[-95.67072,41.0209],[-95.66655,41.0209],[-95.66655,41.00423],[-95.67488,41.00423],[-95.67488,40.99173],[-95.67072,40.99173],[-95.67072,40.9709],[-95.68322,40.9709],[-95.68322,40.96673],[-95.67905,40.96673],[-95.67905,40.96256],[-95.67488,40.96256],[-95.67488,40.95006],[-95.67072,40.95006],[-95.67072,40.94173],[-95.67488,40.94173],[-95.67488,40.92089],[-95.67072,40.92089],[-95.67072,40.91256],[-95.66655,40.91256],[-95.66655,40.90423],[-95.64988,40.90423],[-95.64988,40.89589],[-95.63321,40.89589],[-95.63321,40.89172],[-95.62071,40.89172],[-95.62071,40.88756],[-95.61654,40.88756],[-95.61654,40.88339],[-95.60404,40.88339],[-95.60404,40.87922],[-95.59988,40.87922],[-95.59988,40.88339],[-95.59154,40.88339],[-95.59154,40.87922],[-95.58737,40.87922],[-95.58737,40.87506],[-95.58321,40.87506],[-95.58321,40.87922],[-95.57904,40.87922],[-95.57904,40.88339],[-95.57487,40.88339],[-95.57487,40.87506],[-95.55821,40.87506],[-95.55821,40.87089],[-95.55404,40.87089],[-95.55404,40.86672],[-95.5457,40.86672],[-95.5457,40.87089],[-95.53737,40.87089],[-95.53737,40.87506],[-95.5207,40.87506],[-95.5207,40.87922],[-95.51654,40.87922],[-95.51654,40.88339],[-95.51237,40.88339],[-95.51237,40.87922],[-95.5082,40.87922],[-95.5082,40.87506],[-95.50404,40.87506],[-95.50404,40.87922],[-95.49987,40.87922],[-95.49987,40.88756],[-95.4957,40.88756],[-95.4957,40.89589],[-95.49153,40.89589],[-95.49153,40.90006],[-95.4832,40.90006],[-95.4832,40.90423],[-95.47903,40.90423],[-95.47903,40.90839],[-95.46653,40.90839],[-95.46653,40.91673],[-95.4582,40.91673],[-95.4582,40.92089],[-95.45403,40.92089],[-95.45403,40.92506],[-95.44986,40.92506],[-95.44986,40.92923],[-95.44153,40.92923],[-95.44153,40.93339],[-95.43736,40.93339],[-95.43736,40.9459],[-95.4332,40.9459],[-95.4332,40.97923],[-95.42903,40.97923],[-95.42903,40.9834],[-95.42069,40.9834],[-95.42069,40.97923],[-95.41236,40.97923],[-95.41236,40.97506],[-95.40819,40.97506],[-95.40819,40.9709],[-95.40403,40.9709],[-95.40403,40.97506],[-95.39569,40.97506],[-95.39569,40.97923],[-95.39153,40.97923],[-95.39153,41.00007],[-95.38736,41.00007],[-95.38736,41.0084],[-95.37486,41.0084],[-95.37486,41.01257],[-95.37069,41.01257],[-95.37069,41.0209],[-95.36652,41.0209],[-95.36652,41.0334],[-95.36236,41.0334],[-95.36236,41.04174],[-95.35819,41.04174],[-95.35819,41.05424],[-95.35402,41.05424],[-95.35402,41.06257],[-95.34986,41.06257],[-95.34986,41.07091],[-95.33736,41.07091],[-95.33736,41.07924],[-95.33319,41.07924],[-95.33319,41.08341],[-95.32902,41.08341],[-95.32902,41.09174],[-95.32069,41.09174],[-95.32069,41.10007],[-95.31652,41.10007],[-95.31652,41.10841],[-95.31235,41.10841],[-95.31235,41.12091],[-95.30819,41.12091],[-95.30819,41.12924],[-95.30402,41.12924],[-95.30402,41.13758],[-95.29985,41.13758],[-95.29985,41.15008],[-95.29568,41.15008],[-95.29568,41.15841],[-95.28735,41.15841],[-95.28735,41.16675],[-95.27902,41.16675],[-95.27902,41.17925],[-95.27485,41.17925],[-95.27485,41.18758],[-95.27068,41.18758],[-95.27068,41.19175],[-95.26652,41.19175],[-95.26652,41.19592],[-95.26235,41.19592],[-95.26235,41.20008],[-95.25401,41.20008],[-95.25401,41.20842],[-95.24985,41.20842],[-95.24985,41.21675],[-95.24151,41.21675],[-95.24151,41.22508],[-95.23735,41.22508],[-95.23735,41.23759],[-95.24568,41.23759],[-95.24568,41.24592],[-95.25401,41.24592],[-95.25401,41.25009],[-95.25818,41.25009],[-95.25818,41.25425],[-95.26235,41.25425],[-95.26235,41.27092],[-95.25818,41.27092],[-95.25818,41.27509],[-95.25401,41.27509],[-95.25401,41.28342],[-95.24985,41.28342],[-95.24985,41.30009],[-95.25401,41.30009],[-95.25401,41.31259],[-95.24985,41.31259],[-95.24985,41.32926],[-95.25401,41.32926],[-95.25401,41.33343],[-95.25818,41.33343],[-95.25818,41.35426],[-95.26235,41.35426],[-95.26235,41.37093],[-95.25818,41.37093],[-95.25818,41.38343],[-95.24985,41.38343],[-95.24985,41.3876],[-95.24151,41.3876],[-95.24151,41.39176],[-95.23735,41.39176],[-95.23735,41.39593],[-95.22901,41.39593],[-95.22901,41.40427],[-95.23318,41.40427],[-95.23318,41.41677],[-95.23735,41.41677],[-95.23735,41.4251],[-95.24151,41.4251],[-95.24151,41.42927],[-95.23318,41.42927],[-95.23318,41.43343],[-95.23735,41.43343],[-95.23735,41.4376],[-95.23318,41.4376],[-95.23318,41.44177],[-95.22485,41.44177],[-95.22485,41.4626],[-95.23318,41.4626],[-95.23318,41.46677],[-95.23735,41.46677],[-95.23735,41.47094],[-95.24151,41.47094],[-95.24151,41.48761],[-95.24985,41.48761],[-95.24985,41.49177],[-95.24568,41.49177],[-95.24568,41.50011],[-95.24151,41.50011],[-95.24151,41.51677],[-95.24985,41.51677],[-95.24985,41.52094],[-95.25401,41.52094],[-95.25401,41.52928],[-95.24985,41.52928],[-95.24985,41.54178],[-95.23735,41.54178],[-95.23735,41.53761],[-95.21651,41.53761],[-95.21651,41.54178],[-95.21234,41.54178],[-95.21234,41.55011],[-95.20818,41.55011],[-95.20818,41.55428],[-95.20401,41.55428],[-95.20401,41.55844],[-95.19984,41.55844],[-95.19984,41.56678],[-95.19568,41.56678],[-95.19568,41.57511],[-95.19151,41.57511],[-95.19151,41.57928],[-95.19568,41.57928],[-95.19568,41.58345],[-95.19151,41.58345],[-95.19151,41.60011],[-95.17901,41.60011],[-95.17901,41.60845],[-95.17484,41.60845],[-95.17484,41.62095],[-95.17901,41.62095],[-95.17901,41.63345],[-95.17484,41.63345],[-95.17484,41.64178],[-95.17068,41.64178],[-95.17068,41.65429],[-95.16651,41.65429],[-95.16651,41.65845],[-95.15817,41.65845],[-95.15817,41.66679],[-95.15401,41.66679],[-95.15401,41.67095],[-95.14567,41.67095],[-95.14567,41.67929],[-95.14151,41.67929],[-95.14151,41.68762],[-95.13734,41.68762],[-95.13734,41.69179],[-95.129,41.69179],[-95.129,41.69596],[-95.10817,41.69596],[-95.10817,41.69179],[-95.08733,41.69179],[-95.08733,41.70012],[-95.08317,41.70012],[-95.08317,41.70429],[-95.07483,41.70429],[-95.07483,41.70012],[-95.0665,41.70012],[-95.0665,41.69596],[-95.0415,41.69596],[-95.0415,41.70846],[-95.02066,41.70846],[-95.02066,41.71679],[-95.0165,41.71679],[-95.0165,41.72096],[-95.01233,41.72096],[-95.01233,41.71679],[-95.004,41.71679],[-95.004,41.70846],[-94.98733,41.70846],[-94.98733,41.71262],[-94.98316,41.71262],[-94.98316,41.72096],[-94.97066,41.72096],[-94.97066,41.72512],[-94.97483,41.72512],[-94.97483,41.74179],[-94.97066,41.74179],[-94.97066,41.75429],[-94.97899,41.75429],[-94.97899,41.76679],[-94.97483,41.76679],[-94.97483,41.77096],[-94.96649,41.77096],[-94.96649,41.7793],[-94.96232,41.7793],[-94.96232,41.78346],[-94.94566,41.78346],[-94.94566,41.78763],[-94.94982,41.78763],[-94.94982,41.79596],[-94.94566,41.79596],[-94.94566,41.80013],[-94.93732,41.80013],[-94.93732,41.8043],[-94.92899,41.8043],[-94.92899,41.80846],[-94.92482,41.80846],[-94.92482,41.81263],[-94.91649,41.81263],[-94.91649,41.8168],[-94.92065,41.8168],[-94.92065,41.82097],[-94.92482,41.82097],[-94.92482,41.83763],[-94.93316,41.83763],[-94.93316,41.85013],[-94.94566,41.85013],[-94.94566,41.85847],[-94.95816,41.85847],[-94.95816,41.8668],[-94.96649,41.8668],[-94.96649,41.87097],[-94.97066,41.87097],[-94.97066,41.88347],[-94.97899,41.88347],[-94.97899,41.88764],[-94.98316,41.88764],[-94.98316,41.89597],[-94.98733,41.89597],[-94.98733,41.90014],[-94.99149,41.90014],[-94.99149,41.90431],[-94.99566,41.90431],[-94.99566,41.91681],[-94.98733,41.91681],[-94.98733,41.92097],[-94.97483,41.92097],[-94.97483,41.92514],[-94.97066,41.92514],[-94.97066,41.92931],[-94.96232,41.92931],[-94.96232,41.94598],[-94.96649,41.94598],[-94.96649,41.95431],[-94.97066,41.95431],[-94.97066,41.95848],[-94.97899,41.95848],[-94.97899,41.96264],[-94.98316,41.96264],[-94.98316,41.97098],[-94.98733,41.97098],[-94.98733,41.99181],[-94.99983,41.99181],[-94.99983,41.99598],[-95.00816,41.99598],[-95.00816,42.00431],[-95.01233,42.00431],[-95.01233,42.00848],[-95.0165,42.00848],[-95.0165,42.01681],[-95.02066,42.01681],[-95.02066,42.02098],[-95.02483,42.02098],[-95.02483,42.02932],[-95.029,42.02932],[-95.029,42.03765],[-95.03316,42.03765],[-95.03316,42.04182],[-95.03733,42.04182],[-95.03733,42.03765],[-95.0415,42.03765],[-95.0415,42.04598],[-95.054,42.04598]]]}}]}