{"type":"FeatureCollection","features":[{"type":"Feature","properties":{},"geometry":{"type":"Polygon","coordinates":[[[-94.90815,41.53761],[-94.90815,41.53344],[-94.91649,41.53344],[-94.91649,41.52928],[-94.92899,41.52928],[-94.92899,41.52511],[-94.93316,41.52511],[-94.93316,41.52094],[-94.93732,41.52094],[-94.93732,41.51677],[-94.94149,41.51677],[-94.94149,41.51261],[-94.92899,41.51261],[-94.92899,41.51677],[-94.91232,41.51677],[-94.91232,41.52094],[-94.90815,41.52094],[-94.90815,41.52511],[-94.89982,41.52511],[-94.89982,41.53344],[-94.90399,41.53344],[-94.90399,41.53761],[-94.90815,41.53761]]]}}]}