{"type":"FeatureCollection","features":[{"type":"Feature","properties":{},"geometry":{"type":"Polygon","coordinates":[[[-92.19127,42.12516],[-92.19127,42.11682],[-92.1996,42.11682],[-92.1996,42.10849],[-92.20377,42.10849],[-92.20377,42.10015],[-92.19127,42.10015],[-92.19127,42.09599],[-92.19544,42.09599],[-92.19544,42.09182],[-92.19127,42.09182],[-92.19127,42.08349],[-92.18294,42.08349],[-92.18294,42.07932],[-92.16627,42.07932],[-92.16627,42.07515],[-92.15793,42.07515],[-92.15793,42.07099],[-92.15377,42.07099],[-92.15377,42.06265],[-92.1371,42.06265],[-92.1371,42.05848],[-92.13293,42.05848],[-92.13293,42.06265],[-92.12877,42.06265],[-92.12877,42.06682],[-92.12043,42.06682],[-92.12043,42.07099],[-92.11626,42.07099],[-92.11626,42.07932],[-92.1121,42.07932],[-92.1121,42.08349],[-92.11626,42.08349],[-92.11626,42.08765],[-92.1121,42.08765],[-92.1121,42.09182],[-92.11626,42.09182],[-92.11626,42.09599],[-92.12043,42.09599],[-92.12043,42.10432],[-92.1246,42.10432],[-92.1246,42.10849],[-92.12877,42.10849],[-92.12877,42.11266],[-92.14543,42.11266],[-92.14543,42.11682],[-92.15793,42.11682],[-92.15793,42.12099],[-92.1621,42.12099],[-92.1621,42.12516],[-92.19127,42.12516]]]}}]}