{"type":"FeatureCollection","features":[{"type":"Feature","properties":{},"geometry":{"type":"Polygon","coordinates":[[[-93.7085,41.95171],[-93.70787,41.95487],[-93.71042,41.95679],[-93.71959,41.95945],[-93.72027,41.96124],[-93.71739,41.96446],[-93.72526,41.97007],[-93.7302,41.97149],[-93.73558,41.97757],[-93.72901,41.98239],[-93.72485,41.9796],[-93.71119,41.97711],[-93.7099,41.97951],[-93.70202,41.98085],[-93.70018,41.978],[-93.69388,41.97627],[-93.69066,41.97862],[-93.69175,41.98118],[-93.68729,41.98339],[-93.67819,41.98355],[-93.67095,41.97616],[-93.66208,41.97717],[-93.65023,41.97186],[-93.64208,41.96409],[-93.63662,41.96464],[-93.6396,41.96168],[-93.63653,41.96129],[-93.63752,41.96102],[-93.63635,41.95946],[-93.63912,41.95977],[-93.64269,41.9575],[-93.65229,41.95943],[-93.65613,41.95576],[-93.65817,41.9574],[-93.66736,41.95648],[-93.66949,41.95785],[-93.67621,41.95342],[-93.69319,41.95748],[-93.69445,41.95106],[-93.69795,41.94995],[-93.70173,41.95188],[-93.70231,41.95394],[-93.7085,41.95171]]]}}]}