{"type":"FeatureCollection","features":[{"type":"Feature","properties":{},"geometry":{"type":"Polygon","coordinates":[[[-93.64247,42.05645],[-93.64089,42.05405],[-93.64406,42.05104],[-93.64412,42.04566],[-93.64643,42.04424],[-93.6483,42.03688],[-93.65651,42.03408],[-93.6652,42.03395],[-93.67689,42.02987],[-93.68563,42.03247],[-93.68476,42.03595],[-93.68719,42.03809],[-93.69385,42.03878],[-93.69701,42.04173],[-93.69791,42.04601],[-93.69664,42.04728],[-93.70046,42.04914],[-93.70617,42.04728],[-93.70809,42.04463],[-93.72167,42.04063],[-93.72503,42.04283],[-93.75891,42.04529],[-93.77798,42.03707],[-93.78619,42.0369],[-93.79707,42.03293],[-93.81951,42.04117],[-93.82655,42.04818],[-93.83288,42.06066],[-93.82957,42.0629],[-93.82896,42.06536],[-93.83169,42.07],[-93.83421,42.07084],[-93.8344,42.07307],[-93.83842,42.07655],[-93.84725,42.07816],[-93.84468,42.08767],[-93.8492,42.10041],[-93.85376,42.1015],[-93.85476,42.10376],[-93.85122,42.10612],[-93.85205,42.10843],[-93.86037,42.11069],[-93.86346,42.10957],[-93.86858,42.11302],[-93.87042,42.11079],[-93.87423,42.11029],[-93.87541,42.11133],[-93.87432,42.1134],[-93.87553,42.12014],[-93.8791,42.12539],[-93.89086,42.12567],[-93.89876,42.13442],[-93.89748,42.13738],[-93.89053,42.14139],[-93.88138,42.13568],[-93.87374,42.14084],[-93.86883,42.14222],[-93.86454,42.14707],[-93.86571,42.1506],[-93.87057,42.15032],[-93.8768,42.15606],[-93.882,42.15668],[-93.88743,42.16421],[-93.88591,42.16657],[-93.88912,42.16932],[-93.90234,42.17309],[-93.90955,42.18216],[-93.89982,42.18405],[-93.89903,42.18594],[-93.9015,42.18893],[-93.89885,42.19184],[-93.90082,42.19614],[-93.90713,42.19414],[-93.91348,42.19551],[-93.91723,42.19229],[-93.92225,42.19747],[-93.92832,42.19714],[-93.93322,42.20055],[-93.93996,42.20255],[-93.94721,42.20174],[-93.95337,42.20371],[-93.95155,42.20602],[-93.95412,42.20852],[-93.95111,42.21028],[-93.9513,42.2151],[-93.96,42.21901],[-93.95703,42.22232],[-93.95482,42.22896],[-93.94777,42.23233],[-93.94929,42.23612],[-93.94742,42.24765],[-93.94286,42.24866],[-93.94207,42.25183],[-93.93744,42.25322],[-93.93705,42.25667],[-93.9332,42.26216],[-93.93262,42.26744],[-93.92653,42.26956],[-93.92493,42.27182],[-93.92771,42.27559],[-93.9225,42.28211],[-93.9104,42.28397],[-93.90867,42.28598],[-93.90982,42.28832],[-93.90658,42.29931],[-93.904,42.30033],[-93.90193,42.29802],[-93.89896,42.30192],[-93.89423,42.30217],[-93.89252,42.30782],[-93.8845,42.31531],[-93.8737,42.31441],[-93.86981,42.31089],[-93.86688,42.31047],[-93.86568,42.3071],[-93.85178,42.31801],[-93.84177,42.32314],[-93.83534,42.32233],[-93.83445,42.32],[-93.82887,42.32006],[-93.82717,42.31688],[-93.81282,42.31956],[-93.80858,42.32328],[-93.80464,42.3243],[-93.79719,42.32453],[-93.78275,42.31985],[-93.78107,42.31841],[-93.78271,42.31733],[-93.78216,42.31101],[-93.7781,42.30816],[-93.77774,42.30136],[-93.77941,42.29738],[-93.77683,42.29566],[-93.77662,42.28559],[-93.7732,42.28265],[-93.77327,42.27758],[-93.77614,42.27256],[-93.76966,42.26919],[-93.76874,42.26422],[-93.76993,42.26203],[-93.76337,42.25972],[-93.76536,42.25482],[-93.771,42.25517],[-93.77403,42.25227],[-93.76432,42.24635],[-93.76087,42.25077],[-93.75751,42.25211],[-93.74016,42.24471],[-93.74024,42.24196],[-93.73388,42.23709],[-93.73456,42.23269],[-93.72959,42.23019],[-93.72861,42.22669],[-93.72219,42.22535],[-93.72145,42.22177],[-93.72394,42.21958],[-93.72374,42.2164],[-93.7199,42.21181],[-93.72061,42.20801],[-93.71847,42.20489],[-93.71313,42.20354],[-93.70815,42.19551],[-93.70501,42.19545],[-93.70381,42.19119],[-93.6918,42.17639],[-93.6819,42.17375],[-93.68209,42.17248],[-93.67807,42.17107],[-93.67731,42.16927],[-93.67911,42.16653],[-93.67392,42.16675],[-93.67302,42.16435],[-93.66387,42.16186],[-93.6656,42.16032],[-93.6644,42.15884],[-93.66103,42.15842],[-93.64787,42.15129],[-93.64168,42.14515],[-93.64088,42.14066],[-93.63592,42.14039],[-93.63111,42.13539],[-93.62447,42.1344],[-93.6214,42.12814],[-93.61064,42.12237],[-93.61131,42.11843],[-93.6161,42.11953],[-93.63157,42.11207],[-93.63043,42.11084],[-93.63492,42.10585],[-93.63259,42.10215],[-93.63652,42.0969],[-93.64744,42.09399],[-93.65081,42.09161],[-93.65287,42.08758],[-93.65215,42.08282],[-93.65378,42.07952],[-93.65727,42.07853],[-93.65675,42.07494],[-93.65964,42.07189],[-93.65385,42.06524],[-93.6563,42.06265],[-93.65563,42.06095],[-93.64695,42.06042],[-93.64247,42.05645]]]}}]}