{"type":"FeatureCollection","features":[{"type":"Feature","properties":{},"geometry":{"type":"Polygon","coordinates":[[[-92.08293,40.74171],[-92.08293,40.73338],[-92.10376,40.73338],[-92.10376,40.72921],[-92.11626,40.72921],[-92.11626,40.72504],[-92.12043,40.72504],[-92.12043,40.72088],[-92.1246,40.72088],[-92.1246,40.70838],[-92.1121,40.70838],[-92.1121,40.70421],[-92.09126,40.70421],[-92.09126,40.70004],[-92.08709,40.70004],[-92.08709,40.69588],[-92.07876,40.69588],[-92.07876,40.69171],[-92.07459,40.69171],[-92.07459,40.69588],[-92.06626,40.69588],[-92.06626,40.69171],[-92.04542,40.69171],[-92.04542,40.68337],[-92.04126,40.68337],[-92.04126,40.67921],[-91.99125,40.67921],[-91.99125,40.67504],[-91.96625,40.67504],[-91.96625,40.68337],[-91.96209,40.68337],[-91.96209,40.68754],[-91.97042,40.68754],[-91.97042,40.69171],[-91.97459,40.69171],[-91.97459,40.69588],[-91.97875,40.69588],[-91.97875,40.70004],[-92.00792,40.70004],[-92.00792,40.70421],[-92.01209,40.70421],[-92.01209,40.70838],[-92.02042,40.70838],[-92.02042,40.71254],[-92.02459,40.71254],[-92.02459,40.71671],[-92.03292,40.71671],[-92.03292,40.72504],[-92.04542,40.72504],[-92.04542,40.72921],[-92.04959,40.72921],[-92.04959,40.73338],[-92.05376,40.73338],[-92.05376,40.72921],[-92.05793,40.72921],[-92.05793,40.73338],[-92.06626,40.73338],[-92.06626,40.73755],[-92.07043,40.73755],[-92.07043,40.74171],[-92.08293,40.74171]]]}}]}