{"type":"FeatureCollection","features":[{"type":"Feature","properties":{},"geometry":{"type":"Polygon","coordinates":[[[-92.67047,43.5586],[-92.67047,43.55444],[-92.67464,43.55444],[-92.67464,43.55027],[-92.67881,43.55027],[-92.67881,43.5461],[-92.68298,43.5461],[-92.68298,43.54194],[-92.69964,43.54194],[-92.69964,43.53777],[-92.70798,43.53777],[-92.70798,43.5336],[-92.71214,43.5336],[-92.71214,43.52944],[-92.70798,43.52944],[-92.70798,43.52527],[-92.70381,43.52527],[-92.70381,43.5211],[-92.69964,43.5211],[-92.69964,43.51277],[-92.69548,43.51277],[-92.69548,43.50443],[-92.68714,43.50443],[-92.68714,43.50027],[-92.68298,43.50027],[-92.68298,43.4961],[-92.67881,43.4961],[-92.67881,43.49193],[-92.67464,43.49193],[-92.67464,43.48777],[-92.67047,43.48777],[-92.67047,43.4836],[-92.66631,43.4836],[-92.66631,43.47943],[-92.65797,43.47943],[-92.65797,43.46276],[-92.65381,43.46276],[-92.65381,43.4586],[-92.64964,43.4586],[-92.64964,43.45443],[-92.65381,43.45443],[-92.65381,43.45026],[-92.65797,43.45026],[-92.65797,43.44193],[-92.66214,43.44193],[-92.66214,43.43776],[-92.64964,43.43776],[-92.64964,43.43359],[-92.64547,43.43359],[-92.64547,43.42943],[-92.64131,43.42943],[-92.64131,43.42526],[-92.63714,43.42526],[-92.63714,43.42109],[-92.6288,43.42109],[-92.6288,43.40443],[-92.62047,43.40443],[-92.62047,43.40026],[-92.6163,43.40026],[-92.6163,43.39192],[-92.61214,43.39192],[-92.61214,43.38359],[-92.60797,43.38359],[-92.60797,43.37942],[-92.6038,43.37942],[-92.6038,43.35859],[-92.59964,43.35859],[-92.59964,43.32109],[-92.59547,43.32109],[-92.59547,43.31275],[-92.5913,43.31275],[-92.5913,43.30858],[-92.58714,43.30858],[-92.58714,43.30442],[-92.58297,43.30442],[-92.58297,43.29608],[-92.5788,43.29608],[-92.5788,43.29192],[-92.57463,43.29192],[-92.57463,43.28775],[-92.5788,43.28775],[-92.5788,43.28358],[-92.58297,43.28358],[-92.58297,43.27108],[-92.5788,43.27108],[-92.5788,43.26275],[-92.57463,43.26275],[-92.57463,43.24191],[-92.57047,43.24191],[-92.57047,43.23775],[-92.57463,43.23775],[-92.57463,43.22108],[-92.57047,43.22108],[-92.57047,43.21274],[-92.57463,43.21274],[-92.57463,43.20441],[-92.58714,43.20441],[-92.58714,43.19608],[-92.5913,43.19608],[-92.5913,43.19191],[-92.58714,43.19191],[-92.58714,43.18774],[-92.5788,43.18774],[-92.5788,43.18357],[-92.57463,43.18357],[-92.57463,43.17941],[-92.56213,43.17941],[-92.56213,43.17524],[-92.55797,43.17524],[-92.55797,43.17107],[-92.5538,43.17107],[-92.5538,43.16691],[-92.54546,43.16691],[-92.54546,43.15857],[-92.5413,43.15857],[-92.5413,43.15441],[-92.54546,43.15441],[-92.54546,43.14607],[-92.53713,43.14607],[-92.53713,43.1419],[-92.53296,43.1419],[-92.53296,43.13357],[-92.5288,43.13357],[-92.5288,43.1294],[-92.52463,43.1294],[-92.52463,43.1169],[-92.52046,43.1169],[-92.52046,43.10857],[-92.5163,43.10857],[-92.5163,43.1044],[-92.51213,43.1044],[-92.51213,43.10023],[-92.50796,43.10023],[-92.50796,43.09607],[-92.50379,43.09607],[-92.50379,43.0919],[-92.49963,43.0919],[-92.49963,43.0794],[-92.49546,43.0794],[-92.49546,43.07523],[-92.49129,43.07523],[-92.49129,43.07107],[-92.48713,43.07107],[-92.48713,43.0669],[-92.48296,43.0669],[-92.48296,43.06273],[-92.47879,43.06273],[-92.47879,43.05856],[-92.47463,43.05856],[-92.47463,43.03773],[-92.46629,43.03773],[-92.46629,43.03356],[-92.45796,43.03356],[-92.45796,43.0294],[-92.44962,43.0294],[-92.44962,43.02523],[-92.44129,43.02523],[-92.44129,43.00856],[-92.43712,43.00856],[-92.43712,43.00439],[-92.43296,43.00439],[-92.43296,42.99606],[-92.42879,42.99606],[-92.42879,42.99189],[-92.42462,42.99189],[-92.42462,42.98356],[-92.42045,42.98356],[-92.42045,42.97522],[-92.41629,42.97522],[-92.41629,42.97106],[-92.41212,42.97106],[-92.41212,42.95439],[-92.40795,42.95439],[-92.40795,42.95022],[-92.40379,42.95022],[-92.40379,42.94189],[-92.40795,42.94189],[-92.40795,42.92105],[-92.40379,42.92105],[-92.40379,42.90855],[-92.39962,42.90855],[-92.39962,42.90022],[-92.39545,42.90022],[-92.39545,42.87522],[-92.39962,42.87522],[-92.39962,42.85855],[-92.39545,42.85855],[-92.39545,42.85438],[-92.38712,42.85438],[-92.38712,42.85021],[-92.38295,42.85021],[-92.38295,42.84605],[-92.37878,42.84605],[-92.37878,42.82521],[-92.37462,42.82521],[-92.37462,42.82105],[-92.36212,42.82105],[-92.36212,42.81688],[-92.35795,42.81688],[-92.35795,42.81271],[-92.35378,42.81271],[-92.35378,42.80854],[-92.34962,42.80854],[-92.34962,42.80021],[-92.34545,42.80021],[-92.34545,42.79188],[-92.34128,42.79188],[-92.34128,42.78771],[-92.33295,42.78771],[-92.33295,42.77521],[-92.32878,42.77521],[-92.32878,42.77104],[-92.32461,42.77104],[-92.32461,42.76271],[-92.32045,42.76271],[-92.32045,42.75021],[-92.31628,42.75021],[-92.31628,42.74187],[-92.30795,42.74187],[-92.30795,42.73771],[-92.30378,42.73771],[-92.30378,42.7252],[-92.29961,42.7252],[-92.29961,42.72104],[-92.29545,42.72104],[-92.29545,42.70854],[-92.29128,42.70854],[-92.29128,42.70437],[-92.29545,42.70437],[-92.29545,42.7002],[-92.29961,42.7002],[-92.29961,42.69187],[-92.29545,42.69187],[-92.29545,42.67937],[-92.29128,42.67937],[-92.29128,42.67103],[-92.29545,42.67103],[-92.29545,42.6627],[-92.30795,42.6627],[-92.30795,42.6502],[-92.31211,42.6502],[-92.31211,42.64186],[-92.30795,42.64186],[-92.30795,42.6377],[-92.30378,42.6377],[-92.30378,42.62103],[-92.29961,42.62103],[-92.29961,42.60019],[-92.29128,42.60019],[-92.29128,42.59603],[-92.28711,42.59603],[-92.28711,42.58769],[-92.28294,42.58769],[-92.28294,42.59186],[-92.27878,42.59186],[-92.27878,42.59603],[-92.26628,42.59603],[-92.26628,42.60019],[-92.25377,42.60019],[-92.25377,42.59603],[-92.24127,42.59603],[-92.24127,42.59186],[-92.23294,42.59186],[-92.23294,42.58769],[-92.22877,42.58769],[-92.22877,42.58353],[-92.2121,42.58353],[-92.2121,42.57519],[-92.20377,42.57519],[-92.20377,42.57103],[-92.19127,42.57103],[-92.19127,42.56686],[-92.18294,42.56686],[-92.18294,42.56269],[-92.17043,42.56269],[-92.17043,42.55436],[-92.15377,42.55436],[-92.15377,42.55019],[-92.1371,42.55019],[-92.1371,42.54186],[-92.13293,42.54186],[-92.13293,42.53352],[-92.1371,42.53352],[-92.1371,42.52519],[-92.14543,42.52519],[-92.14543,42.52102],[-92.1496,42.52102],[-92.1496,42.50435],[-92.14127,42.50435],[-92.14127,42.50019],[-92.1371,42.50019],[-92.1371,42.49602],[-92.12043,42.49602],[-92.12043,42.49185],[-92.1121,42.49185],[-92.1121,42.49602],[-92.10793,42.49602],[-92.10793,42.50019],[-92.10376,42.50019],[-92.10376,42.51269],[-92.09543,42.51269],[-92.09543,42.51685],[-92.07876,42.51685],[-92.07876,42.50852],[-92.07459,42.50852],[-92.07459,42.50435],[-92.06209,42.50435],[-92.06209,42.50852],[-92.04959,42.50852],[-92.04959,42.50435],[-92.04542,42.50435],[-92.04542,42.50019],[-92.03709,42.50019],[-92.03709,42.49185],[-92.03292,42.49185],[-92.03292,42.48352],[-92.02042,42.48352],[-92.02042,42.47935],[-92.01209,42.47935],[-92.01209,42.48352],[-91.99542,42.48352],[-91.99542,42.48769],[-91.98292,42.48769],[-91.98292,42.47935],[-91.97875,42.47935],[-91.97875,42.47102],[-91.94125,42.47102],[-91.94125,42.46685],[-91.94542,42.46685],[-91.94542,42.46268],[-91.94125,42.46268],[-91.94125,42.45852],[-91.93292,42.45852],[-91.93292,42.45435],[-91.92875,42.45435],[-91.92875,42.45018],[-91.91208,42.45018],[-91.91208,42.44602],[-91.89125,42.44602],[-91.89125,42.43768],[-91.87874,42.43768],[-91.87874,42.43351],[-91.87458,42.43351],[-91.87458,42.42935],[-91.87041,42.42935],[-91.87041,42.41268],[-91.85791,42.41268],[-91.85791,42.40851],[-91.85374,42.40851],[-91.85374,42.40435],[-91.84541,42.40435],[-91.84541,42.37101],[-91.84958,42.37101],[-91.84958,42.36268],[-91.85374,42.36268],[-91.85374,42.35851],[-91.85791,42.35851],[-91.85791,42.35017],[-91.86208,42.35017],[-91.86208,42.34601],[-91.85791,42.34601],[-91.85791,42.32101],[-91.85374,42.32101],[-91.85374,42.31684],[-91.84958,42.31684],[-91.84958,42.31267],[-91.84541,42.31267],[-91.84541,42.31684],[-91.81624,42.31684],[-91.81624,42.31267],[-91.81207,42.31267],[-91.81207,42.31684],[-91.79541,42.31684],[-91.79541,42.32101],[-91.78707,42.32101],[-91.78707,42.32517],[-91.7829,42.32517],[-91.7829,42.32101],[-91.77874,42.32101],[-91.77874,42.31684],[-91.77457,42.31684],[-91.77457,42.31267],[-91.7704,42.31267],[-91.7704,42.30434],[-91.76207,42.30434],[-91.76207,42.30017],[-91.76624,42.30017],[-91.76624,42.29184],[-91.76207,42.29184],[-91.76207,42.28767],[-91.7579,42.28767],[-91.7579,42.27517],[-91.74957,42.27517],[-91.74957,42.271],[-91.7454,42.271],[-91.7454,42.27517],[-91.7329,42.27517],[-91.7329,42.27934],[-91.72873,42.27934],[-91.72873,42.27517],[-91.7204,42.27517],[-91.7204,42.271],[-91.70373,42.271],[-91.70373,42.26267],[-91.69956,42.26267],[-91.69956,42.25433],[-91.6954,42.25433],[-91.6954,42.25017],[-91.67873,42.25017],[-91.67873,42.25433],[-91.67456,42.25433],[-91.67456,42.25017],[-91.67039,42.25017],[-91.67039,42.25433],[-91.66206,42.25433],[-91.66206,42.2585],[-91.64956,42.2585],[-91.64956,42.23767],[-91.63706,42.23767],[-91.63706,42.22516],[-91.63289,42.22516],[-91.63289,42.221],[-91.62873,42.221],[-91.62873,42.21266],[-91.62456,42.21266],[-91.62456,42.20433],[-91.61622,42.20433],[-91.61622,42.20016],[-91.59956,42.20016],[-91.59956,42.2085],[-91.59122,42.2085],[-91.59122,42.21266],[-91.58289,42.21266],[-91.58289,42.2085],[-91.57872,42.2085],[-91.57872,42.18766],[-91.57455,42.18766],[-91.57455,42.17516],[-91.56622,42.17516],[-91.56622,42.17099],[-91.56205,42.17099],[-91.56205,42.16683],[-91.55372,42.16683],[-91.55372,42.16266],[-91.54955,42.16266],[-91.54955,42.16683],[-91.52872,42.16683],[-91.52872,42.16266],[-91.52038,42.16266],[-91.52038,42.15433],[-91.50788,42.15433],[-91.50788,42.15849],[-91.49955,42.15849],[-91.49955,42.15433],[-91.49538,42.15433],[-91.49538,42.15016],[-91.49121,42.15016],[-91.49121,42.14599],[-91.48705,42.14599],[-91.48705,42.14182],[-91.47871,42.14182],[-91.47871,42.13766],[-91.46205,42.13766],[-91.46205,42.13349],[-91.46621,42.13349],[-91.46621,42.12932],[-91.46205,42.12932],[-91.46205,42.12516],[-91.45371,42.12516],[-91.45371,42.12099],[-91.44954,42.12099],[-91.44954,42.11266],[-91.43288,42.11266],[-91.43288,42.10849],[-91.42037,42.10849],[-91.42037,42.10432],[-91.41204,42.10432],[-91.41204,42.10015],[-91.40787,42.10015],[-91.40787,42.09599],[-91.41204,42.09599],[-91.41204,42.09182],[-91.40787,42.09182],[-91.40787,42.07932],[-91.39954,42.07932],[-91.39954,42.07515],[-91.37037,42.07515],[-91.37037,42.07932],[-91.3662,42.07932],[-91.3662,42.07099],[-91.37037,42.07099],[-91.37037,42.06682],[-91.3662,42.06682],[-91.3662,42.06265],[-91.36204,42.06265],[-91.36204,42.05848],[-91.35787,42.05848],[-91.35787,42.05015],[-91.3537,42.05015],[-91.3537,42.04598],[-91.34954,42.04598],[-91.34954,42.03765],[-91.34537,42.03765],[-91.34537,42.03348],[-91.34954,42.03348],[-91.34954,42.02932],[-91.3537,42.02932],[-91.3537,42.02515],[-91.35787,42.02515],[-91.35787,42.02098],[-91.37037,42.02098],[-91.37037,42.01265],[-91.38287,42.01265],[-91.38287,42.00015],[-91.3787,42.00015],[-91.3787,41.96681],[-91.3662,41.96681],[-91.3662,41.96264],[-91.3537,41.96264],[-91.3537,41.95848],[-91.34537,41.95848],[-91.34537,41.95431],[-91.3412,41.95431],[-91.3412,41.95014],[-91.3287,41.95014],[-91.3287,41.94598],[-91.3162,41.94598],[-91.3162,41.95014],[-91.31203,41.95014],[-91.31203,41.94598],[-91.30787,41.94598],[-91.30787,41.92514],[-91.29953,41.92514],[-91.29953,41.92097],[-91.28703,41.92097],[-91.28703,41.91681],[-91.2912,41.91681],[-91.2912,41.91264],[-91.28703,41.91264],[-91.28703,41.90431],[-91.2662,41.90431],[-91.2662,41.90847],[-91.25786,41.90847],[-91.25786,41.90431],[-91.24953,41.90431],[-91.24953,41.90014],[-91.23703,41.90014],[-91.23703,41.90431],[-91.22453,41.90431],[-91.22453,41.90014],[-91.19119,41.90014],[-91.19119,41.90431],[-91.18702,41.90431],[-91.18702,41.90847],[-91.18286,41.90847],[-91.18286,41.90431],[-91.17869,41.90431],[-91.17869,41.90014],[-91.17452,41.90014],[-91.17452,41.90431],[-91.17036,41.90431],[-91.17036,41.90847],[-91.16619,41.90847],[-91.16619,41.91264],[-91.16202,41.91264],[-91.16202,41.91681],[-91.16619,41.91681],[-91.16619,41.92931],[-91.15785,41.92931],[-91.15785,41.92514],[-91.13702,41.92514],[-91.13702,41.92097],[-91.12868,41.92097],[-91.12868,41.88764],[-91.12452,41.88764],[-91.12452,41.88347],[-91.12035,41.88347],[-91.12035,41.8793],[-91.11618,41.8793],[-91.11618,41.87514],[-91.08701,41.87514],[-91.08701,41.8793],[-91.08285,41.8793],[-91.08285,41.87514],[-91.07451,41.87514],[-91.07451,41.87097],[-91.06201,41.87097],[-91.06201,41.8668],[-91.05368,41.8668],[-91.05368,41.8543],[-91.04534,41.8543],[-91.04534,41.84597],[-91.04118,41.84597],[-91.04118,41.83763],[-91.04534,41.83763],[-91.04534,41.83347],[-91.04951,41.83347],[-91.04951,41.8293],[-91.05368,41.8293],[-91.05368,41.82513],[-91.05785,41.82513],[-91.05785,41.8168],[-91.05368,41.8168],[-91.05368,41.81263],[-91.04534,41.81263],[-91.04534,41.80846],[-91.03701,41.80846],[-91.03701,41.79596],[-91.03284,41.79596],[-91.03284,41.80013],[-91.02451,41.80013],[-91.02451,41.79596],[-91.02034,41.79596],[-91.02034,41.7918],[-91.01201,41.7918],[-91.01201,41.78763],[-91.00368,41.78763],[-91.00368,41.7793],[-90.97451,41.7793],[-90.97451,41.77096],[-90.97034,41.77096],[-90.97034,41.77513],[-90.96617,41.77513],[-90.96617,41.77096],[-90.95367,41.77096],[-90.95367,41.76679],[-90.9495,41.76679],[-90.9495,41.75846],[-90.94534,41.75846],[-90.94534,41.75429],[-90.94117,41.75429],[-90.94117,41.74596],[-90.93284,41.74596],[-90.93284,41.74179],[-90.92033,41.74179],[-90.92033,41.74596],[-90.91617,41.74596],[-90.91617,41.73346],[-90.912,41.73346],[-90.912,41.72512],[-90.91617,41.72512],[-90.91617,41.72096],[-90.93284,41.72096],[-90.93284,41.71679],[-90.937,41.71679],[-90.937,41.71262],[-90.94117,41.71262],[-90.94117,41.70846],[-90.94534,41.70846],[-90.94534,41.70429],[-90.95367,41.70429],[-90.95367,41.68762],[-90.94117,41.68762],[-90.94117,41.68345],[-90.937,41.68345],[-90.937,41.67929],[-90.93284,41.67929],[-90.93284,41.67095],[-90.92867,41.67095],[-90.92867,41.66679],[-90.9245,41.66679],[-90.9245,41.65429],[-90.91617,41.65429],[-90.91617,41.64595],[-90.912,41.64595],[-90.912,41.65012],[-90.90783,41.65012],[-90.90783,41.64595],[-90.8995,41.64595],[-90.8995,41.64178],[-90.89533,41.64178],[-90.89533,41.63762],[-90.87033,41.63762],[-90.87033,41.64178],[-90.862,41.64178],[-90.862,41.64595],[-90.85783,41.64595],[-90.85783,41.65012],[-90.84533,41.65012],[-90.84533,41.64595],[-90.84116,41.64595],[-90.84116,41.64178],[-90.837,41.64178],[-90.837,41.63762],[-90.82866,41.63762],[-90.82866,41.62928],[-90.81199,41.62928],[-90.81199,41.62512],[-90.80366,41.62512],[-90.80366,41.62095],[-90.79949,41.62095],[-90.79949,41.62512],[-90.79116,41.62512],[-90.79116,41.62928],[-90.78699,41.62928],[-90.78699,41.62512],[-90.77866,41.62512],[-90.77866,41.62095],[-90.77032,41.62095],[-90.77032,41.61678],[-90.76199,41.61678],[-90.76199,41.61262],[-90.75782,41.61262],[-90.75782,41.60428],[-90.72865,41.60428],[-90.72865,41.60011],[-90.72032,41.60011],[-90.72032,41.59595],[-90.71198,41.59595],[-90.71198,41.59178],[-90.69115,41.59178],[-90.69115,41.59595],[-90.68698,41.59595],[-90.68698,41.59178],[-90.67865,41.59178],[-90.67865,41.60011],[-90.66615,41.60011],[-90.66615,41.60428],[-90.65365,41.60428],[-90.65365,41.61262],[-90.64948,41.61262],[-90.64948,41.61678],[-90.64531,41.61678],[-90.64531,41.62095],[-90.64115,41.62095],[-90.64115,41.62512],[-90.63698,41.62512],[-90.63698,41.62928],[-90.62448,41.62928],[-90.62448,41.62512],[-90.61198,41.62512],[-90.61198,41.62095],[-90.59948,41.62095],[-90.59948,41.62512],[-90.59531,41.62512],[-90.59531,41.64178],[-90.59948,41.64178],[-90.59948,41.64595],[-90.59531,41.64595],[-90.59531,41.65012],[-90.59114,41.65012],[-90.59114,41.65429],[-90.58281,41.65429],[-90.58281,41.65845],[-90.57031,41.65845],[-90.57031,41.67512],[-90.58281,41.67512],[-90.58281,41.67929],[-90.59114,41.67929],[-90.59114,41.68345],[-90.59531,41.68345],[-90.59531,41.68762],[-90.59114,41.68762],[-90.59114,41.69179],[-90.58281,41.69179],[-90.58281,41.69596],[-90.58697,41.69596],[-90.58697,41.70429],[-90.59114,41.70429],[-90.59114,41.71679],[-90.59531,41.71679],[-90.59531,41.72096],[-90.58281,41.72096],[-90.58281,41.72512],[-90.56614,41.72512],[-90.56614,41.72929],[-90.56197,41.72929],[-90.56197,41.73346],[-90.55781,41.73346],[-90.55781,41.73763],[-90.55364,41.73763],[-90.55364,41.74596],[-90.54114,41.74596],[-90.54114,41.74179],[-90.53697,41.74179],[-90.53697,41.74596],[-90.5328,41.74596],[-90.5328,41.75013],[-90.52864,41.75013],[-90.52864,41.75429],[-90.5328,41.75429],[-90.5328,41.75846],[-90.53697,41.75846],[-90.53697,41.76263],[-90.54114,41.76263],[-90.54114,41.76679],[-90.5453,41.76679],[-90.5453,41.77096],[-90.54947,41.77096],[-90.54947,41.77513],[-90.55364,41.77513],[-90.55364,41.78346],[-90.55781,41.78346],[-90.55781,41.78763],[-90.56197,41.78763],[-90.56197,41.7918],[-90.56614,41.7918],[-90.56614,41.80013],[-90.57447,41.80013],[-90.57447,41.8043],[-90.58281,41.8043],[-90.58281,41.80846],[-90.58697,41.80846],[-90.58697,41.8043],[-90.59114,41.8043],[-90.59114,41.80846],[-90.61198,41.80846],[-90.61198,41.82097],[-90.60364,41.82097],[-90.60364,41.83347],[-90.60781,41.83347],[-90.60781,41.8418],[-90.61198,41.8418],[-90.61198,41.84597],[-90.61614,41.84597],[-90.61614,41.85013],[-90.61198,41.85013],[-90.61198,41.8543],[-90.63698,41.8543],[-90.63698,41.85847],[-90.64531,41.85847],[-90.64531,41.86264],[-90.67032,41.86264],[-90.67032,41.87097],[-90.69948,41.87097],[-90.69948,41.87514],[-90.69532,41.87514],[-90.69532,41.8793],[-90.69115,41.8793],[-90.69115,41.88764],[-90.68698,41.88764],[-90.68698,41.89597],[-90.68282,41.89597],[-90.68282,41.92097],[-90.67865,41.92097],[-90.67865,41.92514],[-90.67448,41.92514],[-90.67448,41.93347],[-90.67865,41.93347],[-90.67865,41.94181],[-90.68698,41.94181],[-90.68698,41.95014],[-90.69115,41.95014],[-90.69115,41.95848],[-90.68698,41.95848],[-90.68698,41.96264],[-90.70365,41.96264],[-90.70365,41.95848],[-90.72449,41.95848],[-90.72449,41.96264],[-90.73699,41.96264],[-90.73699,41.96681],[-90.75365,41.96681],[-90.75365,41.97098],[-90.77449,41.97098],[-90.77449,41.97514],[-90.77866,41.97514],[-90.77866,41.99181],[-90.79532,41.99181],[-90.79532,42.00848],[-90.82033,42.00848],[-90.82033,42.01265],[-90.82449,42.01265],[-90.82449,42.02098],[-90.82866,42.02098],[-90.82866,42.01681],[-90.84533,42.01681],[-90.84533,42.01265],[-90.8495,42.01265],[-90.8495,42.00431],[-90.85783,42.00431],[-90.85783,42.00015],[-90.87866,42.00015],[-90.87866,41.99598],[-90.89117,41.99598],[-90.89117,42.00015],[-90.8995,42.00015],[-90.8995,42.00431],[-90.90367,42.00431],[-90.90367,42.00848],[-90.912,42.00848],[-90.912,42.01681],[-90.91617,42.01681],[-90.91617,42.02098],[-90.94534,42.02098],[-90.94534,42.02515],[-90.95367,42.02515],[-90.95367,42.02932],[-90.96617,42.02932],[-90.96617,42.04598],[-90.97451,42.04598],[-90.97451,42.04182],[-90.99117,42.04182],[-90.99117,42.04598],[-90.99534,42.04598],[-90.99534,42.04182],[-91.00368,42.04182],[-91.00368,42.04598],[-91.03284,42.04598],[-91.03284,42.04182],[-91.03701,42.04182],[-91.03701,42.04598],[-91.04534,42.04598],[-91.04534,42.04182],[-91.05785,42.04182],[-91.05785,42.03765],[-91.07451,42.03765],[-91.07451,42.05015],[-91.09535,42.05015],[-91.09535,42.05432],[-91.11202,42.05432],[-91.11202,42.05015],[-91.11618,42.05015],[-91.11618,42.05432],[-91.12035,42.05432],[-91.12035,42.06265],[-91.12868,42.06265],[-91.12868,42.07099],[-91.13285,42.07099],[-91.13285,42.07515],[-91.12868,42.07515],[-91.12868,42.07932],[-91.12452,42.07932],[-91.12452,42.08349],[-91.12868,42.08349],[-91.12868,42.10015],[-91.13285,42.10015],[-91.13285,42.10849],[-91.14535,42.10849],[-91.14535,42.10432],[-91.14952,42.10432],[-91.14952,42.11266],[-91.15369,42.11266],[-91.15369,42.11682],[-91.17036,42.11682],[-91.17036,42.12516],[-91.18702,42.12516],[-91.18702,42.13349],[-91.19536,42.13349],[-91.19536,42.13766],[-91.20369,42.13766],[-91.20369,42.14182],[-91.21202,42.14182],[-91.21202,42.13766],[-91.22453,42.13766],[-91.22453,42.14599],[-91.25369,42.14599],[-91.25369,42.15016],[-91.25786,42.15016],[-91.25786,42.15433],[-91.26203,42.15433],[-91.26203,42.15849],[-91.2662,42.15849],[-91.2662,42.16683],[-91.27453,42.16683],[-91.27453,42.17099],[-91.28286,42.17099],[-91.28286,42.17516],[-91.2912,42.17516],[-91.2912,42.18349],[-91.29953,42.18349],[-91.29953,42.18766],[-91.30787,42.18766],[-91.30787,42.20433],[-91.31203,42.20433],[-91.31203,42.2085],[-91.3162,42.2085],[-91.3162,42.21266],[-91.3287,42.21266],[-91.3287,42.21683],[-91.33287,42.21683],[-91.33287,42.221],[-91.34537,42.221],[-91.34537,42.22516],[-91.34954,42.22516],[-91.34954,42.22933],[-91.3537,42.22933],[-91.3537,42.22516],[-91.37037,42.22516],[-91.37037,42.22933],[-91.38287,42.22933],[-91.38287,42.2335],[-91.38704,42.2335],[-91.38704,42.23767],[-91.39121,42.23767],[-91.39121,42.24183],[-91.39954,42.24183],[-91.39954,42.246],[-91.40371,42.246],[-91.40371,42.2585],[-91.40787,42.2585],[-91.40787,42.26683],[-91.41204,42.26683],[-91.41204,42.27517],[-91.41621,42.27517],[-91.41621,42.2835],[-91.42037,42.2835],[-91.42037,42.28767],[-91.41621,42.28767],[-91.41621,42.29184],[-91.41204,42.29184],[-91.41204,42.296],[-91.41621,42.296],[-91.41621,42.30017],[-91.42037,42.30017],[-91.42037,42.30434],[-91.42454,42.30434],[-91.42454,42.3085],[-91.43704,42.3085],[-91.43704,42.31267],[-91.44121,42.31267],[-91.44121,42.32517],[-91.45788,42.32517],[-91.45788,42.32934],[-91.47455,42.32934],[-91.47455,42.33767],[-91.48288,42.33767],[-91.48288,42.34184],[-91.49538,42.34184],[-91.49538,42.34601],[-91.50371,42.34601],[-91.50371,42.35017],[-91.50788,42.35017],[-91.50788,42.35434],[-91.51622,42.35434],[-91.51622,42.37518],[-91.51205,42.37518],[-91.51205,42.39184],[-91.50788,42.39184],[-91.50788,42.40018],[-91.52038,42.40018],[-91.52038,42.41268],[-91.52872,42.41268],[-91.52872,42.41685],[-91.54955,42.41685],[-91.54955,42.42518],[-91.56205,42.42518],[-91.56205,42.43351],[-91.56622,42.43351],[-91.56622,42.43768],[-91.57455,42.43768],[-91.57455,42.45435],[-91.59122,42.45435],[-91.59122,42.45852],[-91.59539,42.45852],[-91.59539,42.45435],[-91.60789,42.45435],[-91.60789,42.45852],[-91.61622,42.45852],[-91.61622,42.45435],[-91.62039,42.45435],[-91.62039,42.45018],[-91.63706,42.45018],[-91.63706,42.45435],[-91.64123,42.45435],[-91.64123,42.45852],[-91.64956,42.45852],[-91.64956,42.46685],[-91.65789,42.46685],[-91.65789,42.47518],[-91.66206,42.47518],[-91.66206,42.47935],[-91.67039,42.47935],[-91.67039,42.48769],[-91.67873,42.48769],[-91.67873,42.49602],[-91.6829,42.49602],[-91.6829,42.50435],[-91.69123,42.50435],[-91.69123,42.52519],[-91.6954,42.52519],[-91.6954,42.53352],[-91.69956,42.53352],[-91.69956,42.53769],[-91.70373,42.53769],[-91.70373,42.54602],[-91.7079,42.54602],[-91.7079,42.55019],[-91.71206,42.55019],[-91.71206,42.55852],[-91.7079,42.55852],[-91.7079,42.56269],[-91.6954,42.56269],[-91.6954,42.56686],[-91.69123,42.56686],[-91.69123,42.57936],[-91.68706,42.57936],[-91.68706,42.58353],[-91.69123,42.58353],[-91.69123,42.59186],[-91.7079,42.59186],[-91.7079,42.59603],[-91.71206,42.59603],[-91.71206,42.60019],[-91.71623,42.60019],[-91.71623,42.60853],[-91.72457,42.60853],[-91.72457,42.6127],[-91.72873,42.6127],[-91.72873,42.62103],[-91.7329,42.62103],[-91.7329,42.63353],[-91.72873,42.63353],[-91.72873,42.6377],[-91.7329,42.6377],[-91.7329,42.6502],[-91.73707,42.6502],[-91.73707,42.65437],[-91.74123,42.65437],[-91.74123,42.65853],[-91.7579,42.65853],[-91.7579,42.6627],[-91.76207,42.6627],[-91.76207,42.68353],[-91.7704,42.68353],[-91.7704,42.69187],[-91.77457,42.69187],[-91.77457,42.7002],[-91.77874,42.7002],[-91.77874,42.70437],[-91.7829,42.70437],[-91.7829,42.7127],[-91.78707,42.7127],[-91.78707,42.72104],[-91.79541,42.72104],[-91.79541,42.71687],[-91.79957,42.71687],[-91.79957,42.72104],[-91.80791,42.72104],[-91.80791,42.71687],[-91.83707,42.71687],[-91.83707,42.72104],[-91.84124,42.72104],[-91.84124,42.71687],[-91.84541,42.71687],[-91.84541,42.7127],[-91.85374,42.7127],[-91.85374,42.71687],[-91.85791,42.71687],[-91.85791,42.72104],[-91.86208,42.72104],[-91.86208,42.72937],[-91.86624,42.72937],[-91.86624,42.73771],[-91.87458,42.73771],[-91.87458,42.74604],[-91.87874,42.74604],[-91.87874,42.75021],[-91.88708,42.75021],[-91.88708,42.75854],[-91.89125,42.75854],[-91.89125,42.76687],[-91.89541,42.76687],[-91.89541,42.77104],[-91.89958,42.77104],[-91.89958,42.77521],[-91.91625,42.77521],[-91.91625,42.77938],[-91.92458,42.77938],[-91.92458,42.77521],[-91.94125,42.77521],[-91.94125,42.77938],[-91.94542,42.77938],[-91.94542,42.79188],[-91.95375,42.79188],[-91.95375,42.79604],[-91.95792,42.79604],[-91.95792,42.80438],[-91.96209,42.80438],[-91.96209,42.81688],[-91.96625,42.81688],[-91.96625,42.82521],[-91.97459,42.82521],[-91.97459,42.82938],[-91.97875,42.82938],[-91.97875,42.83771],[-91.99125,42.83771],[-91.99125,42.84188],[-92.00375,42.84188],[-92.00375,42.84605],[-92.00792,42.84605],[-92.00792,42.85438],[-92.01209,42.85438],[-92.01209,42.85855],[-92.01626,42.85855],[-92.01626,42.87522],[-92.02459,42.87522],[-92.02459,42.87938],[-92.02876,42.87938],[-92.02876,42.89188],[-92.02459,42.89188],[-92.02459,42.89605],[-92.02876,42.89605],[-92.02876,42.92105],[-92.04126,42.92105],[-92.04126,42.93355],[-92.05376,42.93355],[-92.05376,42.94189],[-92.05793,42.94189],[-92.05793,42.94606],[-92.06626,42.94606],[-92.06626,42.95022],[-92.07043,42.95022],[-92.07043,42.95439],[-92.08709,42.95439],[-92.08709,42.95856],[-92.09126,42.95856],[-92.09126,42.97106],[-92.0996,42.97106],[-92.0996,42.97522],[-92.10376,42.97522],[-92.10376,42.97939],[-92.11626,42.97939],[-92.11626,42.97522],[-92.12043,42.97522],[-92.12043,42.97939],[-92.1246,42.97939],[-92.1246,42.98356],[-92.12877,42.98356],[-92.12877,42.99189],[-92.13293,42.99189],[-92.13293,42.99606],[-92.14127,42.99606],[-92.14127,43.00439],[-92.14543,43.00439],[-92.14543,43.01273],[-92.15377,43.01273],[-92.15377,43.01689],[-92.15793,43.01689],[-92.15793,43.02106],[-92.17043,43.02106],[-92.17043,43.0294],[-92.17877,43.0294],[-92.17877,43.03356],[-92.1871,43.03356],[-92.1871,43.05023],[-92.19544,43.05023],[-92.19544,43.05856],[-92.20377,43.05856],[-92.20377,43.0669],[-92.20794,43.0669],[-92.20794,43.07523],[-92.2121,43.07523],[-92.2121,43.0794],[-92.21627,43.0794],[-92.21627,43.09607],[-92.22044,43.09607],[-92.22044,43.10023],[-92.22877,43.10023],[-92.22877,43.1044],[-92.23294,43.1044],[-92.23294,43.10857],[-92.23711,43.10857],[-92.23711,43.1169],[-92.24544,43.1169],[-92.24544,43.12107],[-92.24961,43.12107],[-92.24961,43.12524],[-92.25377,43.12524],[-92.25377,43.13357],[-92.25794,43.13357],[-92.25794,43.13774],[-92.26211,43.13774],[-92.26211,43.1419],[-92.27461,43.1419],[-92.27461,43.13774],[-92.27878,43.13774],[-92.27878,43.1419],[-92.28711,43.1419],[-92.28711,43.14607],[-92.29128,43.14607],[-92.29128,43.15024],[-92.29545,43.15024],[-92.29545,43.15441],[-92.29961,43.15441],[-92.29961,43.15857],[-92.30378,43.15857],[-92.30378,43.16274],[-92.31628,43.16274],[-92.31628,43.17941],[-92.32045,43.17941],[-92.32045,43.18357],[-92.32461,43.18357],[-92.32461,43.18774],[-92.33711,43.18774],[-92.33711,43.19191],[-92.34128,43.19191],[-92.34128,43.20024],[-92.34545,43.20024],[-92.34545,43.22524],[-92.34962,43.22524],[-92.34962,43.22941],[-92.35378,43.22941],[-92.35378,43.23358],[-92.35795,43.23358],[-92.35795,43.23775],[-92.37045,43.23775],[-92.37045,43.25441],[-92.37462,43.25441],[-92.37462,43.25858],[-92.37878,43.25858],[-92.37878,43.26691],[-92.38295,43.26691],[-92.38295,43.27942],[-92.38712,43.27942],[-92.38712,43.28358],[-92.39545,43.28358],[-92.39545,43.28775],[-92.41629,43.28775],[-92.41629,43.29192],[-92.42045,43.29192],[-92.42045,43.29608],[-92.42879,43.29608],[-92.42879,43.31275],[-92.43712,43.31275],[-92.43712,43.32109],[-92.44546,43.32109],[-92.44546,43.32942],[-92.44962,43.32942],[-92.44962,43.34192],[-92.45379,43.34192],[-92.45379,43.34609],[-92.45796,43.34609],[-92.45796,43.35025],[-92.47046,43.35025],[-92.47046,43.37526],[-92.47463,43.37526],[-92.47463,43.37942],[-92.47879,43.37942],[-92.47879,43.38359],[-92.48713,43.38359],[-92.48713,43.39192],[-92.49129,43.39192],[-92.49129,43.39609],[-92.49546,43.39609],[-92.49546,43.40443],[-92.50379,43.40443],[-92.50379,43.41693],[-92.50796,43.41693],[-92.50796,43.42109],[-92.51213,43.42109],[-92.51213,43.42526],[-92.52046,43.42526],[-92.52046,43.42943],[-92.52463,43.42943],[-92.52463,43.43359],[-92.53296,43.43359],[-92.53296,43.43776],[-92.53713,43.43776],[-92.53713,43.45026],[-92.5413,43.45026],[-92.5413,43.45443],[-92.54546,43.45443],[-92.54546,43.4586],[-92.5538,43.4586],[-92.5538,43.46276],[-92.54963,43.46276],[-92.54963,43.46693],[-92.5538,43.46693],[-92.5538,43.4711],[-92.55797,43.4711],[-92.55797,43.47943],[-92.56213,43.47943],[-92.56213,43.4836],[-92.57047,43.4836],[-92.57047,43.48777],[-92.57463,43.48777],[-92.57463,43.4961],[-92.5788,43.4961],[-92.5788,43.50027],[-92.58714,43.50027],[-92.58714,43.50443],[-92.59547,43.50443],[-92.59547,43.5086],[-92.60797,43.5086],[-92.60797,43.51277],[-92.61214,43.51277],[-92.61214,43.51693],[-92.62047,43.51693],[-92.62047,43.5211],[-92.62464,43.5211],[-92.62464,43.52527],[-92.6288,43.52527],[-92.6288,43.52944],[-92.63297,43.52944],[-92.63297,43.54194],[-92.6288,43.54194],[-92.6288,43.5461],[-92.64131,43.5461],[-92.64131,43.55027],[-92.64964,43.55027],[-92.64964,43.55444],[-92.65797,43.55444],[-92.65797,43.5586],[-92.67047,43.5586]]]}}]}