{"type":"FeatureCollection","features":[{"type":"Feature","properties":{},"geometry":{"type":"Polygon","coordinates":[[[-93.32469,41.64178],[-93.32469,41.63762],[-93.33303,41.63762],[-93.33303,41.63345],[-93.33719,41.63345],[-93.33719,41.62928],[-93.34136,41.62928],[-93.34136,41.62512],[-93.34553,41.62512],[-93.34553,41.62095],[-93.3497,41.62095],[-93.3497,41.61678],[-93.34136,41.61678],[-93.34136,41.61262],[-93.33719,41.61262],[-93.33719,41.60845],[-93.32469,41.60845],[-93.32469,41.60428],[-93.31636,41.60428],[-93.31636,41.58761],[-93.31219,41.58761],[-93.31219,41.58345],[-93.31636,41.58345],[-93.31636,41.57095],[-93.32053,41.57095],[-93.32053,41.56678],[-93.31636,41.56678],[-93.31636,41.55844],[-93.30803,41.55844],[-93.30803,41.55428],[-93.29969,41.55428],[-93.29969,41.54594],[-93.29552,41.54594],[-93.29552,41.53761],[-93.29136,41.53761],[-93.29136,41.53344],[-93.28719,41.53344],[-93.28719,41.53761],[-93.27469,41.53761],[-93.27469,41.54178],[-93.27052,41.54178],[-93.27052,41.53761],[-93.26636,41.53761],[-93.26636,41.54178],[-93.26219,41.54178],[-93.26219,41.53761],[-93.25802,41.53761],[-93.25802,41.54178],[-93.24552,41.54178],[-93.24552,41.56261],[-93.24969,41.56261],[-93.24969,41.56678],[-93.24552,41.56678],[-93.24552,41.57095],[-93.24969,41.57095],[-93.24969,41.57511],[-93.24552,41.57511],[-93.24552,41.57928],[-93.24135,41.57928],[-93.24135,41.58345],[-93.23719,41.58345],[-93.23719,41.58761],[-93.24135,41.58761],[-93.24135,41.59178],[-93.24552,41.59178],[-93.24552,41.60011],[-93.26636,41.60011],[-93.26636,41.60845],[-93.27052,41.60845],[-93.27052,41.61262],[-93.27469,41.61262],[-93.27469,41.62095],[-93.27886,41.62095],[-93.27886,41.62512],[-93.29136,41.62512],[-93.29136,41.63345],[-93.29969,41.63345],[-93.29969,41.63762],[-93.30803,41.63762],[-93.30803,41.64178],[-93.32469,41.64178]]]}}]}