{"type":"FeatureCollection","features":[{"type":"Feature","properties":{},"geometry":{"type":"Polygon","coordinates":[[[-95.69988,43.32109],[-95.69988,43.30858],[-95.70405,43.30858],[-95.70405,43.30025],[-95.72072,43.30025],[-95.72072,43.29608],[-95.72905,43.29608],[-95.72905,43.28775],[-95.74989,43.28775],[-95.74989,43.28358],[-95.76239,43.28358],[-95.76239,43.27942],[-95.76656,43.27942],[-95.76656,43.27525],[-95.77906,43.27525],[-95.77906,43.27108],[-95.78739,43.27108],[-95.78739,43.26691],[-95.79989,43.26691],[-95.79989,43.27108],[-95.82073,43.27108],[-95.82073,43.26691],[-95.82489,43.26691],[-95.82489,43.26275],[-95.84156,43.26275],[-95.84156,43.25858],[-95.8499,43.25858],[-95.8499,43.25441],[-95.85406,43.25441],[-95.85406,43.24608],[-95.85823,43.24608],[-95.85823,43.24191],[-95.87073,43.24191],[-95.87073,43.23775],[-95.8749,43.23775],[-95.8749,43.23358],[-95.88323,43.23358],[-95.88323,43.22941],[-95.8874,43.22941],[-95.8874,43.22524],[-95.89157,43.22524],[-95.89157,43.22108],[-95.89573,43.22108],[-95.89573,43.20858],[-95.8999,43.20858],[-95.8999,43.20441],[-95.92907,43.20441],[-95.92907,43.20858],[-95.9374,43.20858],[-95.9374,43.21274],[-95.94157,43.21274],[-95.94157,43.20441],[-95.95407,43.20441],[-95.95407,43.20024],[-95.9624,43.20024],[-95.9624,43.19608],[-95.97074,43.19608],[-95.97074,43.19191],[-95.97907,43.19191],[-95.97907,43.20024],[-95.99574,43.20024],[-95.99574,43.20858],[-96.00408,43.20858],[-96.00408,43.21274],[-96.00824,43.21274],[-96.00824,43.21691],[-96.01241,43.21691],[-96.01241,43.22108],[-96.01658,43.22108],[-96.01658,43.22524],[-96.02491,43.22524],[-96.02491,43.22941],[-96.03324,43.22941],[-96.03324,43.23358],[-96.04158,43.23358],[-96.04158,43.22941],[-96.04991,43.22941],[-96.04991,43.22524],[-96.05408,43.22524],[-96.05408,43.22108],[-96.07908,43.22108],[-96.07908,43.21691],[-96.08741,43.21691],[-96.08741,43.20858],[-96.10825,43.20858],[-96.10825,43.20024],[-96.12492,43.20024],[-96.12492,43.20441],[-96.12909,43.20441],[-96.12909,43.19608],[-96.13325,43.19608],[-96.13325,43.19191],[-96.14575,43.19191],[-96.14575,43.18774],[-96.14992,43.18774],[-96.14992,43.18357],[-96.15825,43.18357],[-96.15825,43.17941],[-96.17075,43.17941],[-96.17075,43.17524],[-96.17492,43.17524],[-96.17492,43.17107],[-96.17075,43.17107],[-96.17075,43.16691],[-96.16242,43.16691],[-96.16242,43.16274],[-96.15825,43.16274],[-96.15825,43.15857],[-96.16242,43.15857],[-96.16242,43.15024],[-96.16659,43.15024],[-96.16659,43.14607],[-96.17075,43.14607],[-96.17075,43.15024],[-96.17492,43.15024],[-96.17492,43.14607],[-96.17909,43.14607],[-96.17909,43.1419],[-96.18326,43.1419],[-96.18326,43.1294],[-96.18742,43.1294],[-96.18742,43.11274],[-96.18326,43.11274],[-96.18326,43.10857],[-96.17909,43.10857],[-96.17909,43.1044],[-96.17492,43.1044],[-96.17492,43.10023],[-96.17075,43.10023],[-96.17075,43.0919],[-96.17492,43.0919],[-96.17492,43.08357],[-96.17909,43.08357],[-96.17909,43.0794],[-96.19576,43.0794],[-96.19576,43.08357],[-96.19992,43.08357],[-96.19992,43.0794],[-96.20826,43.0794],[-96.20826,43.07107],[-96.21659,43.07107],[-96.21659,43.0669],[-96.22493,43.0669],[-96.22493,43.06273],[-96.22909,43.06273],[-96.22909,43.04606],[-96.22493,43.04606],[-96.22493,43.0294],[-96.23743,43.0294],[-96.23743,43.02523],[-96.24576,43.02523],[-96.24576,43.01689],[-96.25826,43.01689],[-96.25826,43.01273],[-96.26243,43.01273],[-96.26243,43.00439],[-96.2666,43.00439],[-96.2666,42.98773],[-96.26243,42.98773],[-96.26243,42.98356],[-96.2666,42.98356],[-96.2666,42.97939],[-96.27493,42.97939],[-96.27493,42.97522],[-96.2791,42.97522],[-96.2791,42.97106],[-96.28326,42.97106],[-96.28326,42.96689],[-96.28743,42.96689],[-96.28743,42.95439],[-96.28326,42.95439],[-96.28326,42.95022],[-96.2791,42.95022],[-96.2791,42.92939],[-96.27493,42.92939],[-96.27493,42.92522],[-96.2791,42.92522],[-96.2791,42.92105],[-96.29993,42.92105],[-96.29993,42.91689],[-96.30827,42.91689],[-96.30827,42.91272],[-96.3166,42.91272],[-96.3166,42.90439],[-96.32493,42.90439],[-96.32493,42.89605],[-96.3291,42.89605],[-96.3291,42.89188],[-96.33327,42.89188],[-96.33327,42.88772],[-96.33743,42.88772],[-96.33743,42.88355],[-96.3416,42.88355],[-96.3416,42.87522],[-96.33743,42.87522],[-96.33743,42.87105],[-96.33327,42.87105],[-96.33327,42.86688],[-96.3291,42.86688],[-96.3291,42.85855],[-96.32493,42.85855],[-96.32493,42.85438],[-96.32077,42.85438],[-96.32077,42.85021],[-96.3166,42.85021],[-96.3166,42.83771],[-96.32493,42.83771],[-96.32493,42.83355],[-96.33327,42.83355],[-96.33327,42.82521],[-96.33743,42.82521],[-96.33743,42.81688],[-96.34994,42.81688],[-96.34994,42.81271],[-96.3541,42.81271],[-96.3541,42.78771],[-96.33743,42.78771],[-96.33743,42.77938],[-96.33327,42.77938],[-96.33327,42.77104],[-96.32493,42.77104],[-96.32493,42.76687],[-96.32077,42.76687],[-96.32077,42.74604],[-96.3291,42.74604],[-96.3291,42.7252],[-96.33327,42.7252],[-96.33327,42.71687],[-96.33743,42.71687],[-96.33743,42.70854],[-96.3416,42.70854],[-96.3416,42.69604],[-96.33743,42.69604],[-96.33743,42.69187],[-96.33327,42.69187],[-96.33327,42.68353],[-96.33743,42.68353],[-96.33743,42.6752],[-96.3416,42.6752],[-96.3416,42.67103],[-96.33743,42.67103],[-96.33743,42.64603],[-96.3416,42.64603],[-96.3416,42.6377],[-96.34577,42.6377],[-96.34577,42.63353],[-96.34994,42.63353],[-96.34994,42.61686],[-96.3541,42.61686],[-96.3541,42.60436],[-96.34994,42.60436],[-96.34994,42.60019],[-96.33743,42.60019],[-96.33743,42.59603],[-96.33327,42.59603],[-96.33327,42.59186],[-96.32077,42.59186],[-96.32077,42.58769],[-96.3166,42.58769],[-96.3166,42.58353],[-96.30827,42.58353],[-96.30827,42.57936],[-96.3041,42.57936],[-96.3041,42.57519],[-96.2916,42.57519],[-96.2916,42.56686],[-96.28743,42.56686],[-96.28743,42.55852],[-96.28326,42.55852],[-96.28326,42.56269],[-96.27493,42.56269],[-96.27493,42.55852],[-96.26243,42.55852],[-96.26243,42.56686],[-96.24576,42.56686],[-96.24576,42.57519],[-96.24159,42.57519],[-96.24159,42.58353],[-96.23743,42.58353],[-96.23743,42.60019],[-96.22909,42.60019],[-96.22909,42.60853],[-96.22493,42.60853],[-96.22493,42.62103],[-96.22076,42.62103],[-96.22076,42.62936],[-96.21659,42.62936],[-96.21659,42.6377],[-96.21242,42.6377],[-96.21242,42.6502],[-96.20826,42.6502],[-96.20826,42.66687],[-96.19992,42.66687],[-96.19992,42.67103],[-96.19576,42.67103],[-96.19576,42.68353],[-96.19159,42.68353],[-96.19159,42.69187],[-96.18326,42.69187],[-96.18326,42.7002],[-96.16242,42.7002],[-96.16242,42.69187],[-96.15825,42.69187],[-96.15825,42.69604],[-96.14575,42.69604],[-96.14575,42.7002],[-96.14159,42.7002],[-96.14159,42.70437],[-96.13742,42.70437],[-96.13742,42.70854],[-96.13325,42.70854],[-96.13325,42.7127],[-96.10408,42.7127],[-96.10408,42.71687],[-96.09992,42.71687],[-96.09992,42.7252],[-96.09575,42.7252],[-96.09575,42.73354],[-96.08741,42.73354],[-96.08741,42.73771],[-96.07908,42.73771],[-96.07908,42.74187],[-96.07075,42.74187],[-96.07075,42.74604],[-96.05825,42.74604],[-96.05825,42.74187],[-96.05408,42.74187],[-96.05408,42.74604],[-96.04158,42.74604],[-96.04158,42.76271],[-96.03741,42.76271],[-96.03741,42.76687],[-96.03324,42.76687],[-96.03324,42.77104],[-96.02908,42.77104],[-96.02908,42.77521],[-96.02491,42.77521],[-96.02491,42.77938],[-96.02074,42.77938],[-96.02074,42.78354],[-96.01658,42.78354],[-96.01658,42.78771],[-96.00408,42.78771],[-96.00408,42.78354],[-95.96657,42.78354],[-95.96657,42.79604],[-95.9624,42.79604],[-95.9624,42.80021],[-95.95824,42.80021],[-95.95824,42.80438],[-95.95407,42.80438],[-95.95407,42.80854],[-95.9499,42.80854],[-95.9499,42.80438],[-95.94574,42.80438],[-95.94574,42.80021],[-95.93324,42.80021],[-95.93324,42.79604],[-95.92907,42.79604],[-95.92907,42.80854],[-95.92073,42.80854],[-95.92073,42.82105],[-95.91657,42.82105],[-95.91657,42.82521],[-95.9124,42.82521],[-95.9124,42.82938],[-95.90407,42.82938],[-95.90407,42.83771],[-95.8999,42.83771],[-95.8999,42.84605],[-95.89573,42.84605],[-95.89573,42.85021],[-95.89157,42.85021],[-95.89157,42.85438],[-95.8874,42.85438],[-95.8874,42.86272],[-95.89157,42.86272],[-95.89157,42.86688],[-95.8874,42.86688],[-95.8874,42.87522],[-95.87906,42.87522],[-95.87906,42.87938],[-95.8749,42.87938],[-95.8749,42.88355],[-95.87073,42.88355],[-95.87073,42.88772],[-95.86656,42.88772],[-95.86656,42.89188],[-95.85406,42.89188],[-95.85406,42.89605],[-95.84156,42.89605],[-95.84156,42.88772],[-95.82906,42.88772],[-95.82906,42.88355],[-95.82489,42.88355],[-95.82489,42.87938],[-95.82073,42.87938],[-95.82073,42.88355],[-95.80406,42.88355],[-95.80406,42.89188],[-95.79989,42.89188],[-95.79989,42.89605],[-95.79156,42.89605],[-95.79156,42.90439],[-95.78739,42.90439],[-95.78739,42.90855],[-95.78322,42.90855],[-95.78322,42.91272],[-95.79156,42.91272],[-95.79156,42.91689],[-95.79989,42.91689],[-95.79989,42.92105],[-95.80823,42.92105],[-95.80823,42.92939],[-95.81239,42.92939],[-95.81239,42.93355],[-95.81656,42.93355],[-95.81656,42.94189],[-95.82073,42.94189],[-95.82073,42.94606],[-95.82489,42.94606],[-95.82489,42.95439],[-95.82906,42.95439],[-95.82906,42.95856],[-95.81656,42.95856],[-95.81656,42.96272],[-95.82073,42.96272],[-95.82073,42.97106],[-95.82489,42.97106],[-95.82489,42.97522],[-95.83323,42.97522],[-95.83323,42.97939],[-95.8374,42.97939],[-95.8374,42.98773],[-95.84156,42.98773],[-95.84156,43.00023],[-95.8374,43.00023],[-95.8374,43.00856],[-95.83323,43.00856],[-95.83323,43.01689],[-95.81656,43.01689],[-95.81656,43.01273],[-95.79572,43.01273],[-95.79572,43.00856],[-95.78739,43.00856],[-95.78739,43.01273],[-95.78322,43.01273],[-95.78322,43.02523],[-95.79156,43.02523],[-95.79156,43.03356],[-95.79572,43.03356],[-95.79572,43.03773],[-95.79156,43.03773],[-95.79156,43.05023],[-95.78739,43.05023],[-95.78739,43.0669],[-95.78322,43.0669],[-95.78322,43.07107],[-95.77906,43.07107],[-95.77906,43.07523],[-95.77489,43.07523],[-95.77489,43.0794],[-95.77072,43.0794],[-95.77072,43.08357],[-95.76656,43.08357],[-95.76656,43.08773],[-95.77072,43.08773],[-95.77072,43.0919],[-95.76239,43.0919],[-95.76239,43.09607],[-95.74989,43.09607],[-95.74989,43.10023],[-95.75405,43.10023],[-95.75405,43.1044],[-95.74989,43.1044],[-95.74989,43.10857],[-95.74572,43.10857],[-95.74572,43.11274],[-95.74989,43.11274],[-95.74989,43.1169],[-95.75822,43.1169],[-95.75822,43.12524],[-95.76239,43.12524],[-95.76239,43.1294],[-95.75822,43.1294],[-95.75822,43.13357],[-95.74989,43.13357],[-95.74989,43.13774],[-95.73739,43.13774],[-95.73739,43.1419],[-95.71655,43.1419],[-95.71655,43.13774],[-95.71238,43.13774],[-95.71238,43.1419],[-95.70822,43.1419],[-95.70822,43.14607],[-95.68738,43.14607],[-95.68738,43.15024],[-95.64571,43.15024],[-95.64571,43.14607],[-95.64155,43.14607],[-95.64155,43.15024],[-95.63321,43.15024],[-95.63321,43.15441],[-95.62488,43.15441],[-95.62488,43.15857],[-95.61654,43.15857],[-95.61654,43.16691],[-95.62071,43.16691],[-95.62071,43.17524],[-95.61654,43.17524],[-95.61654,43.17941],[-95.61238,43.17941],[-95.61238,43.18357],[-95.60821,43.18357],[-95.60821,43.17941],[-95.59988,43.17941],[-95.59988,43.18357],[-95.59571,43.18357],[-95.59571,43.18774],[-95.59988,43.18774],[-95.59988,43.20024],[-95.59571,43.20024],[-95.59571,43.20441],[-95.59154,43.20441],[-95.59154,43.21691],[-95.59571,43.21691],[-95.59571,43.22941],[-95.59988,43.22941],[-95.59988,43.25441],[-95.60821,43.25441],[-95.60821,43.26275],[-95.61238,43.26275],[-95.61238,43.28358],[-95.61654,43.28358],[-95.61654,43.28775],[-95.61238,43.28775],[-95.61238,43.29192],[-95.62904,43.29192],[-95.62904,43.29608],[-95.63738,43.29608],[-95.63738,43.30025],[-95.64155,43.30025],[-95.64155,43.30442],[-95.65405,43.30442],[-95.65405,43.30858],[-95.67072,43.30858],[-95.67072,43.31275],[-95.68322,43.31275],[-95.68322,43.31692],[-95.69155,43.31692],[-95.69155,43.32109],[-95.69988,43.32109]]]}}]}