{"type":"FeatureCollection","features":[{"type":"Feature","properties":{},"geometry":{"type":"Polygon","coordinates":[[[-92.36242,42.21455],[-92.36259,42.2108],[-92.36541,42.21051],[-92.37243,42.20129],[-92.37803,42.20005],[-92.38022,42.19656],[-92.37969,42.19464],[-92.38493,42.19305],[-92.38485,42.19059],[-92.38086,42.18703],[-92.38334,42.18463],[-92.38508,42.17853],[-92.3752,42.17332],[-92.37388,42.172],[-92.37441,42.1696],[-92.36822,42.16976],[-92.36971,42.16219],[-92.37675,42.16109],[-92.3787,42.15875],[-92.38361,42.157],[-92.38358,42.15486],[-92.38796,42.14884],[-92.39964,42.15197],[-92.41317,42.14927],[-92.41806,42.14516],[-92.43364,42.143],[-92.43684,42.14049],[-92.44213,42.14187],[-92.44503,42.14609],[-92.44511,42.14928],[-92.44771,42.15158],[-92.4519,42.1516],[-92.45629,42.15717],[-92.46218,42.15963],[-92.46653,42.15971],[-92.47091,42.15498],[-92.48244,42.1586],[-92.48585,42.15748],[-92.48942,42.15298],[-92.4945,42.15165],[-92.50006,42.15257],[-92.50424,42.15597],[-92.51318,42.15308],[-92.51878,42.15617],[-92.52022,42.15864],[-92.52846,42.16201],[-92.53664,42.15995],[-92.54853,42.16234],[-92.55613,42.16163],[-92.55985,42.16346],[-92.56563,42.16241],[-92.56849,42.16355],[-92.57096,42.16179],[-92.57607,42.16348],[-92.58411,42.16075],[-92.58716,42.16303],[-92.593,42.16315],[-92.59588,42.16005],[-92.59599,42.15743],[-92.59782,42.15721],[-92.59984,42.15115],[-92.6037,42.14931],[-92.6108,42.15019],[-92.61481,42.14638],[-92.62066,42.14627],[-92.62563,42.14935],[-92.62711,42.15283],[-92.63055,42.1528],[-92.63356,42.15481],[-92.63265,42.15688],[-92.63674,42.16172],[-92.64718,42.16521],[-92.66098,42.16407],[-92.66594,42.16666],[-92.67692,42.16372],[-92.68626,42.1587],[-92.69587,42.15653],[-92.70288,42.15766],[-92.70993,42.16092],[-92.71075,42.16519],[-92.71318,42.16672],[-92.73045,42.17337],[-92.73577,42.17072],[-92.75317,42.17462],[-92.75497,42.17],[-92.76129,42.16877],[-92.7632,42.16542],[-92.76793,42.16399],[-92.77739,42.16503],[-92.77835,42.16022],[-92.78202,42.15831],[-92.78949,42.15965],[-92.80087,42.15568],[-92.81068,42.157],[-92.82109,42.16155],[-92.82135,42.16537],[-92.83321,42.16828],[-92.83959,42.1711],[-92.84208,42.17414],[-92.85192,42.1727],[-92.85369,42.18192],[-92.8643,42.18814],[-92.86256,42.19089],[-92.86964,42.19845],[-92.876,42.20247],[-92.88922,42.20633],[-92.89787,42.21091],[-92.90088,42.2152],[-92.90893,42.21735],[-92.91107,42.22343],[-92.92177,42.23164],[-92.93087,42.23451],[-92.9326,42.24089],[-92.93764,42.2437],[-92.93337,42.24631],[-92.9334,42.24887],[-92.93417,42.25135],[-92.93821,42.25455],[-92.9379,42.26446],[-92.944,42.27137],[-92.94175,42.27467],[-92.94232,42.2834],[-92.9436,42.28468],[-92.93488,42.29607],[-92.93085,42.29672],[-92.92822,42.29917],[-92.93583,42.30857],[-92.93357,42.31068],[-92.92662,42.31167],[-92.9286,42.31431],[-92.92652,42.31655],[-92.92655,42.32019],[-92.93081,42.32189],[-92.93147,42.32463],[-92.92922,42.32612],[-92.93957,42.33645],[-92.93063,42.33973],[-92.91899,42.33734],[-92.90501,42.33728],[-92.90148,42.33555],[-92.88991,42.33622],[-92.88098,42.33479],[-92.86578,42.33872],[-92.86167,42.33724],[-92.86015,42.33348],[-92.85249,42.33177],[-92.84541,42.335],[-92.84103,42.33073],[-92.81875,42.32384],[-92.79975,42.3133],[-92.78367,42.30962],[-92.7781,42.30617],[-92.77793,42.30107],[-92.76969,42.2918],[-92.75975,42.2874],[-92.75407,42.28885],[-92.75149,42.28666],[-92.7415,42.28416],[-92.73741,42.28013],[-92.73695,42.27651],[-92.73479,42.27467],[-92.72565,42.27366],[-92.71794,42.27036],[-92.71384,42.27194],[-92.70984,42.27123],[-92.70156,42.26554],[-92.69782,42.26585],[-92.68418,42.26023],[-92.66257,42.25633],[-92.66043,42.25982],[-92.66164,42.26812],[-92.66538,42.27303],[-92.67075,42.27668],[-92.66717,42.27789],[-92.66123,42.27691],[-92.65511,42.27976],[-92.65037,42.27958],[-92.65016,42.28285],[-92.63973,42.2893],[-92.62661,42.28956],[-92.62216,42.29302],[-92.61931,42.29176],[-92.61532,42.29335],[-92.61247,42.29235],[-92.60954,42.2883],[-92.5967,42.28396],[-92.59223,42.2792],[-92.58976,42.27891],[-92.58653,42.28231],[-92.58058,42.28179],[-92.57394,42.28528],[-92.56735,42.28941],[-92.56518,42.29272],[-92.55428,42.29],[-92.54902,42.29331],[-92.53912,42.29638],[-92.53821,42.2971],[-92.541,42.30013],[-92.5387,42.30184],[-92.53953,42.30351],[-92.53263,42.30709],[-92.53121,42.30921],[-92.53173,42.31217],[-92.52627,42.31507],[-92.52627,42.32297],[-92.51794,42.33075],[-92.5057,42.33047],[-92.50121,42.33337],[-92.49196,42.33505],[-92.48909,42.33315],[-92.49013,42.33086],[-92.48766,42.32581],[-92.47572,42.32898],[-92.46481,42.32814],[-92.46297,42.33344],[-92.4612,42.33422],[-92.46357,42.33868],[-92.46367,42.34341],[-92.45923,42.3466],[-92.44891,42.34816],[-92.44192,42.35275],[-92.4447,42.35714],[-92.44889,42.35992],[-92.44537,42.37473],[-92.44845,42.37924],[-92.43673,42.38241],[-92.42924,42.38079],[-92.42753,42.38297],[-92.42043,42.38114],[-92.41107,42.3811],[-92.40574,42.37524],[-92.40141,42.37395],[-92.40534,42.36834],[-92.40037,42.36529],[-92.40029,42.36342],[-92.40226,42.36266],[-92.4023,42.35683],[-92.40551,42.35683],[-92.40704,42.35329],[-92.40966,42.3524],[-92.41544,42.33854],[-92.41535,42.33457],[-92.41358,42.3326],[-92.4033,42.32645],[-92.41043,42.32088],[-92.41401,42.31528],[-92.41247,42.31423],[-92.41569,42.3108],[-92.41532,42.30881],[-92.40017,42.29714],[-92.3982,42.29033],[-92.37536,42.28567],[-92.37077,42.28232],[-92.36457,42.28536],[-92.35815,42.28545],[-92.35339,42.281],[-92.35279,42.27803],[-92.34283,42.27332],[-92.33812,42.27603],[-92.32636,42.27677],[-92.32225,42.27827],[-92.32302,42.28069],[-92.31899,42.28279],[-92.31356,42.28336],[-92.3136,42.28683],[-92.31077,42.29059],[-92.30554,42.29553],[-92.3031,42.29584],[-92.30328,42.29707],[-92.2975,42.29784],[-92.29587,42.30034],[-92.29641,42.3025],[-92.29012,42.30153],[-92.2865,42.30275],[-92.28548,42.2944],[-92.27858,42.29053],[-92.27779,42.28747],[-92.28009,42.28198],[-92.27631,42.27752],[-92.28512,42.27372],[-92.27815,42.26526],[-92.27356,42.26372],[-92.27271,42.25913],[-92.27591,42.25742],[-92.27597,42.24801],[-92.27963,42.24617],[-92.28046,42.24263],[-92.27897,42.24066],[-92.27916,42.23648],[-92.27625,42.234],[-92.28042,42.23261],[-92.2807,42.22921],[-92.29358,42.22394],[-92.2989,42.22369],[-92.30003,42.22069],[-92.30292,42.22035],[-92.30917,42.214],[-92.31647,42.21663],[-92.32989,42.21831],[-92.34941,42.21565],[-92.35734,42.21894],[-92.36076,42.21843],[-92.36284,42.21624],[-92.36242,42.21455]]]}}]}