{"type":"FeatureCollection","features":[{"type":"Feature","properties":{},"geometry":{"type":"Polygon","coordinates":[[[-93.30803,42.51269],[-93.30803,42.50852],[-93.31219,42.50852],[-93.31219,42.50435],[-93.32053,42.50435],[-93.32053,42.50019],[-93.32469,42.50019],[-93.32469,42.49602],[-93.32886,42.49602],[-93.32886,42.50019],[-93.3497,42.50019],[-93.3497,42.50852],[-93.35803,42.50852],[-93.35803,42.50435],[-93.3747,42.50435],[-93.3747,42.50019],[-93.37053,42.50019],[-93.37053,42.49602],[-93.3747,42.49602],[-93.3747,42.49185],[-93.36636,42.49185],[-93.36636,42.48769],[-93.35803,42.48769],[-93.35803,42.48352],[-93.3497,42.48352],[-93.3497,42.47935],[-93.34553,42.47935],[-93.34553,42.47518],[-93.33719,42.47518],[-93.33719,42.47102],[-93.32469,42.47102],[-93.32469,42.46685],[-93.32053,42.46685],[-93.32053,42.46268],[-93.30803,42.46268],[-93.30803,42.45852],[-93.30386,42.45852],[-93.30386,42.45435],[-93.29552,42.45435],[-93.29552,42.45018],[-93.28719,42.45018],[-93.28719,42.44602],[-93.28302,42.44602],[-93.28302,42.44185],[-93.27886,42.44185],[-93.27886,42.43768],[-93.27469,42.43768],[-93.27469,42.42935],[-93.27052,42.42935],[-93.27052,42.42101],[-93.26636,42.42101],[-93.26636,42.41268],[-93.25802,42.41268],[-93.25802,42.40435],[-93.24552,42.40435],[-93.24552,42.39601],[-93.24135,42.39601],[-93.24135,42.39184],[-93.23719,42.39184],[-93.23719,42.38768],[-93.22469,42.38768],[-93.22469,42.38351],[-93.21635,42.38351],[-93.21635,42.37934],[-93.21218,42.37934],[-93.21218,42.37518],[-93.20802,42.37518],[-93.20802,42.37101],[-93.20385,42.37101],[-93.20385,42.36684],[-93.19968,42.36684],[-93.19968,42.36268],[-93.19552,42.36268],[-93.19552,42.35851],[-93.18718,42.35851],[-93.18718,42.35434],[-93.18302,42.35434],[-93.18302,42.35017],[-93.17468,42.35017],[-93.17468,42.34601],[-93.17051,42.34601],[-93.17051,42.35017],[-93.16635,42.35017],[-93.16635,42.34601],[-93.15385,42.34601],[-93.15385,42.34184],[-93.14968,42.34184],[-93.14968,42.33767],[-93.14135,42.33767],[-93.14135,42.34184],[-93.12884,42.34184],[-93.12884,42.33767],[-93.12468,42.33767],[-93.12468,42.34184],[-93.12051,42.34184],[-93.12051,42.33767],[-93.11634,42.33767],[-93.11634,42.34184],[-93.10801,42.34184],[-93.10801,42.34601],[-93.10384,42.34601],[-93.10384,42.37518],[-93.11218,42.37518],[-93.11218,42.37934],[-93.11634,42.37934],[-93.11634,42.38768],[-93.12051,42.38768],[-93.12051,42.40435],[-93.11634,42.40435],[-93.11634,42.41685],[-93.11218,42.41685],[-93.11218,42.42101],[-93.10801,42.42101],[-93.10801,42.42518],[-93.09968,42.42518],[-93.09968,42.42935],[-93.09551,42.42935],[-93.09551,42.43351],[-93.09134,42.43351],[-93.09134,42.44185],[-93.11218,42.44185],[-93.11218,42.43768],[-93.12468,42.43768],[-93.12468,42.43351],[-93.13301,42.43351],[-93.13301,42.42935],[-93.13718,42.42935],[-93.13718,42.43351],[-93.14135,42.43351],[-93.14135,42.42101],[-93.14551,42.42101],[-93.14551,42.42518],[-93.14968,42.42518],[-93.14968,42.42101],[-93.15385,42.42101],[-93.15385,42.42518],[-93.16635,42.42518],[-93.16635,42.43768],[-93.17051,42.43768],[-93.17051,42.44185],[-93.17468,42.44185],[-93.17468,42.45018],[-93.19552,42.45018],[-93.19552,42.45852],[-93.20385,42.45852],[-93.20385,42.46685],[-93.21218,42.46685],[-93.21218,42.47102],[-93.21635,42.47102],[-93.21635,42.48352],[-93.22885,42.48352],[-93.22885,42.48769],[-93.25802,42.48769],[-93.25802,42.49185],[-93.26219,42.49185],[-93.26219,42.49602],[-93.27052,42.49602],[-93.27052,42.50019],[-93.27469,42.50019],[-93.27469,42.50435],[-93.27886,42.50435],[-93.27886,42.50852],[-93.29969,42.50852],[-93.29969,42.51269],[-93.30803,42.51269]]]}}]}