{"type":"FeatureCollection","features":[{"type":"Feature","properties":{},"geometry":{"type":"Polygon","coordinates":[[[-91.98709,41.4501],[-91.98709,41.44594],[-92.02042,41.44594],[-92.02042,41.44177],[-92.02459,41.44177],[-92.02459,41.4376],[-92.04126,41.4376],[-92.04126,41.43343],[-92.05793,41.43343],[-92.05793,41.4251],[-92.05376,41.4251],[-92.05376,41.41677],[-92.04126,41.41677],[-92.04126,41.4126],[-92.03709,41.4126],[-92.03709,41.40427],[-92.03292,41.40427],[-92.03292,41.39593],[-92.02042,41.39593],[-92.02042,41.39176],[-92.01209,41.39176],[-92.01209,41.3876],[-91.99959,41.3876],[-91.99959,41.38343],[-91.99542,41.38343],[-91.99542,41.3751],[-91.99125,41.3751],[-91.99125,41.37093],[-91.97875,41.37093],[-91.97875,41.3751],[-91.97459,41.3751],[-91.97459,41.37093],[-91.95375,41.37093],[-91.95375,41.36676],[-91.94958,41.36676],[-91.94958,41.3626],[-91.94125,41.3626],[-91.94125,41.36676],[-91.92458,41.36676],[-91.92458,41.3626],[-91.92041,41.3626],[-91.92041,41.36676],[-91.90791,41.36676],[-91.90791,41.3626],[-91.89958,41.3626],[-91.89958,41.35843],[-91.88291,41.35843],[-91.88291,41.35426],[-91.86624,41.35426],[-91.86624,41.33343],[-91.85791,41.33343],[-91.85791,41.32926],[-91.84541,41.32926],[-91.84541,41.32509],[-91.83707,41.32509],[-91.83707,41.32093],[-91.82874,41.32093],[-91.82874,41.31676],[-91.82041,41.31676],[-91.82041,41.30842],[-91.80791,41.30842],[-91.80791,41.30426],[-91.77874,41.30426],[-91.77874,41.30009],[-91.7704,41.30009],[-91.7704,41.29592],[-91.76624,41.29592],[-91.76624,41.29176],[-91.76207,41.29176],[-91.76207,41.28342],[-91.75373,41.28342],[-91.75373,41.27926],[-91.74123,41.27926],[-91.74123,41.27509],[-91.7329,41.27509],[-91.7329,41.27092],[-91.7204,41.27092],[-91.7204,41.28342],[-91.71623,41.28342],[-91.71623,41.29176],[-91.71206,41.29176],[-91.71206,41.29592],[-91.71623,41.29592],[-91.71623,41.30009],[-91.69956,41.30009],[-91.69956,41.30426],[-91.69123,41.30426],[-91.69123,41.32093],[-91.70373,41.32093],[-91.70373,41.32509],[-91.7079,41.32509],[-91.7079,41.32926],[-91.71206,41.32926],[-91.71206,41.33759],[-91.7204,41.33759],[-91.7204,41.34593],[-91.72457,41.34593],[-91.72457,41.35009],[-91.7454,41.35009],[-91.7454,41.35426],[-91.75373,41.35426],[-91.75373,41.3751],[-91.74957,41.3751],[-91.74957,41.3876],[-91.75373,41.3876],[-91.75373,41.39593],[-91.7579,41.39593],[-91.7579,41.40427],[-91.76624,41.40427],[-91.76624,41.40843],[-91.7704,41.40843],[-91.7704,41.4126],[-91.79541,41.4126],[-91.79541,41.40843],[-91.79957,41.40843],[-91.79957,41.41677],[-91.82041,41.41677],[-91.82041,41.4251],[-91.82457,41.4251],[-91.82457,41.43343],[-91.83707,41.43343],[-91.83707,41.4251],[-91.85374,41.4251],[-91.85374,41.42927],[-91.85791,41.42927],[-91.85791,41.43343],[-91.89541,41.43343],[-91.89541,41.4376],[-91.92458,41.4376],[-91.92458,41.43343],[-91.92875,41.43343],[-91.92875,41.42927],[-91.94125,41.42927],[-91.94125,41.43343],[-91.94958,41.43343],[-91.94958,41.42927],[-91.97042,41.42927],[-91.97042,41.43343],[-91.97459,41.43343],[-91.97459,41.44177],[-91.97875,41.44177],[-91.97875,41.44594],[-91.98292,41.44594],[-91.98292,41.4501],[-91.98709,41.4501]]]}}]}