{"type":"FeatureCollection","features":[{"type":"Feature","properties":{},"geometry":{"type":"Polygon","coordinates":[[[-91.94542,42.46268],[-91.94542,42.45852],[-91.94958,42.45852],[-91.94958,42.44185],[-91.94542,42.44185],[-91.94542,42.43351],[-91.94958,42.43351],[-91.94958,42.42518],[-91.94542,42.42518],[-91.94542,42.42101],[-91.93708,42.42101],[-91.93708,42.41685],[-91.92875,42.41685],[-91.92875,42.41268],[-91.92458,42.41268],[-91.92458,42.40851],[-91.91625,42.40851],[-91.91625,42.40435],[-91.92041,42.40435],[-91.92041,42.40018],[-91.92458,42.40018],[-91.92458,42.38351],[-91.92875,42.38351],[-91.92875,42.37934],[-91.93708,42.37934],[-91.93708,42.37101],[-91.94125,42.37101],[-91.94125,42.35851],[-91.94958,42.35851],[-91.94958,42.35017],[-91.95375,42.35017],[-91.95375,42.34601],[-91.95792,42.34601],[-91.95792,42.34184],[-91.96209,42.34184],[-91.96209,42.33767],[-91.96625,42.33767],[-91.96625,42.33351],[-91.97042,42.33351],[-91.97042,42.32934],[-91.97459,42.32934],[-91.97459,42.32517],[-91.97875,42.32517],[-91.97875,42.31684],[-91.98292,42.31684],[-91.98292,42.30434],[-91.97459,42.30434],[-91.97459,42.30017],[-91.96625,42.30017],[-91.96625,42.296],[-91.96209,42.296],[-91.96209,42.29184],[-91.94125,42.29184],[-91.94125,42.296],[-91.93708,42.296],[-91.93708,42.30017],[-91.93292,42.30017],[-91.93292,42.30434],[-91.91625,42.30434],[-91.91625,42.30017],[-91.88708,42.30017],[-91.88708,42.30434],[-91.88291,42.30434],[-91.88291,42.3085],[-91.87874,42.3085],[-91.87874,42.31684],[-91.87041,42.31684],[-91.87041,42.32101],[-91.85791,42.32101],[-91.85791,42.34601],[-91.86208,42.34601],[-91.86208,42.35017],[-91.85791,42.35017],[-91.85791,42.35851],[-91.85374,42.35851],[-91.85374,42.36268],[-91.84958,42.36268],[-91.84958,42.37101],[-91.84541,42.37101],[-91.84541,42.40435],[-91.85374,42.40435],[-91.85374,42.40851],[-91.85791,42.40851],[-91.85791,42.41268],[-91.87041,42.41268],[-91.87041,42.42935],[-91.87458,42.42935],[-91.87458,42.43351],[-91.87874,42.43351],[-91.87874,42.43768],[-91.89125,42.43768],[-91.89125,42.44602],[-91.91208,42.44602],[-91.91208,42.45018],[-91.92875,42.45018],[-91.92875,42.45435],[-91.93292,42.45435],[-91.93292,42.45852],[-91.94125,42.45852],[-91.94125,42.46268],[-91.94542,42.46268]]]}}]}