{"type":"FeatureCollection","features":[{"type":"Feature","properties":{},"geometry":{"type":"Polygon","coordinates":[[[-91.8007,41.69708],[-91.8016,41.70032],[-91.80437,41.70113],[-91.81273,41.69765],[-91.81657,41.69974],[-91.82416,41.7001],[-91.83071,41.69864],[-91.83599,41.69937],[-91.83822,41.69755],[-91.8427,41.69856],[-91.85191,41.69419],[-91.85134,41.69228],[-91.85407,41.68954],[-91.85439,41.68647],[-91.86462,41.68504],[-91.8683,41.68226],[-91.86783,41.68115],[-91.87471,41.6785],[-91.88804,41.68241],[-91.89782,41.67916],[-91.90736,41.68173],[-91.91126,41.67929],[-91.92389,41.68092],[-91.92437,41.67814],[-91.93161,41.67615],[-91.94481,41.67762],[-91.95012,41.67333],[-91.95539,41.67286],[-91.96961,41.67967],[-91.97096,41.68159],[-91.96784,41.69608],[-91.96297,41.69588],[-91.95986,41.69761],[-91.96635,41.70362],[-91.97951,41.70728],[-91.98297,41.70644],[-91.98516,41.70365],[-91.98929,41.70584],[-91.99382,41.70583],[-92.00354,41.70273],[-92.00883,41.70507],[-92.01145,41.70447],[-92.01846,41.70883],[-92.01125,41.71262],[-92.01181,41.72141],[-92.00829,41.72348],[-92.00687,41.72725],[-92.00067,41.7276],[-91.98802,41.73744],[-91.98839,41.74074],[-91.99275,41.74491],[-91.98961,41.75026],[-91.99225,41.75161],[-91.99065,41.7529],[-91.99067,41.75627],[-91.98914,41.75756],[-91.98516,41.75717],[-91.97895,41.76395],[-91.97438,41.76289],[-91.96867,41.76477],[-91.96636,41.76785],[-91.95633,41.76464],[-91.9432,41.76578],[-91.9389,41.76174],[-91.9308,41.7617],[-91.92364,41.75792],[-91.92021,41.75954],[-91.91542,41.75763],[-91.91344,41.75906],[-91.89269,41.75237],[-91.88501,41.75576],[-91.87933,41.75504],[-91.86989,41.75743],[-91.8644,41.7571],[-91.85721,41.7591],[-91.85204,41.76285],[-91.84699,41.76245],[-91.84589,41.76011],[-91.84388,41.75966],[-91.8332,41.75938],[-91.83055,41.75726],[-91.82001,41.75728],[-91.81817,41.75427],[-91.80882,41.75101],[-91.80432,41.74604],[-91.78854,41.74839],[-91.78355,41.74756],[-91.78115,41.74495],[-91.77411,41.7482],[-91.7687,41.74765],[-91.76481,41.74984],[-91.76019,41.74742],[-91.75213,41.74889],[-91.74309,41.7451],[-91.72679,41.74413],[-91.72482,41.74342],[-91.72557,41.73784],[-91.72366,41.73578],[-91.72566,41.73348],[-91.7235,41.72669],[-91.72473,41.72385],[-91.72119,41.71755],[-91.72292,41.71463],[-91.7209,41.71223],[-91.70988,41.7083],[-91.70898,41.70266],[-91.71366,41.69674],[-91.71589,41.69628],[-91.72125,41.70025],[-91.72401,41.70029],[-91.7243,41.70231],[-91.72795,41.70194],[-91.73273,41.70489],[-91.73591,41.70306],[-91.7447,41.70355],[-91.74905,41.69851],[-91.75556,41.69961],[-91.76042,41.69602],[-91.77131,41.69789],[-91.7791,41.69409],[-91.78154,41.69711],[-91.78494,41.69521],[-91.7892,41.69601],[-91.79,41.69377],[-91.79248,41.69315],[-91.8007,41.69708]]]}}]}