{"type":"FeatureCollection","features":[{"type":"Feature","properties":{},"geometry":{"type":"Polygon","coordinates":[[[-93.32469,41.64178],[-93.32469,41.63762],[-93.33303,41.63762],[-93.33303,41.63345],[-93.33719,41.63345],[-93.33719,41.62928],[-93.34136,41.62928],[-93.34136,41.62512],[-93.34553,41.62512],[-93.34553,41.62095],[-93.3497,41.62095],[-93.3497,41.61678],[-93.34136,41.61678],[-93.34136,41.61262],[-93.33719,41.61262],[-93.33719,41.60845],[-93.32469,41.60845],[-93.32469,41.60428],[-93.31636,41.60428],[-93.31636,41.58761],[-93.30386,41.58761],[-93.30386,41.59595],[-93.29969,41.59595],[-93.29969,41.60011],[-93.29552,41.60011],[-93.29552,41.60428],[-93.29136,41.60428],[-93.29136,41.60845],[-93.28302,41.60845],[-93.28302,41.61262],[-93.27886,41.61262],[-93.27886,41.61678],[-93.27469,41.61678],[-93.27469,41.62095],[-93.27886,41.62095],[-93.27886,41.62512],[-93.29136,41.62512],[-93.29136,41.63345],[-93.29969,41.63345],[-93.29969,41.63762],[-93.30803,41.63762],[-93.30803,41.64178],[-93.32469,41.64178]]]}}]}