{"type":"FeatureCollection","features":[{"type":"Feature","properties":{},"geometry":{"type":"Polygon","coordinates":[[[-96.31742,42.55553],[-96.32262,42.55862],[-96.32984,42.56009],[-96.32815,42.56242],[-96.32939,42.56527],[-96.32716,42.56909],[-96.3291,42.57243],[-96.32735,42.57958],[-96.33057,42.58119],[-96.32841,42.58354],[-96.3332,42.58873],[-96.33229,42.59135],[-96.3354,42.59606],[-96.33747,42.59751],[-96.34519,42.59722],[-96.34606,42.60053],[-96.34867,42.60269],[-96.34691,42.60631],[-96.34909,42.60767],[-96.34637,42.61144],[-96.34801,42.61372],[-96.34497,42.61672],[-96.34709,42.619],[-96.34471,42.62325],[-96.3427,42.6237],[-96.33932,42.63161],[-96.33727,42.63267],[-96.33911,42.63637],[-96.33735,42.63976],[-96.3324,42.64108],[-96.33192,42.65266],[-96.32964,42.65362],[-96.33203,42.65743],[-96.32952,42.66196],[-96.33322,42.66501],[-96.33321,42.6682],[-96.32994,42.66948],[-96.33301,42.6727],[-96.33101,42.67601],[-96.3257,42.67585],[-96.3246,42.67806],[-96.32617,42.68433],[-96.33586,42.68935],[-96.33377,42.69268],[-96.33611,42.69575],[-96.33264,42.69878],[-96.3345,42.70125],[-96.33508,42.70715],[-96.33377,42.70873],[-96.32696,42.70812],[-96.32892,42.7184],[-96.32576,42.71912],[-96.32793,42.72215],[-96.32355,42.72486],[-96.32625,42.72768],[-96.32364,42.73187],[-96.3206,42.73231],[-96.32543,42.73767],[-96.32454,42.73937],[-96.31964,42.73912],[-96.3139,42.74151],[-96.31782,42.74552],[-96.31848,42.75105],[-96.3174,42.75315],[-96.31501,42.75352],[-96.31702,42.75639],[-96.31359,42.75919],[-96.31467,42.76057],[-96.31156,42.76253],[-96.31546,42.76732],[-96.31916,42.76931],[-96.32238,42.76873],[-96.33213,42.77503],[-96.33584,42.77932],[-96.33461,42.78239],[-96.3391,42.78473],[-96.34486,42.78368],[-96.34486,42.78534],[-96.35072,42.7912],[-96.34785,42.79318],[-96.35299,42.79692],[-96.34968,42.79865],[-96.34869,42.80158],[-96.35084,42.80307],[-96.35103,42.80524],[-96.34676,42.80654],[-96.34651,42.81044],[-96.33482,42.81119],[-96.33271,42.81528],[-96.33042,42.81603],[-96.32953,42.81839],[-96.3332,42.82292],[-96.33013,42.82367],[-96.32765,42.82911],[-96.31911,42.82968],[-96.31722,42.83189],[-96.31092,42.82992],[-96.30762,42.833],[-96.3108,42.83493],[-96.31076,42.83645],[-96.30856,42.83699],[-96.31076,42.83803],[-96.30935,42.84574],[-96.3157,42.8498],[-96.31675,42.85594],[-96.32248,42.86019],[-96.3271,42.86082],[-96.32634,42.86486],[-96.32986,42.86786],[-96.33806,42.86998],[-96.33897,42.87369],[-96.33141,42.87642],[-96.33338,42.88033],[-96.33111,42.88288],[-96.33128,42.88545],[-96.33347,42.88726],[-96.33188,42.89013],[-96.32913,42.8902],[-96.32996,42.89294],[-96.32607,42.89249],[-96.32476,42.89447],[-96.32283,42.8943],[-96.32305,42.90176],[-96.3165,42.90143],[-96.31061,42.90511],[-96.31077,42.90689],[-96.30824,42.9086],[-96.30923,42.91058],[-96.30065,42.9132],[-96.29405,42.91255],[-96.29261,42.91698],[-96.28187,42.918],[-96.2785,42.92123],[-96.27052,42.92356],[-96.27017,42.92534],[-96.27395,42.93001],[-96.27356,42.9354],[-96.27611,42.93699],[-96.27781,42.94126],[-96.27484,42.94549],[-96.27611,42.94842],[-96.28443,42.95333],[-96.28263,42.95571],[-96.28415,42.95899],[-96.27918,42.96142],[-96.28195,42.96436],[-96.28092,42.96544],[-96.26861,42.96962],[-96.27029,42.97191],[-96.26616,42.9743],[-96.26637,42.9768],[-96.25749,42.97828],[-96.25734,42.98184],[-96.25486,42.98328],[-96.25956,42.98536],[-96.25987,42.9918],[-96.26442,42.99194],[-96.26654,42.99662],[-96.2636,43.00038],[-96.257,43.00305],[-96.2577,43.00738],[-96.25438,43.00991],[-96.24848,43.01101],[-96.24254,43.01009],[-96.24118,43.01201],[-96.24198,43.01703],[-96.23628,43.01833],[-96.23667,43.02044],[-96.23156,43.02394],[-96.22289,43.02329],[-96.21636,43.03807],[-96.21746,43.04087],[-96.22385,43.04439],[-96.22286,43.05001],[-96.22527,43.0587],[-96.21372,43.06259],[-96.20925,43.06724],[-96.20367,43.06776],[-96.19809,43.07471],[-96.19312,43.07397],[-96.18945,43.07732],[-96.17944,43.07331],[-96.17818,43.07559],[-96.17595,43.07556],[-96.17527,43.07907],[-96.16802,43.08385],[-96.16242,43.08354],[-96.16388,43.08679],[-96.16207,43.08945],[-96.16499,43.09183],[-96.16417,43.09294],[-96.16518,43.09429],[-96.17221,43.09496],[-96.17082,43.10063],[-96.17841,43.10661],[-96.17933,43.109],[-96.17807,43.11065],[-96.18467,43.11716],[-96.17961,43.12504],[-96.17459,43.12611],[-96.17242,43.12901],[-96.17859,43.13134],[-96.17902,43.13312],[-96.16543,43.14593],[-96.16096,43.14742],[-96.15406,43.15365],[-96.16723,43.16668],[-96.17412,43.16786],[-96.17487,43.17082],[-96.16987,43.17152],[-96.16424,43.17487],[-96.15903,43.17289],[-96.1564,43.17372],[-96.15078,43.17745],[-96.14678,43.1837],[-96.14243,43.18495],[-96.13733,43.1894],[-96.13052,43.18892],[-96.12776,43.1905],[-96.12606,43.19589],[-96.12035,43.19839],[-96.10629,43.19184],[-96.10759,43.19872],[-96.10037,43.20582],[-96.0952,43.20591],[-96.09264,43.20294],[-96.08286,43.20411],[-96.0827,43.21073],[-96.07347,43.21483],[-96.07219,43.21793],[-96.0649,43.22036],[-96.06301,43.21759],[-96.054,43.21632],[-96.04806,43.22089],[-96.05003,43.22788],[-96.03753,43.23058],[-96.02651,43.22917],[-96.01046,43.21679],[-96.00525,43.2151],[-96.0039,43.21392],[-96.00393,43.20937],[-95.99783,43.20605],[-95.99054,43.20451],[-95.98779,43.1971],[-95.98591,43.19577],[-95.97344,43.1955],[-95.96818,43.19107],[-95.965,43.19303],[-95.95737,43.19359],[-95.95307,43.19591],[-95.94912,43.20057],[-95.9424,43.1996],[-95.93592,43.20232],[-95.93525,43.2096],[-95.91781,43.20798],[-95.91464,43.20463],[-95.91411,43.20019],[-95.89852,43.19883],[-95.89815,43.20313],[-95.88981,43.20883],[-95.89405,43.21548],[-95.89251,43.21939],[-95.87851,43.22769],[-95.86954,43.22935],[-95.86654,43.23749],[-95.86264,43.23687],[-95.85469,43.23924],[-95.85205,43.245],[-95.84833,43.24659],[-95.84637,43.25057],[-95.83833,43.25352],[-95.82861,43.26162],[-95.8204,43.26289],[-95.81313,43.26817],[-95.80075,43.26588],[-95.78669,43.26849],[-95.77786,43.26829],[-95.77154,43.27096],[-95.76768,43.2704],[-95.75384,43.27519],[-95.75083,43.27977],[-95.74216,43.27901],[-95.73266,43.28153],[-95.72482,43.28731],[-95.72068,43.29402],[-95.71231,43.29763],[-95.69945,43.29912],[-95.69765,43.30031],[-95.69903,43.30337],[-95.69629,43.3072],[-95.68428,43.31375],[-95.66757,43.30611],[-95.6624,43.30536],[-95.65384,43.30722],[-95.63609,43.29534],[-95.60973,43.28775],[-95.6116,43.28454],[-95.60954,43.2813],[-95.61049,43.27734],[-95.60556,43.27307],[-95.60766,43.27095],[-95.60787,43.26507],[-95.60321,43.25845],[-95.60263,43.25211],[-95.59505,43.24584],[-95.5948,43.23613],[-95.59224,43.23048],[-95.59463,43.22685],[-95.58753,43.21004],[-95.59036,43.20077],[-95.5935,43.19651],[-95.59272,43.19271],[-95.59748,43.189],[-95.594,43.18583],[-95.59298,43.18264],[-95.59702,43.17488],[-95.60379,43.17437],[-95.60459,43.17127],[-95.61595,43.17118],[-95.61274,43.15528],[-95.62957,43.14506],[-95.63546,43.14447],[-95.63651,43.14061],[-95.64116,43.14454],[-95.64471,43.14517],[-95.65155,43.14498],[-95.65489,43.14296],[-95.65713,43.1446],[-95.67208,43.1442],[-95.67738,43.14618],[-95.69026,43.14317],[-95.69385,43.14092],[-95.69974,43.1406],[-95.70641,43.13558],[-95.71107,43.13525],[-95.73216,43.13896],[-95.73376,43.14094],[-95.73317,43.14347],[-95.73637,43.14679],[-95.74229,43.14962],[-95.75456,43.15178],[-95.76048,43.14661],[-95.75846,43.14294],[-95.76265,43.13976],[-95.77258,43.13635],[-95.77148,43.13367],[-95.76862,43.13307],[-95.76453,43.12787],[-95.76557,43.12667],[-95.76171,43.12625],[-95.76023,43.12329],[-95.75504,43.1206],[-95.75638,43.11607],[-95.74821,43.11025],[-95.74748,43.10757],[-95.74305,43.1038],[-95.74472,43.09721],[-95.74976,43.09065],[-95.76037,43.08685],[-95.77322,43.07625],[-95.77091,43.07207],[-95.77191,43.07011],[-95.78262,43.0631],[-95.78118,43.05829],[-95.78268,43.04626],[-95.79165,43.03462],[-95.79419,43.03402],[-95.79092,43.02965],[-95.77961,43.0249],[-95.78429,43.0189],[-95.77687,43.01548],[-95.77614,43.01137],[-95.783,43.00557],[-95.80332,43.00791],[-95.81587,43.01435],[-95.82579,43.01438],[-95.83257,43.01048],[-95.83491,43.00336],[-95.83794,43.00057],[-95.83689,42.98995],[-95.8415,42.98632],[-95.84225,42.98278],[-95.82657,42.97683],[-95.82563,42.97234],[-95.82097,42.96783],[-95.82056,42.96412],[-95.81051,42.95889],[-95.81219,42.95331],[-95.82359,42.95416],[-95.82795,42.95277],[-95.82865,42.94978],[-95.82114,42.94743],[-95.82033,42.94271],[-95.81537,42.93822],[-95.8093,42.93655],[-95.81022,42.93409],[-95.80783,42.92813],[-95.80505,42.92612],[-95.80212,42.91967],[-95.79279,42.91585],[-95.78425,42.90683],[-95.78036,42.90594],[-95.77742,42.90057],[-95.78066,42.89622],[-95.78406,42.89336],[-95.79174,42.89164],[-95.79679,42.88601],[-95.80979,42.87979],[-95.82955,42.88346],[-95.83923,42.89253],[-95.85687,42.8879],[-95.8605,42.88488],[-95.86944,42.88485],[-95.87149,42.88312],[-95.87035,42.87792],[-95.87343,42.87174],[-95.87727,42.86863],[-95.88244,42.8677],[-95.88113,42.86238],[-95.88561,42.85997],[-95.88701,42.85722],[-95.88506,42.85201],[-95.88567,42.84878],[-95.88933,42.8479],[-95.89033,42.8455],[-95.89506,42.84323],[-95.89386,42.83985],[-95.89762,42.83119],[-95.90893,42.82576],[-95.9086,42.82229],[-95.91052,42.8183],[-95.91606,42.81562],[-95.91422,42.81293],[-95.91759,42.81067],[-95.91976,42.80488],[-95.92124,42.80434],[-95.92098,42.80208],[-95.92547,42.79979],[-95.92259,42.79628],[-95.92272,42.79414],[-95.92888,42.79558],[-95.93626,42.79503],[-95.94025,42.79744],[-95.94559,42.80409],[-95.9478,42.80409],[-95.9576,42.79646],[-95.95799,42.79165],[-95.96063,42.79094],[-95.96109,42.78154],[-95.96651,42.78136],[-95.96958,42.77951],[-95.97253,42.7794],[-95.97749,42.78213],[-95.9802,42.78058],[-95.99606,42.78009],[-96.00915,42.78578],[-96.01439,42.78088],[-96.01481,42.77704],[-96.02985,42.76651],[-96.02872,42.7642],[-96.03497,42.76176],[-96.03594,42.74987],[-96.0481,42.74449],[-96.05213,42.74644],[-96.058,42.74593],[-96.06049,42.743],[-96.06695,42.74246],[-96.0694,42.73949],[-96.07485,42.73825],[-96.07731,42.73529],[-96.08459,42.73147],[-96.08795,42.73224],[-96.09122,42.72741],[-96.09089,42.72547],[-96.09668,42.72005],[-96.09665,42.71828],[-96.09418,42.71652],[-96.09597,42.71322],[-96.10506,42.70998],[-96.11631,42.7102],[-96.12003,42.70736],[-96.12655,42.71035],[-96.13202,42.70422],[-96.13546,42.70268],[-96.13592,42.70073],[-96.14032,42.69976],[-96.14122,42.69486],[-96.14624,42.69353],[-96.14908,42.69468],[-96.15136,42.6934],[-96.15072,42.69131],[-96.1547,42.6896],[-96.16072,42.6963],[-96.16718,42.69862],[-96.17232,42.69488],[-96.1786,42.69472],[-96.17726,42.69233],[-96.18135,42.69095],[-96.18012,42.68931],[-96.18231,42.68781],[-96.18736,42.68618],[-96.18566,42.68282],[-96.1908,42.67953],[-96.18946,42.67806],[-96.1928,42.67457],[-96.19112,42.66959],[-96.19328,42.66743],[-96.19556,42.66781],[-96.19694,42.66394],[-96.20191,42.66219],[-96.20042,42.65943],[-96.20278,42.65872],[-96.20207,42.65696],[-96.20428,42.65492],[-96.20072,42.64951],[-96.20441,42.64804],[-96.20409,42.6465],[-96.20822,42.64552],[-96.20687,42.64316],[-96.20988,42.64143],[-96.20983,42.63997],[-96.20705,42.63662],[-96.21326,42.6332],[-96.21181,42.63156],[-96.2138,42.63016],[-96.21343,42.62821],[-96.21157,42.62643],[-96.21754,42.62134],[-96.21598,42.61966],[-96.21623,42.61621],[-96.21853,42.61522],[-96.21691,42.61306],[-96.22071,42.6054],[-96.22439,42.60272],[-96.22511,42.59976],[-96.22364,42.598],[-96.23327,42.59029],[-96.23328,42.58722],[-96.22953,42.58384],[-96.23385,42.58122],[-96.23408,42.57683],[-96.24007,42.57485],[-96.23971,42.57235],[-96.24337,42.57044],[-96.24033,42.56799],[-96.24447,42.56371],[-96.24355,42.56229],[-96.25252,42.56345],[-96.25627,42.56075],[-96.25807,42.5564],[-96.26228,42.55506],[-96.26623,42.55488],[-96.27777,42.55865],[-96.28079,42.55406],[-96.28632,42.5551],[-96.28991,42.55349],[-96.29643,42.55533],[-96.30077,42.55208],[-96.3066,42.55183],[-96.31742,42.55553]]]}}]}