{"type":"FeatureCollection","features":[{"type":"Feature","properties":{},"geometry":{"type":"Polygon","coordinates":[[[-95.90238,41.78725],[-95.90657,41.802],[-95.91217,41.81005],[-95.92344,41.81837],[-95.92343,41.82373],[-95.92156,41.82455],[-95.92235,41.83513],[-95.9306,41.83669],[-95.94085,41.83551],[-95.94883,41.84195],[-95.95725,41.84439],[-95.95633,41.8489],[-95.9536,41.85217],[-95.95545,41.86237],[-95.95323,41.86316],[-95.94943,41.8703],[-95.95392,41.87887],[-95.95237,41.88179],[-95.95388,41.88332],[-95.95242,41.88523],[-95.95382,41.88919],[-95.95254,41.89467],[-95.94936,41.89579],[-95.94556,41.90526],[-95.94373,41.90526],[-95.94302,41.91239],[-95.93749,41.91214],[-95.93577,41.91361],[-95.93681,41.91571],[-95.93185,41.9169],[-95.9237,41.91436],[-95.92024,41.92342],[-95.91312,41.92535],[-95.91525,41.92654],[-95.91712,41.93233],[-95.91085,41.93437],[-95.91172,41.93942],[-95.91012,41.93878],[-95.90873,41.94144],[-95.9115,41.94647],[-95.91018,41.94814],[-95.9119,41.95363],[-95.91044,41.9561],[-95.91407,41.96034],[-95.91464,41.96448],[-95.90841,41.96494],[-95.90676,41.96689],[-95.90686,41.97147],[-95.90504,41.97254],[-95.89661,41.96768],[-95.88937,41.96797],[-95.88788,41.96935],[-95.88841,41.97254],[-95.88411,41.97507],[-95.88469,41.97688],[-95.8824,41.97881],[-95.87994,41.97925],[-95.87368,41.97627],[-95.87276,41.97849],[-95.86821,41.98002],[-95.86419,41.98377],[-95.86674,41.98646],[-95.86736,41.9901],[-95.86236,41.98994],[-95.85837,41.99222],[-95.85781,41.99539],[-95.85942,41.99771],[-95.85285,42.00226],[-95.85325,42.00649],[-95.84883,42.00789],[-95.84809,42.0103],[-95.8519,42.01437],[-95.84999,42.01558],[-95.85005,42.01892],[-95.84754,42.01952],[-95.8501,42.02251],[-95.84367,42.02902],[-95.844,42.03102],[-95.83561,42.03772],[-95.83842,42.04203],[-95.83471,42.04485],[-95.83596,42.05079],[-95.83385,42.054],[-95.83157,42.054],[-95.83506,42.05735],[-95.83474,42.0592],[-95.83284,42.06255],[-95.8299,42.06242],[-95.82935,42.06848],[-95.82627,42.07014],[-95.82642,42.07277],[-95.82162,42.07409],[-95.82056,42.07812],[-95.81698,42.07533],[-95.81326,42.07731],[-95.81419,42.08095],[-95.80777,42.08293],[-95.80667,42.08669],[-95.79426,42.08318],[-95.79196,42.08359],[-95.78914,42.08827],[-95.78106,42.08784],[-95.77773,42.0852],[-95.77154,42.08484],[-95.76734,42.08756],[-95.76611,42.09023],[-95.76357,42.08957],[-95.76225,42.09532],[-95.7639,42.10029],[-95.76113,42.10175],[-95.75987,42.10458],[-95.76095,42.10807],[-95.75326,42.11395],[-95.75431,42.12152],[-95.74988,42.12253],[-95.75036,42.12412],[-95.74555,42.12574],[-95.74809,42.13057],[-95.74331,42.13211],[-95.7426,42.13432],[-95.74559,42.1371],[-95.73584,42.14248],[-95.73452,42.14503],[-95.73556,42.14667],[-95.73038,42.1484],[-95.73332,42.15331],[-95.72923,42.15504],[-95.72675,42.15835],[-95.72293,42.16822],[-95.71359,42.16859],[-95.7059,42.17233],[-95.70824,42.17549],[-95.70375,42.17851],[-95.7044,42.18037],[-95.69745,42.18359],[-95.69796,42.18679],[-95.69523,42.18733],[-95.69594,42.19296],[-95.68803,42.19557],[-95.68532,42.19481],[-95.68201,42.1991],[-95.68258,42.20192],[-95.67788,42.20543],[-95.67081,42.2051],[-95.66429,42.20938],[-95.66154,42.2075],[-95.65554,42.21174],[-95.64919,42.21164],[-95.64658,42.21316],[-95.63971,42.21064],[-95.63733,42.21132],[-95.63745,42.21387],[-95.63145,42.21999],[-95.63026,42.22549],[-95.62676,42.22647],[-95.62336,42.23026],[-95.61949,42.2299],[-95.61873,42.23175],[-95.61584,42.23214],[-95.61703,42.23376],[-95.61143,42.24272],[-95.60684,42.24305],[-95.60483,42.24547],[-95.60165,42.24609],[-95.59216,42.24204],[-95.58758,42.24997],[-95.58429,42.25255],[-95.58514,42.25435],[-95.57713,42.25733],[-95.57559,42.25996],[-95.56937,42.25806],[-95.56604,42.26245],[-95.56129,42.2634],[-95.5563,42.26699],[-95.55759,42.26929],[-95.55208,42.27222],[-95.55401,42.27818],[-95.55261,42.27861],[-95.55231,42.28113],[-95.55457,42.28323],[-95.54816,42.28448],[-95.54323,42.28158],[-95.53407,42.28316],[-95.53311,42.28559],[-95.52851,42.28843],[-95.53181,42.29281],[-95.53142,42.29576],[-95.52631,42.2952],[-95.52411,42.29305],[-95.51384,42.29623],[-95.50948,42.29319],[-95.50304,42.29311],[-95.49297,42.28979],[-95.48568,42.29169],[-95.4846,42.2886],[-95.47658,42.28592],[-95.47164,42.28173],[-95.46268,42.28127],[-95.45552,42.27896],[-95.45335,42.28056],[-95.45244,42.28428],[-95.44708,42.28615],[-95.44687,42.28925],[-95.43765,42.29106],[-95.43601,42.29337],[-95.43729,42.29672],[-95.42848,42.29937],[-95.41351,42.29447],[-95.40615,42.29519],[-95.40502,42.29777],[-95.40033,42.29414],[-95.40144,42.28977],[-95.39824,42.28532],[-95.39999,42.28431],[-95.39788,42.28045],[-95.399,42.27804],[-95.39318,42.27345],[-95.38752,42.27455],[-95.38613,42.27634],[-95.38217,42.27715],[-95.37904,42.28078],[-95.37448,42.2811],[-95.37276,42.28328],[-95.36545,42.28347],[-95.36066,42.28528],[-95.35735,42.28357],[-95.35243,42.2827],[-95.3497,42.2843],[-95.34658,42.28169],[-95.34404,42.2826],[-95.33417,42.28041],[-95.32428,42.27356],[-95.32714,42.27111],[-95.32607,42.26965],[-95.3281,42.26428],[-95.32703,42.26159],[-95.34426,42.25873],[-95.34532,42.254],[-95.34855,42.25272],[-95.34821,42.25016],[-95.35143,42.24335],[-95.35402,42.24222],[-95.35116,42.23893],[-95.35335,42.23353],[-95.35601,42.23184],[-95.36053,42.2333],[-95.3643,42.22905],[-95.37787,42.22536],[-95.38044,42.21803],[-95.38416,42.21761],[-95.38052,42.21352],[-95.38501,42.20892],[-95.38574,42.20447],[-95.39646,42.20174],[-95.40483,42.19624],[-95.40756,42.19744],[-95.4135,42.19643],[-95.41321,42.19491],[-95.41675,42.1943],[-95.42024,42.19014],[-95.41832,42.18045],[-95.42181,42.17701],[-95.42469,42.17728],[-95.42849,42.17494],[-95.42791,42.1706],[-95.4303,42.16712],[-95.42532,42.16413],[-95.42523,42.16039],[-95.41541,42.15525],[-95.41922,42.15063],[-95.41624,42.14318],[-95.40897,42.13913],[-95.40898,42.13779],[-95.4134,42.1365],[-95.41213,42.13454],[-95.41448,42.13418],[-95.41476,42.13156],[-95.40911,42.12223],[-95.41158,42.1188],[-95.41142,42.11579],[-95.41854,42.11531],[-95.41831,42.11295],[-95.42345,42.11076],[-95.42223,42.10789],[-95.424,42.10244],[-95.42765,42.10081],[-95.43595,42.10116],[-95.43783,42.09419],[-95.44442,42.09419],[-95.44531,42.09274],[-95.45444,42.09061],[-95.45757,42.09213],[-95.46201,42.08809],[-95.46627,42.08831],[-95.47185,42.0828],[-95.48063,42.08364],[-95.48978,42.08127],[-95.48872,42.0759],[-95.49488,42.07465],[-95.4956,42.07141],[-95.49876,42.0716],[-95.50074,42.06917],[-95.50676,42.06716],[-95.51386,42.0578],[-95.51754,42.05685],[-95.51992,42.05188],[-95.52247,42.05269],[-95.52682,42.04973],[-95.52639,42.04713],[-95.52852,42.04557],[-95.52898,42.04238],[-95.53389,42.03691],[-95.53724,42.03821],[-95.53905,42.03653],[-95.54209,42.03656],[-95.54375,42.03279],[-95.5469,42.03467],[-95.5531,42.03099],[-95.55675,42.02666],[-95.56219,42.02966],[-95.5631,42.03175],[-95.56818,42.0317],[-95.56945,42.03344],[-95.57807,42.03169],[-95.58207,42.03412],[-95.58403,42.0375],[-95.58983,42.03985],[-95.59114,42.04247],[-95.59807,42.04249],[-95.60491,42.03811],[-95.61135,42.03754],[-95.61735,42.02745],[-95.62333,42.02674],[-95.62446,42.02165],[-95.62799,42.02038],[-95.62762,42.01684],[-95.62949,42.01567],[-95.64285,42.01359],[-95.64456,42.01446],[-95.64566,42.01286],[-95.65009,42.01506],[-95.65283,42.01472],[-95.65953,42.01064],[-95.66134,42.01317],[-95.66274,42.00959],[-95.66682,42.0113],[-95.6707,42.00289],[-95.67234,42.0014],[-95.67513,42.00328],[-95.67792,42.00105],[-95.67693,41.99899],[-95.67892,41.99819],[-95.67669,41.99567],[-95.67661,41.9907],[-95.6842,41.98608],[-95.68246,41.98369],[-95.68384,41.9822],[-95.68301,41.98077],[-95.68493,41.97905],[-95.6873,41.98038],[-95.68702,41.97729],[-95.69111,41.9731],[-95.69145,41.96685],[-95.69558,41.9657],[-95.6968,41.96779],[-95.69985,41.96445],[-95.6979,41.96141],[-95.70148,41.96109],[-95.70026,41.95681],[-95.70371,41.95345],[-95.69866,41.94966],[-95.70251,41.94659],[-95.70721,41.94784],[-95.70762,41.94437],[-95.70544,41.94174],[-95.70688,41.93765],[-95.70821,41.93746],[-95.70818,41.9347],[-95.71377,41.93569],[-95.71654,41.93447],[-95.71509,41.93271],[-95.71821,41.93097],[-95.7207,41.93231],[-95.72146,41.93608],[-95.72375,41.93591],[-95.72423,41.93363],[-95.72884,41.9298],[-95.72847,41.92795],[-95.73166,41.92828],[-95.73392,41.92616],[-95.73192,41.92086],[-95.73647,41.91921],[-95.73809,41.91662],[-95.74442,41.91626],[-95.7474,41.9187],[-95.74849,41.91736],[-95.74952,41.91432],[-95.74763,41.9127],[-95.74925,41.90905],[-95.7458,41.90688],[-95.74703,41.90475],[-95.74364,41.90161],[-95.74689,41.89918],[-95.74478,41.89357],[-95.74926,41.89193],[-95.74556,41.88828],[-95.7488,41.88747],[-95.75157,41.88412],[-95.75226,41.88224],[-95.74935,41.88031],[-95.75066,41.87691],[-95.75495,41.87412],[-95.75478,41.86741],[-95.75867,41.86789],[-95.76103,41.86644],[-95.76036,41.86323],[-95.76527,41.86283],[-95.76933,41.85536],[-95.77385,41.85349],[-95.77674,41.85413],[-95.778,41.8525],[-95.77711,41.85145],[-95.77926,41.85129],[-95.7813,41.84872],[-95.78476,41.84905],[-95.78727,41.85231],[-95.80281,41.85328],[-95.81715,41.84668],[-95.81823,41.84292],[-95.81484,41.83814],[-95.81971,41.83464],[-95.81934,41.83086],[-95.82371,41.83012],[-95.82331,41.82774],[-95.82521,41.82471],[-95.82423,41.81976],[-95.82924,41.81667],[-95.83239,41.81232],[-95.83728,41.811],[-95.83779,41.80769],[-95.84137,41.80722],[-95.84509,41.8038],[-95.84654,41.79937],[-95.85001,41.79873],[-95.85763,41.80638],[-95.86453,41.80867],[-95.86817,41.80733],[-95.86888,41.80363],[-95.874,41.80412],[-95.87535,41.79816],[-95.87782,41.79817],[-95.8833,41.79235],[-95.88705,41.79141],[-95.88893,41.78751],[-95.89174,41.78878],[-95.90238,41.78725]]]}}]}