{"type":"FeatureCollection","features":[{"type":"Feature","properties":{},"geometry":{"type":"Polygon","coordinates":[[[-94.94448,41.50372],[-94.95066,41.50735],[-94.95799,41.50747],[-94.96128,41.5052],[-94.96207,41.5008],[-94.96882,41.49936],[-94.97215,41.50495],[-94.97587,41.50662],[-94.97279,41.51786],[-94.97682,41.51882],[-94.97843,41.52104],[-94.97791,41.52335],[-94.97059,41.52849],[-94.97101,41.53149],[-94.9663,41.533],[-94.96474,41.5405],[-94.9603,41.54009],[-94.95479,41.54205],[-94.95634,41.54525],[-94.9537,41.54811],[-94.95418,41.55037],[-94.95141,41.55255],[-94.95155,41.55473],[-94.94885,41.55542],[-94.95085,41.55954],[-94.94525,41.58049],[-94.94737,41.58807],[-94.95168,41.58754],[-94.95636,41.59244],[-94.95083,41.59909],[-94.95225,41.60098],[-94.9521,41.60558],[-94.94307,41.60841],[-94.9421,41.61338],[-94.94405,41.61566],[-94.93805,41.61861],[-94.93738,41.62195],[-94.93919,41.62527],[-94.94465,41.62688],[-94.94422,41.62886],[-94.94573,41.62974],[-94.94466,41.63126],[-94.9471,41.63378],[-94.94821,41.63944],[-94.9596,41.64548],[-94.96247,41.6453],[-94.96358,41.64709],[-94.96342,41.65139],[-94.95685,41.65759],[-94.96038,41.66092],[-94.95765,41.66551],[-94.9497,41.66638],[-94.94798,41.66824],[-94.94972,41.67546],[-94.95254,41.67873],[-94.94806,41.68192],[-94.94509,41.68172],[-94.94121,41.684],[-94.9465,41.68861],[-94.94573,41.69238],[-94.94977,41.69372],[-94.94797,41.69859],[-94.95014,41.70523],[-94.95427,41.70877],[-94.95639,41.70845],[-94.95735,41.71091],[-94.9608,41.70963],[-94.96278,41.71138],[-94.96315,41.71401],[-94.96579,41.71584],[-94.96597,41.72203],[-94.97317,41.72716],[-94.97237,41.73044],[-94.96698,41.73354],[-94.96772,41.73651],[-94.9639,41.74268],[-94.96455,41.74486],[-94.97223,41.74726],[-94.97147,41.75025],[-94.97445,41.75328],[-94.97359,41.75643],[-94.97604,41.76016],[-94.97498,41.76265],[-94.96982,41.76306],[-94.96976,41.76708],[-94.9608,41.76955],[-94.95938,41.77595],[-94.94808,41.77693],[-94.94449,41.77921],[-94.94079,41.78374],[-94.9469,41.78835],[-94.94598,41.78989],[-94.93525,41.79489],[-94.93562,41.79717],[-94.93149,41.79853],[-94.92678,41.80317],[-94.92064,41.80169],[-94.91562,41.81249],[-94.91161,41.81299],[-94.92197,41.82034],[-94.91824,41.82343],[-94.92375,41.83111],[-94.92989,41.83376],[-94.92868,41.83888],[-94.93261,41.8432],[-94.93514,41.84374],[-94.93684,41.84713],[-94.94077,41.8474],[-94.94674,41.85195],[-94.94983,41.85159],[-94.95424,41.85705],[-94.95456,41.86027],[-94.957,41.86],[-94.96014,41.86247],[-94.95797,41.86485],[-94.96535,41.86867],[-94.96459,41.87054],[-94.97138,41.87515],[-94.9714,41.87811],[-94.97657,41.87847],[-94.979,41.88139],[-94.97625,41.88325],[-94.98323,41.89223],[-94.9827,41.89407],[-94.98928,41.89904],[-94.99524,41.90093],[-94.991,41.90776],[-94.99603,41.91236],[-94.97796,41.91904],[-94.97318,41.91773],[-94.97012,41.91919],[-94.96928,41.92233],[-94.9639,41.92426],[-94.95781,41.92412],[-94.95881,41.9281],[-94.95498,41.92947],[-94.94798,41.92682],[-94.94692,41.92449],[-94.94326,41.9229],[-94.9407,41.91799],[-94.93315,41.91634],[-94.92981,41.91373],[-94.92027,41.91202],[-94.91463,41.91425],[-94.91708,41.91655],[-94.91251,41.91946],[-94.90547,41.91756],[-94.90304,41.9132],[-94.89585,41.91315],[-94.89431,41.9093],[-94.89702,41.90806],[-94.89503,41.90632],[-94.89444,41.90264],[-94.88616,41.90053],[-94.8811,41.90176],[-94.86551,41.89344],[-94.85943,41.89301],[-94.85724,41.89109],[-94.85927,41.88806],[-94.85683,41.8837],[-94.85464,41.88378],[-94.84256,41.87594],[-94.84167,41.87341],[-94.83614,41.8715],[-94.829,41.85973],[-94.83085,41.85787],[-94.83001,41.85459],[-94.83184,41.84768],[-94.8276,41.84529],[-94.82472,41.83858],[-94.81473,41.83025],[-94.81266,41.8271],[-94.81242,41.82249],[-94.80724,41.82059],[-94.80025,41.82471],[-94.79591,41.82298],[-94.79474,41.81973],[-94.7991,41.81675],[-94.8003,41.81434],[-94.79955,41.81085],[-94.79635,41.80657],[-94.78995,41.80252],[-94.78987,41.8006],[-94.78624,41.79705],[-94.78825,41.79499],[-94.78312,41.79278],[-94.78233,41.79041],[-94.7759,41.78515],[-94.76907,41.78216],[-94.76914,41.77999],[-94.7711,41.77957],[-94.77249,41.77646],[-94.77191,41.77498],[-94.7596,41.771],[-94.75493,41.77255],[-94.7514,41.76754],[-94.74855,41.76629],[-94.74526,41.75973],[-94.74787,41.75751],[-94.7469,41.75433],[-94.74394,41.75194],[-94.74708,41.74681],[-94.74063,41.74297],[-94.73446,41.74322],[-94.73527,41.73824],[-94.73237,41.73344],[-94.73373,41.72926],[-94.72799,41.7214],[-94.72237,41.72153],[-94.72088,41.71972],[-94.72138,41.71364],[-94.7155,41.71058],[-94.71668,41.70914],[-94.7153,41.70656],[-94.71736,41.70404],[-94.71686,41.70232],[-94.71277,41.701],[-94.71258,41.69827],[-94.71342,41.69238],[-94.71653,41.69253],[-94.71755,41.69015],[-94.72381,41.69126],[-94.72533,41.68915],[-94.73219,41.69082],[-94.73429,41.68845],[-94.74478,41.68412],[-94.74743,41.67939],[-94.75053,41.67732],[-94.75329,41.67762],[-94.75508,41.67349],[-94.75954,41.67165],[-94.75865,41.66935],[-94.76512,41.66393],[-94.75805,41.65935],[-94.75618,41.65634],[-94.75705,41.65469],[-94.75455,41.64587],[-94.75702,41.64275],[-94.75932,41.64142],[-94.77178,41.64412],[-94.7734,41.64092],[-94.77881,41.63995],[-94.78374,41.63649],[-94.7856,41.63356],[-94.78286,41.62415],[-94.79031,41.62224],[-94.78875,41.61965],[-94.79152,41.61746],[-94.79986,41.61749],[-94.80293,41.61453],[-94.80398,41.61059],[-94.80878,41.6079],[-94.80969,41.60376],[-94.81227,41.60137],[-94.81775,41.6007],[-94.81902,41.59672],[-94.82544,41.59452],[-94.82401,41.59317],[-94.82589,41.58943],[-94.83098,41.58814],[-94.83147,41.58064],[-94.83391,41.5792],[-94.83798,41.57995],[-94.84056,41.57561],[-94.8479,41.57382],[-94.84637,41.56841],[-94.84997,41.56663],[-94.85058,41.56473],[-94.84778,41.5588],[-94.85406,41.55135],[-94.85951,41.55086],[-94.86106,41.54764],[-94.86464,41.54689],[-94.86528,41.54032],[-94.87067,41.53273],[-94.87558,41.5304],[-94.8769,41.52796],[-94.88811,41.52913],[-94.89147,41.52701],[-94.89295,41.5214],[-94.89667,41.52235],[-94.90059,41.52101],[-94.90803,41.51412],[-94.92204,41.51281],[-94.92928,41.50712],[-94.93219,41.50683],[-94.93304,41.50459],[-94.94448,41.50372]]]}}]}