{"type":"FeatureCollection","features":[{"type":"Feature","properties":{},"geometry":{"type":"Polygon","coordinates":[[[-91.41621,41.75013],[-91.41621,41.74179],[-91.42037,41.74179],[-91.42037,41.73346],[-91.42454,41.73346],[-91.42454,41.72512],[-91.42871,41.72512],[-91.42871,41.72096],[-91.43288,41.72096],[-91.43288,41.71679],[-91.42871,41.71679],[-91.42871,41.70846],[-91.42454,41.70846],[-91.42454,41.70429],[-91.41621,41.70429],[-91.41621,41.70846],[-91.39537,41.70846],[-91.39537,41.71679],[-91.38704,41.71679],[-91.38704,41.73346],[-91.39121,41.73346],[-91.39121,41.74179],[-91.39954,41.74179],[-91.39954,41.75013],[-91.41621,41.75013]]]}}]}