{"type":"FeatureCollection","features":[{"type":"Feature","properties":{},"geometry":{"type":"Polygon","coordinates":[[[-91.54298,41.69035],[-91.54872,41.69093],[-91.55043,41.69273],[-91.54969,41.69481],[-91.54536,41.69665],[-91.5437,41.70026],[-91.54612,41.70468],[-91.55078,41.70691],[-91.55125,41.71606],[-91.55388,41.72045],[-91.56649,41.72223],[-91.56492,41.72596],[-91.56115,41.72776],[-91.56263,41.73149],[-91.56931,41.73267],[-91.56952,41.73512],[-91.57787,41.73829],[-91.5808,41.73727],[-91.58434,41.73833],[-91.58699,41.74145],[-91.58511,41.74738],[-91.58628,41.74867],[-91.60393,41.75989],[-91.61363,41.75927],[-91.61219,41.75781],[-91.61706,41.75417],[-91.61946,41.74739],[-91.62286,41.74897],[-91.64292,41.75033],[-91.64363,41.7483],[-91.64089,41.74537],[-91.64844,41.74261],[-91.6746,41.74535],[-91.67677,41.74216],[-91.69092,41.7419],[-91.69676,41.73846],[-91.70668,41.74282],[-91.70845,41.74236],[-91.70941,41.73969],[-91.71134,41.73957],[-91.71889,41.74206],[-91.72251,41.74162],[-91.72679,41.74413],[-91.74309,41.7451],[-91.75213,41.74889],[-91.76019,41.74742],[-91.76481,41.74984],[-91.7687,41.74765],[-91.77411,41.7482],[-91.78115,41.74495],[-91.78355,41.74756],[-91.78854,41.74839],[-91.80432,41.74604],[-91.80882,41.75101],[-91.81817,41.75427],[-91.82001,41.75728],[-91.82548,41.7566],[-91.83055,41.75726],[-91.8332,41.75938],[-91.84388,41.75966],[-91.84941,41.76269],[-91.85204,41.76285],[-91.85721,41.7591],[-91.8644,41.7571],[-91.86989,41.75743],[-91.87933,41.75504],[-91.88501,41.75576],[-91.89269,41.75237],[-91.91344,41.75906],[-91.91542,41.75763],[-91.92021,41.75954],[-91.92364,41.75792],[-91.9308,41.7617],[-91.9389,41.76174],[-91.9432,41.76578],[-91.95633,41.76464],[-91.96636,41.76785],[-91.96867,41.76477],[-91.97438,41.76289],[-91.97895,41.76395],[-91.97666,41.76919],[-91.97831,41.77166],[-91.97727,41.77594],[-91.98271,41.77952],[-91.98309,41.78445],[-91.99067,41.78793],[-91.99506,41.78472],[-91.99701,41.777],[-91.98972,41.77142],[-91.98935,41.76866],[-91.99657,41.76616],[-91.99987,41.76702],[-92.00143,41.76519],[-91.98923,41.75853],[-91.99225,41.75161],[-91.98961,41.75026],[-91.99275,41.74491],[-91.9875,41.73879],[-91.99108,41.73417],[-91.9948,41.73293],[-92.00067,41.7276],[-92.00687,41.72725],[-92.00829,41.72348],[-92.01181,41.72141],[-92.01125,41.71262],[-92.01846,41.70883],[-92.02474,41.71064],[-92.0327,41.70766],[-92.0369,41.70851],[-92.03742,41.71077],[-92.0402,41.71184],[-92.03977,41.71464],[-92.04855,41.71982],[-92.05711,41.72225],[-92.05788,41.72534],[-92.06535,41.72387],[-92.06847,41.72613],[-92.07101,41.72522],[-92.08348,41.72907],[-92.08803,41.72263],[-92.09551,41.72948],[-92.09925,41.73021],[-92.0995,41.7324],[-92.10276,41.73465],[-92.10089,41.73711],[-92.10689,41.73971],[-92.10831,41.73666],[-92.11246,41.73576],[-92.1139,41.7277],[-92.12094,41.72517],[-92.12166,41.72245],[-92.12723,41.72191],[-92.13219,41.72463],[-92.13838,41.71877],[-92.14583,41.71857],[-92.14818,41.71987],[-92.14976,41.71779],[-92.14864,41.715],[-92.15425,41.71056],[-92.15633,41.70595],[-92.1667,41.70595],[-92.16773,41.70424],[-92.17502,41.70327],[-92.18538,41.70773],[-92.18641,41.71205],[-92.19073,41.71809],[-92.20406,41.71711],[-92.20547,41.71357],[-92.21345,41.71075],[-92.21839,41.70715],[-92.22443,41.70846],[-92.22622,41.70719],[-92.22617,41.70256],[-92.23121,41.69968],[-92.23212,41.69642],[-92.23636,41.69639],[-92.23617,41.69526],[-92.23966,41.694],[-92.2385,41.6924],[-92.23958,41.6914],[-92.25094,41.69061],[-92.25558,41.69476],[-92.26452,41.69611],[-92.27441,41.69369],[-92.27697,41.69047],[-92.28209,41.68907],[-92.28273,41.68695],[-92.2852,41.68583],[-92.2847,41.68236],[-92.29207,41.68127],[-92.29161,41.67641],[-92.29806,41.67144],[-92.30019,41.67149],[-92.30322,41.67506],[-92.31305,41.67651],[-92.31477,41.67902],[-92.31767,41.67937],[-92.32251,41.68407],[-92.32696,41.68569],[-92.34629,41.68594],[-92.34919,41.68349],[-92.35343,41.68334],[-92.35866,41.68752],[-92.36181,41.68493],[-92.36866,41.68688],[-92.37501,41.68464],[-92.37895,41.68632],[-92.37782,41.6894],[-92.38385,41.69234],[-92.3908,41.69045],[-92.4026,41.69289],[-92.40628,41.69138],[-92.41183,41.69507],[-92.44042,41.69931],[-92.45156,41.70406],[-92.45387,41.70107],[-92.45821,41.69961],[-92.45809,41.697],[-92.45611,41.6952],[-92.45947,41.69215],[-92.4712,41.68931],[-92.47393,41.68563],[-92.4954,41.69212],[-92.49889,41.68765],[-92.50835,41.68738],[-92.51137,41.68504],[-92.52148,41.68921],[-92.53055,41.68864],[-92.53749,41.6915],[-92.55811,41.68764],[-92.56313,41.69016],[-92.56636,41.68974],[-92.56946,41.69331],[-92.577,41.6959],[-92.59063,41.69611],[-92.59098,41.69898],[-92.60377,41.69644],[-92.62069,41.70238],[-92.62924,41.70243],[-92.63275,41.7073],[-92.62937,41.70911],[-92.63022,41.71142],[-92.64018,41.71852],[-92.64991,41.71969],[-92.65565,41.71436],[-92.65742,41.71661],[-92.66608,41.71651],[-92.66782,41.71747],[-92.67,41.7242],[-92.68533,41.72452],[-92.6879,41.72567],[-92.68693,41.72795],[-92.68799,41.72948],[-92.6991,41.73073],[-92.72391,41.73892],[-92.72731,41.74722],[-92.72598,41.74916],[-92.72346,41.75054],[-92.71007,41.75076],[-92.70788,41.75159],[-92.70716,41.75384],[-92.71137,41.75818],[-92.70784,41.76312],[-92.71312,41.76882],[-92.71093,41.77271],[-92.71275,41.7772],[-92.72026,41.77799],[-92.72281,41.78249],[-92.72792,41.78543],[-92.7294,41.78856],[-92.73814,41.7924],[-92.74203,41.79049],[-92.74908,41.79568],[-92.7542,41.79412],[-92.75884,41.79684],[-92.76025,41.80208],[-92.76719,41.80949],[-92.77895,41.81489],[-92.78342,41.81258],[-92.79499,41.82169],[-92.79755,41.82113],[-92.80016,41.82448],[-92.79867,41.82933],[-92.80203,41.83117],[-92.81131,41.83152],[-92.813,41.83319],[-92.81312,41.83812],[-92.82069,41.84504],[-92.82684,41.84765],[-92.82772,41.85097],[-92.83206,41.85226],[-92.83356,41.8546],[-92.86397,41.85857],[-92.86857,41.86172],[-92.86837,41.86558],[-92.87028,41.86746],[-92.87878,41.86658],[-92.88219,41.87096],[-92.89012,41.87007],[-92.89062,41.87188],[-92.89234,41.87164],[-92.89307,41.87564],[-92.89765,41.87876],[-92.9035,41.87857],[-92.90747,41.88313],[-92.91484,41.88407],[-92.91631,41.88293],[-92.91563,41.88078],[-92.92142,41.87685],[-92.92434,41.87665],[-92.93006,41.88069],[-92.92933,41.8841],[-92.9379,41.88315],[-92.93967,41.88426],[-92.94314,41.89201],[-92.94791,41.89161],[-92.95212,41.88656],[-92.96082,41.88369],[-92.96486,41.88667],[-92.96528,41.88884],[-92.97176,41.892],[-92.97683,41.89208],[-92.9932,41.90273],[-92.99513,41.90757],[-93.00125,41.90932],[-93.00219,41.91192],[-93.00625,41.91485],[-93.00567,41.91667],[-93.00869,41.92031],[-93.00799,41.92742],[-93.01266,41.92948],[-93.02115,41.92963],[-93.02319,41.93209],[-93.02932,41.93465],[-93.02738,41.93756],[-93.0332,41.94168],[-93.03221,41.9429],[-93.03328,41.9444],[-93.04345,41.94092],[-93.05218,41.94099],[-93.05628,41.94359],[-93.05609,41.94814],[-93.05753,41.94945],[-93.06342,41.94831],[-93.06612,41.95157],[-93.06572,41.95422],[-93.07066,41.95733],[-93.08312,41.95634],[-93.091,41.95913],[-93.0934,41.96136],[-93.09188,41.96284],[-93.09207,41.96557],[-93.09954,41.96753],[-93.10388,41.97085],[-93.11418,41.96961],[-93.12065,41.97203],[-93.12442,41.97115],[-93.13695,41.97704],[-93.13841,41.97482],[-93.14339,41.97571],[-93.14629,41.98022],[-93.15613,41.98048],[-93.1625,41.9865],[-93.16713,41.98792],[-93.16703,41.99225],[-93.16854,41.99438],[-93.19291,42.00761],[-93.20437,42.00767],[-93.20414,42.01158],[-93.20985,42.01434],[-93.21167,42.01752],[-93.2082,42.02015],[-93.20947,42.02399],[-93.2193,42.02328],[-93.2211,42.02505],[-93.22474,42.02358],[-93.22831,42.01859],[-93.2469,42.01893],[-93.25025,42.01813],[-93.25404,42.01422],[-93.25883,42.01412],[-93.26088,42.01253],[-93.26492,42.01343],[-93.26946,42.01105],[-93.26998,42.01297],[-93.27256,42.01377],[-93.27076,42.01713],[-93.27011,42.02631],[-93.27275,42.02963],[-93.26957,42.03168],[-93.27376,42.03627],[-93.26264,42.039],[-93.26299,42.04182],[-93.26897,42.04666],[-93.26273,42.04812],[-93.26218,42.05161],[-93.25531,42.05529],[-93.26774,42.05814],[-93.27057,42.06042],[-93.27245,42.07108],[-93.27459,42.07311],[-93.27325,42.07654],[-93.27541,42.07868],[-93.27643,42.08345],[-93.27444,42.08477],[-93.31016,42.10072],[-93.30633,42.10457],[-93.30529,42.10929],[-93.30112,42.11251],[-93.30247,42.11501],[-93.29972,42.12032],[-93.30445,42.12893],[-93.30056,42.13164],[-93.30466,42.13401],[-93.30888,42.13279],[-93.3102,42.1339],[-93.30565,42.13711],[-93.31112,42.14091],[-93.3136,42.14089],[-93.31532,42.13849],[-93.31768,42.14058],[-93.32383,42.14172],[-93.32573,42.14168],[-93.32679,42.13951],[-93.33626,42.1398],[-93.34558,42.1478],[-93.35614,42.14801],[-93.3596,42.14574],[-93.36145,42.14633],[-93.36369,42.14781],[-93.36152,42.15127],[-93.36246,42.15628],[-93.36848,42.15627],[-93.37159,42.15823],[-93.37375,42.16245],[-93.37599,42.16302],[-93.37987,42.16091],[-93.38202,42.1631],[-93.39189,42.16619],[-93.39379,42.16883],[-93.39825,42.16823],[-93.40167,42.17095],[-93.40073,42.17543],[-93.39727,42.18009],[-93.39933,42.18367],[-93.3965,42.18951],[-93.39784,42.19323],[-93.39548,42.19584],[-93.39867,42.20113],[-93.39669,42.20667],[-93.40161,42.20859],[-93.39908,42.20984],[-93.40084,42.21101],[-93.40004,42.21367],[-93.40246,42.21661],[-93.40059,42.21834],[-93.40736,42.22414],[-93.40842,42.22992],[-93.41628,42.23322],[-93.41806,42.23718],[-93.42387,42.24116],[-93.41988,42.24483],[-93.42225,42.24698],[-93.42228,42.25005],[-93.42437,42.25278],[-93.42167,42.25698],[-93.42193,42.25944],[-93.42564,42.25864],[-93.42916,42.26266],[-93.43482,42.26072],[-93.43531,42.25875],[-93.43772,42.25891],[-93.44206,42.26634],[-93.44907,42.27177],[-93.45834,42.2705],[-93.46034,42.26726],[-93.46414,42.26802],[-93.46507,42.27141],[-93.46283,42.27346],[-93.46202,42.27716],[-93.4599,42.27755],[-93.45927,42.28585],[-93.45703,42.28724],[-93.46304,42.29473],[-93.46273,42.29859],[-93.46564,42.30051],[-93.46402,42.30209],[-93.45953,42.30113],[-93.45949,42.30392],[-93.46904,42.31324],[-93.47291,42.31257],[-93.47887,42.31504],[-93.49034,42.31204],[-93.49233,42.31771],[-93.48823,42.3216],[-93.48861,42.32339],[-93.48975,42.32511],[-93.4966,42.32651],[-93.49903,42.32898],[-93.50039,42.33281],[-93.49293,42.3353],[-93.49245,42.33784],[-93.48758,42.33996],[-93.48905,42.34229],[-93.48815,42.34342],[-93.48123,42.34898],[-93.48212,42.35148],[-93.49057,42.35548],[-93.48909,42.35895],[-93.48539,42.35937],[-93.48592,42.36523],[-93.48341,42.36722],[-93.4894,42.36881],[-93.49394,42.36689],[-93.49894,42.3683],[-93.50642,42.36134],[-93.51591,42.36875],[-93.53034,42.37622],[-93.52807,42.37998],[-93.52923,42.38147],[-93.53648,42.3824],[-93.5441,42.38765],[-93.56012,42.38047],[-93.55995,42.38293],[-93.56488,42.38632],[-93.56612,42.39311],[-93.56834,42.3961],[-93.56775,42.39975],[-93.56442,42.40138],[-93.56373,42.40353],[-93.56528,42.40582],[-93.56349,42.40939],[-93.56486,42.41827],[-93.56083,42.42316],[-93.56035,42.42693],[-93.55541,42.43053],[-93.55647,42.43448],[-93.55234,42.4378],[-93.55527,42.44329],[-93.55279,42.44742],[-93.55541,42.45285],[-93.5546,42.45808],[-93.5508,42.46255],[-93.55127,42.46846],[-93.54748,42.47238],[-93.54796,42.4758],[-93.55065,42.47701],[-93.54801,42.48137],[-93.54928,42.48369],[-93.54608,42.48769],[-93.54816,42.48949],[-93.54706,42.49081],[-93.55284,42.50334],[-93.56096,42.50357],[-93.56502,42.50543],[-93.56562,42.50322],[-93.57058,42.50119],[-93.5816,42.50802],[-93.58709,42.50586],[-93.59245,42.50611],[-93.61506,42.51152],[-93.61856,42.50881],[-93.61631,42.50405],[-93.619,42.50361],[-93.62147,42.50087],[-93.62108,42.49959],[-93.61767,42.50003],[-93.61623,42.49694],[-93.61783,42.4951],[-93.6251,42.49157],[-93.6325,42.49169],[-93.63396,42.49],[-93.63339,42.4865],[-93.63633,42.48673],[-93.64346,42.48302],[-93.64324,42.47882],[-93.65199,42.47745],[-93.6527,42.47397],[-93.65458,42.47266],[-93.66098,42.47507],[-93.66144,42.48054],[-93.6572,42.48829],[-93.6651,42.4948],[-93.66452,42.49687],[-93.66127,42.49851],[-93.66696,42.50273],[-93.66511,42.50457],[-93.66282,42.50438],[-93.66503,42.50858],[-93.66427,42.51669],[-93.67101,42.5194],[-93.67065,42.52147],[-93.66448,42.52238],[-93.65947,42.52724],[-93.66044,42.5307],[-93.66325,42.53213],[-93.66294,42.53432],[-93.66028,42.53501],[-93.66044,42.53712],[-93.66555,42.5397],[-93.66619,42.54153],[-93.66077,42.55062],[-93.65313,42.55927],[-93.64917,42.56733],[-93.65085,42.57219],[-93.65878,42.57194],[-93.65871,42.57355],[-93.66778,42.57856],[-93.66908,42.58209],[-93.66449,42.58655],[-93.65629,42.58935],[-93.65627,42.59335],[-93.65403,42.59609],[-93.65448,42.59975],[-93.65105,42.60402],[-93.6428,42.60843],[-93.63712,42.60824],[-93.63598,42.62524],[-93.64211,42.62884],[-93.64181,42.63853],[-93.64579,42.64045],[-93.64645,42.64265],[-93.64321,42.64879],[-93.64011,42.64985],[-93.64275,42.65169],[-93.64235,42.65613],[-93.64685,42.6602],[-93.64759,42.66473],[-93.65807,42.65898],[-93.66818,42.65815],[-93.6627,42.67411],[-93.66848,42.68232],[-93.67116,42.68361],[-93.67031,42.68499],[-93.67202,42.69093],[-93.6744,42.69236],[-93.67319,42.6975],[-93.66708,42.70015],[-93.66244,42.70025],[-93.65815,42.70405],[-93.65914,42.70558],[-93.6579,42.70711],[-93.66036,42.70937],[-93.64942,42.71439],[-93.65448,42.72299],[-93.65128,42.72849],[-93.65651,42.73289],[-93.67431,42.73658],[-93.67518,42.73978],[-93.67935,42.74209],[-93.68027,42.74466],[-93.68779,42.7486],[-93.68526,42.75324],[-93.68921,42.75653],[-93.69099,42.76233],[-93.68941,42.76726],[-93.69163,42.77054],[-93.69466,42.77133],[-93.69528,42.7735],[-93.69295,42.77882],[-93.68735,42.78006],[-93.68337,42.77726],[-93.67909,42.78072],[-93.67986,42.78803],[-93.68336,42.79294],[-93.68058,42.79465],[-93.68045,42.79728],[-93.68225,42.79797],[-93.68276,42.80042],[-93.69021,42.80142],[-93.68997,42.80284],[-93.69499,42.80385],[-93.69346,42.80569],[-93.69391,42.80831],[-93.6953,42.81103],[-93.69946,42.81321],[-93.69539,42.81378],[-93.69594,42.81849],[-93.6978,42.81979],[-93.69685,42.8234],[-93.70164,42.82741],[-93.69819,42.82865],[-93.69687,42.83148],[-93.70019,42.83445],[-93.69976,42.83815],[-93.70299,42.8411],[-93.69965,42.84446],[-93.69021,42.84812],[-93.69501,42.85633],[-93.69732,42.85717],[-93.69769,42.86094],[-93.69418,42.86285],[-93.69238,42.86607],[-93.69392,42.86967],[-93.69044,42.87956],[-93.68769,42.87926],[-93.6812,42.88529],[-93.68731,42.88609],[-93.69103,42.89204],[-93.70299,42.88936],[-93.70352,42.89083],[-93.70163,42.89246],[-93.70365,42.89337],[-93.70391,42.89632],[-93.70861,42.8986],[-93.7135,42.89622],[-93.72435,42.89716],[-93.72862,42.89896],[-93.7255,42.90138],[-93.72647,42.90622],[-93.72432,42.90945],[-93.72049,42.91072],[-93.72239,42.91341],[-93.7254,42.91422],[-93.72645,42.91961],[-93.73215,42.92561],[-93.73221,42.92836],[-93.73676,42.9289],[-93.74084,42.93268],[-93.73913,42.93953],[-93.73471,42.94449],[-93.73742,42.94755],[-93.73969,42.95715],[-93.73985,42.96088],[-93.73665,42.96335],[-93.73709,42.9655],[-93.74425,42.967],[-93.74567,42.97022],[-93.73891,42.97443],[-93.74105,42.97616],[-93.7382,42.97913],[-93.74214,42.98109],[-93.73901,42.98729],[-93.74196,42.99017],[-93.74717,42.98973],[-93.75102,42.99235],[-93.75126,42.99824],[-93.75386,43.00287],[-93.75389,43.01375],[-93.75224,43.01842],[-93.75643,43.02926],[-93.7542,43.0325],[-93.7597,43.03483],[-93.75954,43.03919],[-93.76612,43.04689],[-93.76905,43.05297],[-93.77537,43.05664],[-93.77475,43.0609],[-93.78017,43.06555],[-93.77906,43.07242],[-93.78072,43.07324],[-93.78337,43.08034],[-93.79094,43.0838],[-93.78943,43.08866],[-93.79984,43.09448],[-93.80281,43.10352],[-93.81229,43.10945],[-93.8247,43.121],[-93.83888,43.12412],[-93.84058,43.13354],[-93.8436,43.13634],[-93.86195,43.14378],[-93.86509,43.14755],[-93.86908,43.14891],[-93.87119,43.15244],[-93.871,43.15755],[-93.86729,43.15775],[-93.86415,43.16036],[-93.86895,43.17099],[-93.86165,43.17489],[-93.86248,43.18241],[-93.85957,43.18751],[-93.85617,43.18991],[-93.85938,43.19719],[-93.85825,43.20006],[-93.86323,43.20158],[-93.86729,43.20558],[-93.86222,43.20871],[-93.86619,43.21207],[-93.8643,43.21371],[-93.86532,43.21505],[-93.85996,43.21805],[-93.85421,43.21876],[-93.84458,43.21499],[-93.84113,43.21525],[-93.84053,43.21082],[-93.83497,43.21189],[-93.82474,43.20947],[-93.81678,43.21546],[-93.81976,43.22186],[-93.81639,43.22531],[-93.81978,43.23164],[-93.81358,43.23491],[-93.81081,43.241],[-93.78899,43.2425],[-93.78967,43.24805],[-93.78798,43.24905],[-93.79189,43.25359],[-93.79115,43.25432],[-93.78164,43.2579],[-93.7791,43.25607],[-93.77532,43.25691],[-93.76721,43.26506],[-93.76519,43.26437],[-93.76003,43.26651],[-93.74509,43.26126],[-93.73984,43.25557],[-93.73449,43.25741],[-93.72909,43.25646],[-93.72392,43.25348],[-93.72163,43.2496],[-93.72209,43.24762],[-93.71934,43.24689],[-93.70483,43.24691],[-93.70362,43.24932],[-93.70523,43.2522],[-93.70752,43.25273],[-93.70762,43.25519],[-93.69462,43.25126],[-93.69051,43.24788],[-93.69382,43.24806],[-93.69532,43.24437],[-93.68303,43.23458],[-93.6845,43.23273],[-93.68389,43.23002],[-93.68881,43.22641],[-93.67779,43.22503],[-93.67733,43.22248],[-93.66318,43.21058],[-93.65851,43.21285],[-93.65656,43.21106],[-93.65892,43.20877],[-93.64704,43.20853],[-93.64111,43.20585],[-93.63735,43.20599],[-93.63581,43.2028],[-93.63769,43.19968],[-93.63767,43.19502],[-93.63394,43.1915],[-93.62632,43.1909],[-93.62172,43.18785],[-93.62105,43.18539],[-93.61524,43.18623],[-93.61195,43.18426],[-93.597,43.18323],[-93.59718,43.18735],[-93.58989,43.19036],[-93.58762,43.19373],[-93.5885,43.19588],[-93.57306,43.20061],[-93.56115,43.20665],[-93.55099,43.20115],[-93.54661,43.19481],[-93.53855,43.19633],[-93.5334,43.19504],[-93.53254,43.19408],[-93.5343,43.18996],[-93.53318,43.18559],[-93.52845,43.17994],[-93.52085,43.18034],[-93.51065,43.17579],[-93.50608,43.17987],[-93.49227,43.1708],[-93.49085,43.16905],[-93.49065,43.16211],[-93.49349,43.15782],[-93.48837,43.14613],[-93.49351,43.14342],[-93.49933,43.13471],[-93.50381,43.13214],[-93.5058,43.126],[-93.5314,43.12069],[-93.53298,43.11648],[-93.53023,43.11081],[-93.52343,43.10984],[-93.52013,43.10651],[-93.51196,43.1052],[-93.50308,43.09871],[-93.50216,43.09546],[-93.47978,43.0903],[-93.46235,43.07783],[-93.45854,43.07348],[-93.45242,43.07339],[-93.44567,43.07065],[-93.44657,43.06574],[-93.44457,43.06172],[-93.43865,43.0588],[-93.43786,43.05656],[-93.44119,43.05113],[-93.44598,43.04942],[-93.44467,43.04545],[-93.44869,43.04048],[-93.44915,43.03514],[-93.45316,43.03324],[-93.45482,43.02986],[-93.45409,43.02831],[-93.45746,43.02588],[-93.45461,43.02158],[-93.45581,43.01876],[-93.45823,43.01606],[-93.46819,43.01456],[-93.4674,43.00899],[-93.47035,43.007],[-93.47811,43.00376],[-93.48692,43.00974],[-93.49417,43.0098],[-93.49662,43.00666],[-93.5031,43.00472],[-93.50984,43.00637],[-93.51084,43.00423],[-93.52583,43.00342],[-93.53686,43.00052],[-93.53667,42.99606],[-93.53078,42.99394],[-93.53034,42.99212],[-93.52339,42.98776],[-93.52256,42.98546],[-93.50859,42.98494],[-93.50963,42.98245],[-93.50682,42.97964],[-93.5074,42.97675],[-93.50533,42.97529],[-93.50983,42.97176],[-93.50723,42.96962],[-93.49618,42.97014],[-93.49677,42.96744],[-93.4947,42.96328],[-93.49672,42.96213],[-93.49883,42.95645],[-93.49748,42.95299],[-93.50061,42.94608],[-93.50697,42.94429],[-93.51178,42.94476],[-93.52066,42.94225],[-93.52305,42.94001],[-93.51816,42.93491],[-93.52305,42.93055],[-93.52069,42.92633],[-93.52347,42.92357],[-93.52097,42.9214],[-93.52218,42.92052],[-93.52009,42.91659],[-93.51371,42.916],[-93.50914,42.92055],[-93.50538,42.92098],[-93.50554,42.91565],[-93.50122,42.91101],[-93.50145,42.90908],[-93.4944,42.90735],[-93.49555,42.90518],[-93.49413,42.90426],[-93.47995,42.89977],[-93.4781,42.89437],[-93.47299,42.89083],[-93.47558,42.88709],[-93.47178,42.88007],[-93.47326,42.8782],[-93.46918,42.87688],[-93.46722,42.8732],[-93.46337,42.87412],[-93.46179,42.87119],[-93.45917,42.87247],[-93.45359,42.87046],[-93.45163,42.86809],[-93.45257,42.86641],[-93.4484,42.86645],[-93.44975,42.86181],[-93.44696,42.85858],[-93.4466,42.85462],[-93.44848,42.85305],[-93.44885,42.84967],[-93.44621,42.84704],[-93.44918,42.84337],[-93.4455,42.8408],[-93.44538,42.838],[-93.44594,42.83353],[-93.44998,42.82808],[-93.44734,42.8257],[-93.44776,42.81973],[-93.44296,42.819],[-93.44552,42.81678],[-93.44634,42.8127],[-93.44412,42.81129],[-93.43332,42.81075],[-93.43463,42.80508],[-93.43323,42.80274],[-93.43514,42.80023],[-93.45,42.79512],[-93.45278,42.79544],[-93.45608,42.78449],[-93.45359,42.78311],[-93.45458,42.78161],[-93.45913,42.78086],[-93.46528,42.77427],[-93.46552,42.77225],[-93.45347,42.77231],[-93.43895,42.76768],[-93.4419,42.75997],[-93.44898,42.75396],[-93.44472,42.75075],[-93.44122,42.75109],[-93.44342,42.74605],[-93.43438,42.74564],[-93.42874,42.74699],[-93.42554,42.7499],[-93.41883,42.74362],[-93.42103,42.74271],[-93.42024,42.74021],[-93.42201,42.73867],[-93.42604,42.7397],[-93.42674,42.74219],[-93.42929,42.74156],[-93.42919,42.74021],[-93.43546,42.73573],[-93.43764,42.7361],[-93.44281,42.73125],[-93.44215,42.72922],[-93.44469,42.72699],[-93.43275,42.72712],[-93.42848,42.72867],[-93.42779,42.72476],[-93.42081,42.72173],[-93.42327,42.71825],[-93.41236,42.71499],[-93.39504,42.71852],[-93.38409,42.7235],[-93.38072,42.72197],[-93.3755,42.72575],[-93.37456,42.72492],[-93.376,42.72333],[-93.37431,42.72165],[-93.37494,42.71958],[-93.3772,42.72014],[-93.38035,42.71731],[-93.37791,42.71489],[-93.37928,42.71273],[-93.37554,42.70803],[-93.3809,42.70698],[-93.38217,42.70341],[-93.37988,42.69922],[-93.38044,42.69301],[-93.38728,42.69058],[-93.3901,42.69212],[-93.39036,42.69701],[-93.39486,42.69987],[-93.40087,42.69555],[-93.40298,42.69594],[-93.40348,42.69363],[-93.40125,42.69137],[-93.40971,42.68656],[-93.41135,42.68043],[-93.41812,42.6794],[-93.42449,42.67558],[-93.4208,42.6723],[-93.42182,42.67084],[-93.42008,42.66766],[-93.41703,42.66605],[-93.41807,42.66428],[-93.41692,42.66119],[-93.42813,42.66137],[-93.43232,42.65777],[-93.42886,42.6567],[-93.42767,42.65363],[-93.42515,42.65435],[-93.42183,42.65156],[-93.41698,42.65279],[-93.41394,42.65149],[-93.41077,42.64542],[-93.40512,42.64301],[-93.40114,42.6382],[-93.39789,42.63797],[-93.39426,42.63267],[-93.39006,42.63112],[-93.38951,42.6289],[-93.38533,42.62551],[-93.37912,42.62268],[-93.37455,42.62351],[-93.36957,42.61804],[-93.361,42.61589],[-93.35916,42.61679],[-93.34979,42.60836],[-93.34081,42.60623],[-93.33446,42.60286],[-93.32878,42.60206],[-93.3232,42.6047],[-93.31683,42.60481],[-93.31493,42.6103],[-93.3076,42.61077],[-93.30159,42.60933],[-93.29639,42.61206],[-93.29261,42.61005],[-93.2894,42.61026],[-93.28188,42.60458],[-93.28214,42.5992],[-93.28024,42.59665],[-93.27232,42.59709],[-93.26992,42.59565],[-93.26878,42.59148],[-93.26408,42.59211],[-93.26226,42.59048],[-93.26181,42.59202],[-93.25722,42.59241],[-93.24805,42.58863],[-93.2415,42.5808],[-93.24356,42.57933],[-93.24316,42.57597],[-93.2326,42.5654],[-93.23484,42.55987],[-93.2325,42.55725],[-93.22953,42.55937],[-93.22623,42.55869],[-93.22465,42.56058],[-93.21517,42.55851],[-93.21137,42.55938],[-93.20864,42.5571],[-93.19134,42.55664],[-93.18841,42.55284],[-93.19018,42.548],[-93.18692,42.54477],[-93.18273,42.54638],[-93.17999,42.55173],[-93.17257,42.55866],[-93.16919,42.55808],[-93.16829,42.55562],[-93.16248,42.55232],[-93.1587,42.5556],[-93.15172,42.55517],[-93.14512,42.55764],[-93.14369,42.55241],[-93.15047,42.54405],[-93.14563,42.54142],[-93.147,42.54024],[-93.14519,42.53804],[-93.1467,42.53256],[-93.15345,42.52965],[-93.15849,42.53126],[-93.16422,42.53059],[-93.16469,42.52836],[-93.16317,42.52598],[-93.16449,42.52473],[-93.16372,42.52114],[-93.15318,42.51504],[-93.15072,42.51001],[-93.15225,42.50558],[-93.14814,42.50335],[-93.14775,42.49877],[-93.14557,42.49648],[-93.13587,42.49702],[-93.12556,42.49985],[-93.12406,42.4965],[-93.11365,42.49695],[-93.10777,42.49465],[-93.10113,42.49464],[-93.09802,42.49218],[-93.09145,42.49275],[-93.08588,42.48451],[-93.08401,42.48403],[-93.08597,42.47964],[-93.08381,42.4704],[-93.08436,42.46524],[-93.07243,42.46002],[-93.06994,42.45299],[-93.07163,42.44972],[-93.07111,42.44617],[-93.06187,42.44561],[-93.06125,42.44382],[-93.05573,42.4412],[-93.04962,42.44301],[-93.04248,42.44246],[-93.03467,42.43599],[-93.02772,42.43568],[-93.02358,42.43908],[-93.01499,42.43739],[-93.01232,42.43506],[-93.01419,42.43358],[-93.01402,42.42973],[-93.00081,42.42397],[-92.99763,42.42332],[-92.99458,42.42558],[-92.98767,42.42301],[-92.98471,42.42398],[-92.97915,42.4175],[-92.97313,42.41616],[-92.9675,42.41898],[-92.96087,42.41573],[-92.94974,42.4152],[-92.94823,42.41242],[-92.94497,42.41129],[-92.94058,42.40549],[-92.93786,42.4048],[-92.94058,42.4025],[-92.94596,42.40223],[-92.95374,42.39799],[-92.95428,42.39398],[-92.95679,42.3908],[-92.96448,42.38917],[-92.96741,42.38432],[-92.97384,42.38241],[-92.97549,42.37908],[-92.97864,42.37885],[-92.97758,42.37275],[-92.97578,42.37109],[-92.97745,42.3674],[-92.97344,42.36553],[-92.96825,42.35934],[-92.97034,42.35382],[-92.96781,42.35327],[-92.96717,42.34955],[-92.96463,42.34792],[-92.96561,42.34458],[-92.95822,42.34211],[-92.94842,42.34143],[-92.93957,42.33645],[-92.92922,42.32612],[-92.93147,42.32463],[-92.93081,42.32189],[-92.92655,42.32019],[-92.92652,42.31655],[-92.9286,42.31431],[-92.92662,42.31167],[-92.93357,42.31068],[-92.93583,42.30857],[-92.92822,42.29917],[-92.93085,42.29672],[-92.93488,42.29607],[-92.9436,42.28468],[-92.94232,42.2834],[-92.94175,42.27467],[-92.944,42.27137],[-92.9379,42.26446],[-92.93821,42.25455],[-92.93417,42.25135],[-92.9334,42.24887],[-92.93337,42.24631],[-92.93764,42.2437],[-92.9326,42.24089],[-92.93087,42.23451],[-92.92177,42.23164],[-92.91107,42.22343],[-92.90893,42.21735],[-92.90088,42.2152],[-92.89787,42.21091],[-92.88922,42.20633],[-92.876,42.20247],[-92.86964,42.19845],[-92.86256,42.19089],[-92.8643,42.18814],[-92.85369,42.18192],[-92.85192,42.1727],[-92.84208,42.17414],[-92.83959,42.1711],[-92.83321,42.16828],[-92.82135,42.16537],[-92.82109,42.16155],[-92.81859,42.15987],[-92.80087,42.15568],[-92.78949,42.15965],[-92.78202,42.15831],[-92.77835,42.16022],[-92.77739,42.16503],[-92.76793,42.16399],[-92.7632,42.16542],[-92.76129,42.16877],[-92.75497,42.17],[-92.75317,42.17462],[-92.73577,42.17072],[-92.73045,42.17337],[-92.71318,42.16672],[-92.71075,42.16519],[-92.70993,42.16092],[-92.70288,42.15766],[-92.69587,42.15653],[-92.68626,42.1587],[-92.67692,42.16372],[-92.66594,42.16666],[-92.66098,42.16407],[-92.64718,42.16521],[-92.63674,42.16172],[-92.63265,42.15688],[-92.63356,42.15481],[-92.63055,42.1528],[-92.62711,42.15283],[-92.62563,42.14935],[-92.62066,42.14627],[-92.61481,42.14638],[-92.6108,42.15019],[-92.6037,42.14931],[-92.59984,42.15115],[-92.59782,42.15721],[-92.59599,42.15743],[-92.59588,42.16005],[-92.593,42.16315],[-92.58716,42.16303],[-92.58411,42.16075],[-92.57607,42.16348],[-92.57096,42.16179],[-92.56849,42.16355],[-92.56563,42.16241],[-92.55985,42.16346],[-92.55613,42.16163],[-92.54853,42.16234],[-92.53664,42.15995],[-92.52846,42.16201],[-92.52022,42.15864],[-92.51878,42.15617],[-92.51318,42.15308],[-92.50424,42.15597],[-92.50006,42.15257],[-92.4945,42.15165],[-92.48942,42.15298],[-92.48585,42.15748],[-92.48244,42.1586],[-92.47091,42.15498],[-92.46653,42.15971],[-92.46218,42.15963],[-92.45629,42.15717],[-92.4519,42.1516],[-92.44771,42.15158],[-92.44511,42.14928],[-92.44503,42.14609],[-92.44213,42.14187],[-92.43684,42.14049],[-92.43364,42.143],[-92.41806,42.14516],[-92.41317,42.14927],[-92.39964,42.15197],[-92.38796,42.14884],[-92.38358,42.15486],[-92.38361,42.157],[-92.3787,42.15875],[-92.37675,42.16109],[-92.36971,42.16219],[-92.36822,42.16976],[-92.35898,42.17288],[-92.34809,42.17308],[-92.34532,42.17395],[-92.34324,42.17694],[-92.33871,42.17626],[-92.33705,42.17784],[-92.33722,42.18254],[-92.33299,42.18568],[-92.32335,42.18419],[-92.3142,42.18875],[-92.30793,42.18841],[-92.30071,42.18718],[-92.28973,42.18042],[-92.27174,42.18152],[-92.26003,42.17474],[-92.26097,42.1671],[-92.26375,42.16663],[-92.26852,42.1625],[-92.27123,42.15681],[-92.2659,42.15084],[-92.26742,42.14596],[-92.26414,42.1413],[-92.25964,42.13807],[-92.24012,42.13685],[-92.23956,42.13162],[-92.2373,42.12817],[-92.23805,42.12448],[-92.23329,42.11857],[-92.22832,42.11556],[-92.22828,42.11234],[-92.21345,42.10949],[-92.21151,42.10737],[-92.20554,42.10573],[-92.20381,42.10254],[-92.1983,42.10149],[-92.19805,42.09696],[-92.1871,42.08993],[-92.18528,42.08316],[-92.18103,42.08178],[-92.17681,42.07781],[-92.18591,42.07164],[-92.184,42.06811],[-92.1846,42.06221],[-92.1811,42.05942],[-92.18387,42.05759],[-92.18519,42.05149],[-92.18867,42.04962],[-92.19538,42.04896],[-92.19995,42.05118],[-92.20708,42.04981],[-92.21121,42.04537],[-92.21504,42.04721],[-92.21992,42.04618],[-92.22041,42.04486],[-92.23012,42.04538],[-92.2396,42.04229],[-92.25245,42.04497],[-92.25389,42.04273],[-92.25807,42.04327],[-92.26205,42.04165],[-92.26445,42.0377],[-92.28381,42.04163],[-92.29362,42.03854],[-92.29467,42.03457],[-92.28793,42.02875],[-92.27774,42.02707],[-92.27546,42.02263],[-92.27632,42.02024],[-92.27413,42.01665],[-92.27435,42.01371],[-92.27091,42.01066],[-92.25686,42.00825],[-92.25553,42.00338],[-92.25667,42.00201],[-92.2538,41.99793],[-92.26241,41.99332],[-92.26354,41.98976],[-92.26641,41.9873],[-92.26014,41.97504],[-92.24269,41.9761],[-92.23414,41.97374],[-92.22779,41.96604],[-92.22681,41.9619],[-92.21899,41.95528],[-92.21797,41.95207],[-92.22257,41.95199],[-92.22611,41.94989],[-92.2259,41.94002],[-92.2276,41.93819],[-92.21578,41.93188],[-92.20578,41.92895],[-92.20307,41.92547],[-92.20119,41.92527],[-92.19906,41.92828],[-92.19398,41.92841],[-92.18155,41.92443],[-92.18567,41.91752],[-92.18055,41.91535],[-92.18147,41.9108],[-92.18792,41.90859],[-92.18028,41.90605],[-92.17886,41.90019],[-92.17691,41.89842],[-92.16723,41.89958],[-92.16434,41.89252],[-92.16215,41.89112],[-92.14981,41.89492],[-92.14876,41.89379],[-92.15008,41.89265],[-92.14505,41.88994],[-92.14144,41.89222],[-92.13724,41.88869],[-92.12854,41.88842],[-92.12516,41.88609],[-92.12184,41.88634],[-92.11544,41.89374],[-92.11147,41.89312],[-92.10975,41.89115],[-92.10491,41.89336],[-92.10072,41.89286],[-92.09697,41.89143],[-92.09568,41.88858],[-92.08449,41.89334],[-92.07103,41.89029],[-92.06345,41.89162],[-92.05999,41.8883],[-92.06383,41.87967],[-92.05853,41.87537],[-92.04296,41.87558],[-92.03315,41.87248],[-92.03351,41.87108],[-92.03095,41.87007],[-92.02676,41.87183],[-92.01804,41.86983],[-92.01352,41.87151],[-92.00886,41.87116],[-92.00593,41.86718],[-92.0034,41.86685],[-91.99375,41.86774],[-91.98158,41.87228],[-91.97224,41.86962],[-91.96968,41.87143],[-91.96009,41.87018],[-91.96283,41.87754],[-91.94999,41.88122],[-91.9394,41.88009],[-91.92727,41.8817],[-91.92418,41.88005],[-91.91853,41.88262],[-91.90902,41.88386],[-91.90141,41.88026],[-91.88999,41.87891],[-91.88868,41.88304],[-91.88599,41.88501],[-91.8823,41.88363],[-91.87699,41.88654],[-91.88074,41.8904],[-91.87361,41.89543],[-91.85599,41.89935],[-91.85204,41.89842],[-91.84558,41.90277],[-91.83741,41.90046],[-91.83672,41.89846],[-91.83034,41.89557],[-91.82866,41.89756],[-91.82385,41.89709],[-91.82001,41.90159],[-91.81145,41.90059],[-91.80317,41.89644],[-91.80268,41.89355],[-91.79822,41.89023],[-91.79143,41.89065],[-91.786,41.88742],[-91.77498,41.88998],[-91.77014,41.88448],[-91.75546,41.88671],[-91.75182,41.88913],[-91.74056,41.88539],[-91.73402,41.88517],[-91.7332,41.88742],[-91.72719,41.88531],[-91.72436,41.88737],[-91.71674,41.88632],[-91.71449,41.88822],[-91.70746,41.88682],[-91.70577,41.88826],[-91.70775,41.89155],[-91.70013,41.89497],[-91.6949,41.89449],[-91.68513,41.89693],[-91.68575,41.90164],[-91.66039,41.90615],[-91.6623,41.9101],[-91.66094,41.91172],[-91.65548,41.91154],[-91.65123,41.90952],[-91.64685,41.9126],[-91.64126,41.9116],[-91.63626,41.90911],[-91.63745,41.90621],[-91.63369,41.9036],[-91.61763,41.89732],[-91.6126,41.89774],[-91.60987,41.90138],[-91.60116,41.90522],[-91.59328,41.90499],[-91.58576,41.90072],[-91.57148,41.89729],[-91.57106,41.89944],[-91.5649,41.90255],[-91.55308,41.89871],[-91.54344,41.89915],[-91.5398,41.90169],[-91.53451,41.89778],[-91.53561,41.89537],[-91.53448,41.8939],[-91.52962,41.894],[-91.52794,41.89002],[-91.5259,41.88938],[-91.52684,41.88782],[-91.51459,41.88298],[-91.51071,41.8835],[-91.51094,41.8798],[-91.50222,41.8738],[-91.50335,41.86966],[-91.49081,41.86428],[-91.49077,41.86125],[-91.49363,41.85893],[-91.49239,41.85682],[-91.48095,41.85433],[-91.47767,41.85078],[-91.47384,41.85118],[-91.47105,41.84822],[-91.47158,41.84615],[-91.47007,41.84439],[-91.46203,41.83871],[-91.45903,41.83927],[-91.44526,41.83073],[-91.4484,41.82396],[-91.44606,41.82264],[-91.44522,41.81799],[-91.44327,41.81614],[-91.45055,41.81105],[-91.44713,41.80909],[-91.4471,41.80492],[-91.44144,41.8028],[-91.43479,41.8028],[-91.43161,41.79991],[-91.43806,41.79618],[-91.4379,41.79397],[-91.43979,41.79237],[-91.44024,41.79014],[-91.43773,41.78751],[-91.43934,41.7852],[-91.4386,41.77961],[-91.42387,41.77617],[-91.41442,41.76953],[-91.40952,41.7695],[-91.40318,41.76602],[-91.39894,41.76761],[-91.38733,41.76478],[-91.38772,41.76284],[-91.38473,41.76147],[-91.38488,41.75893],[-91.3873,41.75847],[-91.3874,41.75638],[-91.39198,41.75611],[-91.39707,41.7524],[-91.39464,41.75064],[-91.39801,41.74662],[-91.39551,41.74218],[-91.39109,41.73986],[-91.39091,41.73807],[-91.38609,41.73643],[-91.38212,41.73087],[-91.38391,41.72904],[-91.38134,41.72607],[-91.38328,41.72247],[-91.37637,41.7158],[-91.37602,41.71325],[-91.38103,41.70854],[-91.38521,41.7086],[-91.38652,41.70516],[-91.3899,41.70604],[-91.39176,41.70319],[-91.39616,41.70128],[-91.40362,41.70178],[-91.41256,41.69616],[-91.42,41.69911],[-91.4222,41.69504],[-91.42763,41.69119],[-91.42652,41.68719],[-91.43291,41.68417],[-91.43571,41.67943],[-91.44102,41.67901],[-91.44299,41.67592],[-91.44738,41.67641],[-91.45949,41.68265],[-91.47206,41.68673],[-91.47465,41.68375],[-91.48821,41.68245],[-91.49097,41.68032],[-91.50679,41.68008],[-91.50851,41.68233],[-91.51246,41.6832],[-91.51556,41.6818],[-91.51635,41.6762],[-91.52028,41.67609],[-91.52362,41.67729],[-91.52097,41.68102],[-91.52537,41.68708],[-91.52597,41.6905],[-91.53203,41.68878],[-91.53428,41.69132],[-91.53882,41.68853],[-91.54298,41.69035]],[[-92.46073,41.93683],[-92.46084,41.94069],[-92.46322,41.94131],[-92.4638,41.93701],[-92.46073,41.93683]],[[-92.69408,42.00472],[-92.69228,41.99821],[-92.68922,41.99614],[-92.69163,41.99089],[-92.68917,41.98661],[-92.68336,41.98354],[-92.67529,41.9857],[-92.67398,41.9912],[-92.67845,41.99757],[-92.67879,42.00742],[-92.67608,42.01117],[-92.67389,42.01158],[-92.67583,42.01413],[-92.67473,42.0178],[-92.66065,42.02144],[-92.66036,42.02509],[-92.67291,42.03222],[-92.67448,42.03029],[-92.68745,42.02777],[-92.68623,42.02351],[-92.69422,42.02176],[-92.69217,42.01412],[-92.69408,42.00472]]]}}]}