{"type":"FeatureCollection","features":[{"type":"Feature","properties":{},"geometry":{"type":"Polygon","coordinates":[[[-94.4929,41.46126],[-94.49377,41.46346],[-94.49693,41.46482],[-94.50022,41.47177],[-94.50697,41.47499],[-94.50633,41.47599],[-94.50852,41.47783],[-94.50801,41.48087],[-94.51736,41.48262],[-94.52125,41.48017],[-94.52103,41.47746],[-94.52461,41.47655],[-94.52882,41.47213],[-94.53307,41.47152],[-94.53691,41.46629],[-94.54262,41.46331],[-94.54893,41.46409],[-94.55397,41.46005],[-94.55504,41.45538],[-94.5532,41.44908],[-94.5549,41.44876],[-94.55573,41.44506],[-94.564,41.44201],[-94.56609,41.43909],[-94.57712,41.44014],[-94.57964,41.44232],[-94.57789,41.44619],[-94.57916,41.44739],[-94.59122,41.44902],[-94.59401,41.45306],[-94.60079,41.45656],[-94.61131,41.45781],[-94.61271,41.45997],[-94.60837,41.46508],[-94.60782,41.46957],[-94.61811,41.47987],[-94.62171,41.48098],[-94.62538,41.47861],[-94.63123,41.47871],[-94.63757,41.48437],[-94.63518,41.48767],[-94.63563,41.49105],[-94.64381,41.49891],[-94.64252,41.50176],[-94.64577,41.50428],[-94.64617,41.50675],[-94.64448,41.50924],[-94.6481,41.51525],[-94.65126,41.51735],[-94.65089,41.51989],[-94.65378,41.52689],[-94.65784,41.53029],[-94.65818,41.5324],[-94.65499,41.53475],[-94.65354,41.53895],[-94.65928,41.54506],[-94.66356,41.54576],[-94.66429,41.55013],[-94.66618,41.55208],[-94.66376,41.55466],[-94.66526,41.56129],[-94.66773,41.56332],[-94.6669,41.56777],[-94.67612,41.57026],[-94.67712,41.57185],[-94.68697,41.57254],[-94.69422,41.58023],[-94.6941,41.58725],[-94.69606,41.59086],[-94.6921,41.59209],[-94.68825,41.59597],[-94.68608,41.60275],[-94.67874,41.6067],[-94.67654,41.61081],[-94.66521,41.61146],[-94.66123,41.61679],[-94.65837,41.61816],[-94.65784,41.62084],[-94.65414,41.62126],[-94.6476,41.62004],[-94.64123,41.61573],[-94.63393,41.61622],[-94.633,41.61319],[-94.62928,41.61296],[-94.62782,41.60749],[-94.62884,41.60628],[-94.62588,41.60308],[-94.61429,41.6002],[-94.61315,41.60162],[-94.60776,41.60066],[-94.60105,41.59404],[-94.5952,41.5922],[-94.58968,41.59375],[-94.58427,41.59182],[-94.57666,41.59603],[-94.57538,41.59365],[-94.56384,41.5885],[-94.55465,41.58038],[-94.55089,41.57992],[-94.55209,41.57458],[-94.54908,41.57309],[-94.54785,41.56917],[-94.53989,41.57011],[-94.53416,41.5668],[-94.53516,41.56359],[-94.5304,41.56161],[-94.52994,41.55904],[-94.52116,41.55047],[-94.52001,41.54756],[-94.51636,41.5486],[-94.51532,41.54567],[-94.51177,41.54382],[-94.50942,41.53645],[-94.49951,41.53252],[-94.49617,41.52719],[-94.48656,41.52893],[-94.48225,41.52789],[-94.48187,41.51934],[-94.47551,41.51808],[-94.47202,41.51606],[-94.47041,41.51304],[-94.47267,41.50932],[-94.46697,41.50663],[-94.46562,41.50387],[-94.45932,41.5032],[-94.45519,41.49578],[-94.44499,41.48821],[-94.44214,41.48872],[-94.43912,41.48666],[-94.43354,41.47839],[-94.42883,41.4764],[-94.42628,41.47038],[-94.41042,41.45929],[-94.40955,41.45605],[-94.41293,41.45035],[-94.41031,41.44797],[-94.41512,41.44321],[-94.42303,41.44545],[-94.4259,41.44151],[-94.43406,41.43781],[-94.4387,41.44055],[-94.44273,41.43845],[-94.44696,41.44333],[-94.45906,41.44547],[-94.46536,41.45134],[-94.47071,41.45276],[-94.47576,41.45011],[-94.47842,41.45069],[-94.47883,41.45378],[-94.48611,41.45693],[-94.48854,41.46152],[-94.4929,41.46126]]]}}]}