{"type":"FeatureCollection","features":[{"type":"Feature","properties":{},"geometry":{"type":"Polygon","coordinates":[[[-93.95257,42.71005],[-93.95589,42.71038],[-93.95713,42.71213],[-93.95582,42.71338],[-93.95497,42.71827],[-93.95641,42.72095],[-93.95463,42.72491],[-93.95978,42.73149],[-93.95814,42.73451],[-93.96148,42.73761],[-93.96138,42.74307],[-93.9657,42.74287],[-93.96868,42.74464],[-93.97144,42.74161],[-93.97417,42.74177],[-93.98519,42.74308],[-93.98797,42.74489],[-93.98736,42.75349],[-93.99006,42.75599],[-93.98882,42.75892],[-93.99094,42.76031],[-93.99367,42.76866],[-93.99886,42.7738],[-94.00357,42.77568],[-94.01391,42.78854],[-94.01311,42.79032],[-94.01604,42.79154],[-94.01944,42.7966],[-94.01832,42.80168],[-94.02356,42.80403],[-94.03282,42.80205],[-94.03716,42.8042],[-94.03645,42.80707],[-94.04404,42.81544],[-94.04283,42.82219],[-94.05113,42.82307],[-94.05855,42.82684],[-94.0714,42.82299],[-94.07571,42.82449],[-94.07772,42.82897],[-94.08174,42.82975],[-94.08112,42.83264],[-94.0827,42.83486],[-94.07999,42.83795],[-94.08024,42.84697],[-94.07871,42.84745],[-94.08392,42.85166],[-94.08097,42.85454],[-94.0787,42.86194],[-94.0795,42.86458],[-94.0876,42.87146],[-94.08725,42.87457],[-94.08792,42.87717],[-94.09006,42.87757],[-94.09026,42.88224],[-94.08849,42.88639],[-94.08591,42.8867],[-94.08761,42.89058],[-94.08033,42.90143],[-94.08385,42.90287],[-94.09079,42.91337],[-94.09643,42.9141],[-94.09999,42.91643],[-94.10301,42.91575],[-94.10497,42.91761],[-94.10374,42.91835],[-94.10689,42.9204],[-94.11477,42.92102],[-94.1147,42.92321],[-94.11867,42.92662],[-94.1176,42.9298],[-94.1201,42.93435],[-94.12065,42.9396],[-94.12814,42.94268],[-94.1285,42.95101],[-94.13117,42.95297],[-94.13194,42.95926],[-94.13729,42.96357],[-94.13692,42.96708],[-94.1431,42.97046],[-94.14195,42.97241],[-94.14599,42.98027],[-94.13781,42.98062],[-94.13614,42.98259],[-94.13871,42.98497],[-94.13998,42.99132],[-94.13839,42.99398],[-94.14858,43.00173],[-94.14829,43.0261],[-94.14979,43.03095],[-94.14785,43.03771],[-94.13831,43.03756],[-94.1339,43.03561],[-94.12831,43.03739],[-94.1245,43.03583],[-94.12077,43.03685],[-94.11155,43.03565],[-94.11026,43.03763],[-94.10466,43.03646],[-94.10449,43.04071],[-94.10086,43.04096],[-94.09707,43.04555],[-94.09796,43.06089],[-94.08953,43.06202],[-94.08867,43.06571],[-94.08152,43.06386],[-94.07555,43.06521],[-94.07813,43.07191],[-94.07497,43.07571],[-94.0782,43.07756],[-94.0757,43.08017],[-94.07884,43.08252],[-94.07367,43.08644],[-94.07601,43.08859],[-94.06462,43.08695],[-94.06326,43.08878],[-94.05817,43.08934],[-94.05181,43.08624],[-94.0497,43.0913],[-94.04217,43.09319],[-94.03847,43.09707],[-94.03,43.09743],[-94.03075,43.10631],[-94.02785,43.10761],[-94.02826,43.11024],[-94.02201,43.11528],[-94.01433,43.11837],[-94.00126,43.11741],[-93.99221,43.11942],[-93.98864,43.1191],[-93.98511,43.11613],[-93.98075,43.11653],[-93.97644,43.11238],[-93.97285,43.11191],[-93.95763,43.11984],[-93.95394,43.11951],[-93.9561,43.13195],[-93.95453,43.13699],[-93.9525,43.13797],[-93.95178,43.14082],[-93.94816,43.1404],[-93.94068,43.14313],[-93.93927,43.14838],[-93.93081,43.14751],[-93.91689,43.14909],[-93.9146,43.14725],[-93.90705,43.14788],[-93.89668,43.15424],[-93.8894,43.15333],[-93.8762,43.15613],[-93.87142,43.15516],[-93.86908,43.14891],[-93.86509,43.14755],[-93.86195,43.14378],[-93.8436,43.13634],[-93.84058,43.13354],[-93.83888,43.12412],[-93.82201,43.11924],[-93.81229,43.10945],[-93.80281,43.10352],[-93.79984,43.09448],[-93.79065,43.09034],[-93.78943,43.08866],[-93.79094,43.0838],[-93.78337,43.08034],[-93.78072,43.07324],[-93.77906,43.07242],[-93.78017,43.06555],[-93.77475,43.0609],[-93.77537,43.05664],[-93.76905,43.05297],[-93.76612,43.04689],[-93.75954,43.03919],[-93.7597,43.03483],[-93.7542,43.0325],[-93.75643,43.02926],[-93.75224,43.01842],[-93.75389,43.01375],[-93.75386,43.00287],[-93.75126,42.99824],[-93.75102,42.99235],[-93.74717,42.98973],[-93.74196,42.99017],[-93.73901,42.98729],[-93.74214,42.98109],[-93.7382,42.97913],[-93.74105,42.97616],[-93.73891,42.97443],[-93.74567,42.97022],[-93.74425,42.967],[-93.73709,42.9655],[-93.73665,42.96335],[-93.73985,42.96088],[-93.73969,42.95715],[-93.73742,42.94755],[-93.73471,42.94449],[-93.73913,42.93953],[-93.74084,42.93268],[-93.73676,42.9289],[-93.73221,42.92836],[-93.73215,42.92561],[-93.72645,42.91961],[-93.7254,42.91422],[-93.72239,42.91341],[-93.72049,42.91072],[-93.72432,42.90945],[-93.72647,42.90622],[-93.7255,42.90138],[-93.72876,42.89956],[-93.72697,42.89792],[-93.7287,42.894],[-93.73205,42.89173],[-93.73176,42.88699],[-93.73934,42.87921],[-93.73826,42.87406],[-93.74465,42.86427],[-93.74604,42.85938],[-93.75134,42.85799],[-93.75043,42.85631],[-93.75355,42.85445],[-93.75541,42.84434],[-93.76991,42.84425],[-93.77342,42.84591],[-93.77622,42.84439],[-93.7822,42.84433],[-93.79496,42.83255],[-93.79983,42.83403],[-93.80127,42.83291],[-93.80067,42.82954],[-93.80364,42.82822],[-93.80157,42.82458],[-93.80765,42.81859],[-93.80947,42.81504],[-93.80857,42.8131],[-93.81676,42.8066],[-93.82257,42.80414],[-93.82711,42.80408],[-93.83343,42.80696],[-93.83409,42.79768],[-93.83281,42.79371],[-93.84119,42.79028],[-93.84015,42.78804],[-93.83738,42.78809],[-93.83423,42.78516],[-93.83342,42.78213],[-93.83993,42.77703],[-93.83982,42.77242],[-93.8441,42.77201],[-93.85072,42.76595],[-93.85417,42.7669],[-93.86538,42.76447],[-93.85991,42.7521],[-93.86108,42.7478],[-93.87238,42.74862],[-93.88072,42.75226],[-93.88308,42.74722],[-93.88275,42.7417],[-93.88969,42.74016],[-93.89629,42.73391],[-93.90032,42.7323],[-93.90661,42.73278],[-93.91123,42.731],[-93.91066,42.72691],[-93.91804,42.72267],[-93.92917,42.72596],[-93.93032,42.728],[-93.94237,42.72698],[-93.94146,42.72501],[-93.94813,42.71614],[-93.94624,42.71098],[-93.95025,42.70799],[-93.95257,42.71005]],[[-93.82961,43.09667],[-93.83049,43.09417],[-93.82751,43.0902],[-93.83094,43.09039],[-93.83615,43.08768],[-93.8349,43.08563],[-93.83849,43.08275],[-93.83235,43.07433],[-93.82484,43.07147],[-93.82401,43.06664],[-93.81891,43.06387],[-93.8155,43.06483],[-93.81685,43.06894],[-93.81462,43.07268],[-93.81744,43.07694],[-93.81448,43.08558],[-93.8158,43.09754],[-93.82358,43.09794],[-93.82477,43.09525],[-93.8267,43.09866],[-93.82961,43.09667]]]}}]}