{"type":"FeatureCollection","features":[{"type":"Feature","properties":{},"geometry":{"type":"Polygon","coordinates":[[[-91.77864,41.30555],[-91.78244,41.30356],[-91.78361,41.30114],[-91.78652,41.30155],[-91.78695,41.29965],[-91.78889,41.30052],[-91.79054,41.29926],[-91.80054,41.30376],[-91.81049,41.30455],[-91.81732,41.30686],[-91.81857,41.30903],[-91.82545,41.31278],[-91.82777,41.31717],[-91.83227,41.31899],[-91.83479,41.32383],[-91.8403,41.32567],[-91.8462,41.32496],[-91.85003,41.32772],[-91.86226,41.32955],[-91.86339,41.33073],[-91.86188,41.33255],[-91.86246,41.33505],[-91.86013,41.33873],[-91.86114,41.34111],[-91.85642,41.34522],[-91.85736,41.34717],[-91.8692,41.34901],[-91.87454,41.35434],[-91.88407,41.3533],[-91.88767,41.35678],[-91.90422,41.35978],[-91.90807,41.36312],[-91.91892,41.36156],[-91.923,41.36348],[-91.92995,41.36388],[-91.94172,41.36126],[-91.96037,41.36992],[-91.9798,41.36877],[-91.9938,41.374],[-91.9992,41.38422],[-92.00696,41.38527],[-92.01001,41.3886],[-92.01546,41.38935],[-92.0184,41.39201],[-92.02522,41.39085],[-92.02689,41.39511],[-92.02672,41.40102],[-92.03742,41.40799],[-92.05112,41.41284],[-92.0516,41.41598],[-92.05643,41.42159],[-92.05376,41.42666],[-92.05448,41.43038],[-92.03544,41.43072],[-92.02532,41.43404],[-92.01466,41.4431],[-91.99795,41.44617],[-91.98482,41.44362],[-91.97614,41.43837],[-91.9723,41.43255],[-91.96796,41.43037],[-91.95042,41.42687],[-91.92911,41.42852],[-91.91339,41.43481],[-91.90345,41.43285],[-91.89532,41.43423],[-91.89171,41.42795],[-91.88482,41.43071],[-91.86809,41.42934],[-91.86066,41.42693],[-91.85411,41.42701],[-91.8378,41.42111],[-91.83495,41.42302],[-91.83361,41.4281],[-91.82746,41.43089],[-91.82012,41.42799],[-91.82022,41.42174],[-91.81294,41.41482],[-91.79584,41.4086],[-91.79282,41.40767],[-91.78612,41.40985],[-91.77912,41.40907],[-91.77542,41.41102],[-91.77177,41.40834],[-91.75901,41.4081],[-91.75583,41.40302],[-91.75538,41.39567],[-91.76747,41.3881],[-91.77211,41.3696],[-91.77107,41.36316],[-91.76632,41.36226],[-91.7572,41.35608],[-91.74772,41.35444],[-91.7367,41.34775],[-91.73125,41.34851],[-91.71686,41.34511],[-91.71735,41.34124],[-91.7155,41.33686],[-91.70683,41.33067],[-91.70701,41.32513],[-91.70479,41.31868],[-91.70227,41.31657],[-91.69153,41.31595],[-91.6893,41.31434],[-91.68637,41.30797],[-91.68602,41.29268],[-91.68767,41.29262],[-91.68869,41.28958],[-91.69406,41.28797],[-91.69765,41.28895],[-91.70422,41.28451],[-91.70985,41.28479],[-91.71376,41.28169],[-91.72546,41.28596],[-91.73561,41.29332],[-91.74798,41.2963],[-91.75072,41.29243],[-91.76201,41.28863],[-91.76319,41.28938],[-91.76159,41.29174],[-91.76309,41.29354],[-91.7747,41.30116],[-91.77718,41.3058],[-91.77864,41.30555]]]}}]}