{"type":"FeatureCollection","features":[{"type":"Feature","properties":{},"geometry":{"type":"Polygon","coordinates":[[[-93.46297,42.34908],[-93.46438,42.35092],[-93.47105,42.35073],[-93.47591,42.35402],[-93.47808,42.35173],[-93.47754,42.348],[-93.48002,42.34762],[-93.4817,42.3481],[-93.48212,42.35148],[-93.49057,42.35548],[-93.48909,42.35895],[-93.48539,42.35937],[-93.48592,42.36523],[-93.48341,42.36722],[-93.4894,42.36881],[-93.49394,42.36689],[-93.49894,42.3683],[-93.50642,42.36134],[-93.51591,42.36875],[-93.53034,42.37622],[-93.52807,42.37998],[-93.52923,42.38147],[-93.53648,42.3824],[-93.5441,42.38765],[-93.55878,42.38057],[-93.56032,42.3806],[-93.55995,42.38293],[-93.56384,42.38469],[-93.56829,42.3986],[-93.56373,42.40353],[-93.56528,42.40582],[-93.56349,42.40939],[-93.56486,42.41827],[-93.56083,42.42316],[-93.56035,42.42693],[-93.55541,42.43053],[-93.55647,42.43448],[-93.55234,42.4378],[-93.55527,42.44329],[-93.55279,42.44742],[-93.55541,42.45285],[-93.5546,42.45808],[-93.5508,42.46255],[-93.55127,42.46846],[-93.54748,42.47238],[-93.54796,42.4758],[-93.53852,42.47871],[-93.53144,42.47357],[-93.5302,42.46717],[-93.52733,42.46708],[-93.52705,42.46379],[-93.5176,42.4611],[-93.51566,42.45923],[-93.51432,42.45437],[-93.50628,42.45472],[-93.49805,42.45906],[-93.49385,42.45866],[-93.49373,42.4563],[-93.49096,42.45678],[-93.49182,42.44998],[-93.5034,42.44291],[-93.5002,42.43882],[-93.49186,42.43541],[-93.48949,42.43787],[-93.47851,42.44001],[-93.4733,42.43384],[-93.47218,42.424],[-93.46345,42.41758],[-93.45397,42.42039],[-93.45521,42.42359],[-93.45339,42.42601],[-93.45827,42.42767],[-93.45916,42.43052],[-93.46292,42.43243],[-93.46333,42.43536],[-93.46117,42.43692],[-93.45344,42.43678],[-93.45137,42.44055],[-93.44686,42.44125],[-93.4469,42.44365],[-93.44191,42.44326],[-93.4396,42.44054],[-93.42386,42.44247],[-93.41922,42.44136],[-93.41388,42.43677],[-93.41452,42.43519],[-93.41182,42.42875],[-93.40311,42.42948],[-93.40093,42.42667],[-93.39759,42.42635],[-93.39475,42.42361],[-93.39497,42.41855],[-93.39029,42.41835],[-93.38556,42.41491],[-93.38427,42.40755],[-93.37804,42.40785],[-93.3746,42.40405],[-93.37073,42.40337],[-93.36884,42.40465],[-93.3681,42.40098],[-93.36132,42.39572],[-93.35793,42.39464],[-93.35491,42.39603],[-93.3497,42.39383],[-93.34831,42.39495],[-93.34672,42.39339],[-93.34898,42.3891],[-93.34411,42.38938],[-93.34624,42.38512],[-93.34434,42.38321],[-93.34828,42.38156],[-93.35331,42.37175],[-93.36577,42.37087],[-93.36781,42.36903],[-93.37021,42.37057],[-93.37505,42.3705],[-93.38061,42.37451],[-93.38374,42.37133],[-93.3924,42.36923],[-93.40036,42.37545],[-93.403,42.37244],[-93.41066,42.3699],[-93.41296,42.37127],[-93.41334,42.3756],[-93.42666,42.37923],[-93.42811,42.37652],[-93.42558,42.37403],[-93.42925,42.37319],[-93.42684,42.36979],[-93.43098,42.37102],[-93.43308,42.36901],[-93.44023,42.36837],[-93.44698,42.37149],[-93.44921,42.37051],[-93.45064,42.36436],[-93.44818,42.36006],[-93.44957,42.3592],[-93.44789,42.35302],[-93.44949,42.35158],[-93.44793,42.34932],[-93.45533,42.34612],[-93.45875,42.34887],[-93.46297,42.34908]]]}}]}