{"type":"FeatureCollection","features":[{"type":"Feature","properties":{},"geometry":{"type":"Polygon","coordinates":[[[-95.80809,41.62697],[-95.80954,41.63032],[-95.80856,41.63247],[-95.81335,41.63487],[-95.8102,41.6427],[-95.80727,41.64413],[-95.80779,41.64688],[-95.80368,41.64859],[-95.80018,41.65322],[-95.80241,41.6563],[-95.80023,41.65818],[-95.80129,41.66156],[-95.79572,41.67008],[-95.79733,41.67176],[-95.79624,41.67592],[-95.79888,41.67965],[-95.7984,41.6832],[-95.79398,41.68578],[-95.79141,41.69328],[-95.79611,41.70187],[-95.78813,41.70532],[-95.78339,41.70533],[-95.7825,41.71731],[-95.77533,41.72703],[-95.76451,41.72928],[-95.76094,41.72771],[-95.75243,41.73182],[-95.75135,41.73532],[-95.75376,41.73674],[-95.75385,41.73986],[-95.74852,41.74304],[-95.74889,41.74717],[-95.74618,41.75245],[-95.73882,41.75465],[-95.73527,41.75377],[-95.73422,41.75827],[-95.73108,41.75997],[-95.73246,41.76144],[-95.73314,41.77024],[-95.73484,41.77227],[-95.73444,41.77732],[-95.74064,41.77896],[-95.74062,41.7822],[-95.7381,41.78547],[-95.73432,41.78528],[-95.73197,41.78805],[-95.73241,41.79895],[-95.73,41.80068],[-95.72806,41.79867],[-95.7225,41.80064],[-95.71792,41.80587],[-95.70999,41.80385],[-95.71175,41.80791],[-95.70324,41.81197],[-95.70403,41.81483],[-95.70158,41.81563],[-95.70344,41.81952],[-95.70312,41.82278],[-95.70439,41.82439],[-95.70728,41.82413],[-95.70699,41.82582],[-95.70953,41.82769],[-95.70833,41.8321],[-95.70518,41.83275],[-95.70803,41.8371],[-95.70076,41.83708],[-95.70021,41.84033],[-95.70272,41.84369],[-95.70164,41.84767],[-95.70478,41.84865],[-95.70595,41.85113],[-95.70161,41.85904],[-95.70546,41.86118],[-95.70574,41.86283],[-95.70299,41.86415],[-95.70015,41.86327],[-95.69954,41.86657],[-95.69689,41.86677],[-95.69444,41.87096],[-95.69214,41.86911],[-95.6884,41.87208],[-95.68459,41.87271],[-95.68107,41.87227],[-95.67805,41.86974],[-95.67474,41.87144],[-95.67577,41.8763],[-95.67104,41.87497],[-95.67037,41.8783],[-95.66259,41.88095],[-95.66143,41.8838],[-95.65854,41.88369],[-95.65792,41.88619],[-95.65995,41.88995],[-95.65887,41.89231],[-95.65552,41.89381],[-95.65805,41.90046],[-95.65649,41.9041],[-95.65148,41.9033],[-95.64948,41.90533],[-95.65111,41.91165],[-95.64453,41.91524],[-95.64423,41.91912],[-95.63335,41.91923],[-95.62785,41.92557],[-95.62889,41.92753],[-95.62696,41.9317],[-95.62209,41.93495],[-95.62235,41.93659],[-95.61652,41.93795],[-95.61902,41.94176],[-95.61631,41.94768],[-95.61718,41.95136],[-95.61585,41.95339],[-95.60714,41.9594],[-95.60943,41.96156],[-95.60657,41.96494],[-95.60488,41.96458],[-95.60481,41.96802],[-95.59595,41.96819],[-95.59315,41.9736],[-95.59017,41.97492],[-95.58962,41.97686],[-95.58658,41.97741],[-95.58448,41.98215],[-95.58018,41.98423],[-95.58198,41.99001],[-95.57716,41.99313],[-95.57392,41.99333],[-95.57875,41.99782],[-95.5777,42.00531],[-95.57423,42.00668],[-95.57226,42.00559],[-95.56654,42.00859],[-95.56729,42.01056],[-95.56514,42.01176],[-95.56537,42.01317],[-95.55444,42.01767],[-95.55676,42.02301],[-95.55596,42.02406],[-95.5582,42.02549],[-95.55414,42.02832],[-95.5531,42.03099],[-95.5469,42.03467],[-95.54375,42.03279],[-95.54209,42.03656],[-95.53905,42.03653],[-95.53724,42.03821],[-95.53389,42.03691],[-95.52898,42.04238],[-95.52852,42.04557],[-95.52639,42.04713],[-95.52682,42.04973],[-95.52247,42.05269],[-95.51992,42.05188],[-95.51754,42.05685],[-95.51386,42.0578],[-95.50676,42.06716],[-95.50074,42.06917],[-95.49876,42.0716],[-95.4956,42.07141],[-95.49488,42.07465],[-95.48872,42.0759],[-95.48978,42.08127],[-95.48063,42.08364],[-95.47185,42.0828],[-95.46627,42.08831],[-95.46201,42.08809],[-95.45757,42.09213],[-95.45444,42.09061],[-95.44531,42.09274],[-95.44442,42.09419],[-95.43783,42.09419],[-95.43595,42.10116],[-95.42765,42.10081],[-95.424,42.10244],[-95.42223,42.10789],[-95.42345,42.11076],[-95.41831,42.11295],[-95.41854,42.11531],[-95.41142,42.11579],[-95.41158,42.1188],[-95.40911,42.12223],[-95.41476,42.13156],[-95.41448,42.13418],[-95.41213,42.13454],[-95.4134,42.1365],[-95.40898,42.13779],[-95.40897,42.13913],[-95.41624,42.14318],[-95.41849,42.14732],[-95.41922,42.15063],[-95.41541,42.15525],[-95.42523,42.16039],[-95.42532,42.16413],[-95.4303,42.16712],[-95.42791,42.1706],[-95.42849,42.17494],[-95.42469,42.17728],[-95.42181,42.17701],[-95.41832,42.18045],[-95.42024,42.19014],[-95.41675,42.1943],[-95.40756,42.19744],[-95.40483,42.19624],[-95.39646,42.20174],[-95.38574,42.20447],[-95.38501,42.20892],[-95.38052,42.21352],[-95.38416,42.21761],[-95.38044,42.21803],[-95.37787,42.22536],[-95.3643,42.22905],[-95.36053,42.2333],[-95.35601,42.23184],[-95.35335,42.23353],[-95.35116,42.23893],[-95.35402,42.24222],[-95.35143,42.24335],[-95.34821,42.25016],[-95.34855,42.25272],[-95.34532,42.254],[-95.34426,42.25873],[-95.32703,42.26159],[-95.3281,42.26428],[-95.32607,42.26965],[-95.32714,42.27111],[-95.32033,42.27487],[-95.3206,42.2808],[-95.31878,42.28193],[-95.31087,42.28224],[-95.29721,42.27887],[-95.28521,42.28],[-95.28075,42.27663],[-95.27576,42.28307],[-95.27757,42.28534],[-95.27167,42.28923],[-95.2696,42.29294],[-95.25491,42.28578],[-95.24837,42.29147],[-95.24941,42.29711],[-95.24829,42.29801],[-95.24273,42.2986],[-95.24207,42.3011],[-95.23159,42.30559],[-95.22925,42.30845],[-95.22348,42.3081],[-95.22227,42.31228],[-95.21454,42.32063],[-95.20738,42.32181],[-95.20808,42.32504],[-95.2133,42.32978],[-95.21276,42.33231],[-95.21027,42.33334],[-95.21434,42.34314],[-95.21397,42.34571],[-95.22317,42.35142],[-95.22309,42.35813],[-95.23248,42.36652],[-95.2399,42.38224],[-95.23914,42.38368],[-95.24113,42.3848],[-95.23924,42.38962],[-95.23593,42.39094],[-95.23997,42.39503],[-95.23798,42.39604],[-95.24247,42.40014],[-95.24141,42.40342],[-95.2437,42.4048],[-95.24562,42.41032],[-95.24035,42.40984],[-95.23549,42.41227],[-95.23672,42.41539],[-95.23508,42.41682],[-95.23599,42.42221],[-95.23887,42.42423],[-95.23827,42.42909],[-95.24042,42.43165],[-95.23461,42.43422],[-95.23688,42.43817],[-95.24461,42.44445],[-95.2527,42.44398],[-95.25845,42.44554],[-95.2705,42.45178],[-95.26806,42.46095],[-95.2711,42.46338],[-95.27167,42.46742],[-95.27327,42.46763],[-95.27208,42.47292],[-95.27897,42.48457],[-95.2727,42.48695],[-95.27319,42.4908],[-95.27002,42.49767],[-95.26477,42.50063],[-95.26786,42.50828],[-95.26617,42.51375],[-95.27928,42.52315],[-95.28336,42.5219],[-95.29052,42.52356],[-95.29542,42.5276],[-95.29799,42.52761],[-95.30184,42.53393],[-95.30158,42.53622],[-95.30852,42.54055],[-95.30887,42.5427],[-95.30593,42.54439],[-95.31061,42.55264],[-95.30962,42.56571],[-95.31266,42.56795],[-95.30987,42.57204],[-95.30342,42.57246],[-95.29925,42.5766],[-95.30387,42.58106],[-95.30232,42.58392],[-95.30329,42.58534],[-95.29607,42.5914],[-95.29953,42.59418],[-95.29603,42.59661],[-95.29608,42.60393],[-95.29426,42.60505],[-95.2945,42.60748],[-95.28484,42.61048],[-95.28614,42.61412],[-95.28328,42.61677],[-95.28407,42.61949],[-95.2814,42.62078],[-95.28074,42.62638],[-95.27633,42.62638],[-95.26979,42.62354],[-95.26654,42.61843],[-95.2689,42.61628],[-95.27068,42.60932],[-95.26506,42.60811],[-95.26054,42.60453],[-95.25601,42.60494],[-95.25017,42.60089],[-95.24613,42.60455],[-95.23908,42.60619],[-95.22555,42.59859],[-95.2075,42.59716],[-95.20326,42.59541],[-95.19025,42.59731],[-95.18037,42.59322],[-95.17968,42.58946],[-95.17163,42.58592],[-95.16592,42.58802],[-95.16712,42.58988],[-95.15134,42.59062],[-95.1512,42.5883],[-95.14855,42.58615],[-95.1502,42.58428],[-95.14753,42.5809],[-95.14981,42.57925],[-95.14605,42.56798],[-95.15311,42.5662],[-95.15122,42.56451],[-95.15134,42.55622],[-95.14583,42.55148],[-95.14968,42.54605],[-95.14626,42.54349],[-95.14765,42.54107],[-95.14682,42.53986],[-95.13933,42.5408],[-95.13812,42.53715],[-95.14174,42.53389],[-95.13464,42.52402],[-95.13456,42.52126],[-95.13729,42.51732],[-95.13645,42.51502],[-95.14284,42.50495],[-95.14016,42.50322],[-95.13978,42.49611],[-95.13027,42.48824],[-95.12955,42.4807],[-95.12734,42.47795],[-95.1219,42.47582],[-95.12064,42.47273],[-95.12348,42.46428],[-95.11918,42.4589],[-95.12128,42.44953],[-95.12447,42.44739],[-95.12189,42.44312],[-95.117,42.44026],[-95.11519,42.43646],[-95.12008,42.42942],[-95.11864,42.42706],[-95.12,42.42295],[-95.116,42.42077],[-95.11791,42.41752],[-95.11688,42.4144],[-95.11426,42.41271],[-95.11637,42.41067],[-95.10981,42.40412],[-95.1109,42.40104],[-95.10967,42.39926],[-95.1136,42.39721],[-95.11452,42.39285],[-95.11614,42.39332],[-95.11968,42.39021],[-95.11666,42.38366],[-95.11834,42.38054],[-95.11798,42.37565],[-95.11477,42.373],[-95.11925,42.36659],[-95.11281,42.3631],[-95.11389,42.35981],[-95.10327,42.35494],[-95.09874,42.34996],[-95.09608,42.34101],[-95.08873,42.33004],[-95.08843,42.32657],[-95.08151,42.3125],[-95.07414,42.31261],[-95.05904,42.30974],[-95.05824,42.30432],[-95.06167,42.29866],[-95.05665,42.29418],[-95.05873,42.28872],[-95.05691,42.287],[-95.05735,42.2811],[-95.05835,42.27917],[-95.06191,42.27878],[-95.06287,42.27568],[-95.07186,42.27514],[-95.07255,42.27029],[-95.07174,42.25677],[-95.06818,42.25613],[-95.06514,42.25297],[-95.06248,42.24595],[-95.05917,42.24315],[-95.05967,42.23764],[-95.05778,42.23612],[-95.05049,42.23569],[-95.04851,42.23114],[-95.04536,42.22917],[-95.02901,42.22729],[-95.03035,42.22161],[-95.02403,42.21965],[-95.02567,42.21644],[-95.01746,42.21093],[-95.0115,42.21302],[-95.00744,42.21013],[-95.00949,42.20877],[-95.00832,42.20587],[-95.00315,42.20531],[-94.99974,42.20244],[-94.99426,42.20122],[-94.99683,42.19882],[-94.99394,42.1965],[-95.00222,42.19647],[-95.00443,42.19473],[-95.00968,42.19581],[-95.00862,42.19365],[-95.0101,42.1914],[-95.01654,42.18932],[-95.01767,42.18691],[-95.02531,42.18913],[-95.03447,42.18865],[-95.04088,42.18213],[-95.03908,42.17868],[-95.04162,42.17648],[-95.042,42.17253],[-95.04501,42.16983],[-95.0492,42.16957],[-95.04571,42.16637],[-95.05132,42.16663],[-95.05382,42.16098],[-95.05971,42.1604],[-95.06487,42.15748],[-95.05561,42.14752],[-95.04268,42.14618],[-95.03951,42.14382],[-95.03871,42.13944],[-95.04112,42.13633],[-95.04013,42.13414],[-95.03382,42.13016],[-95.03423,42.1266],[-95.03182,42.12439],[-95.02698,42.12233],[-95.02796,42.11556],[-95.03448,42.11443],[-95.0372,42.11156],[-95.03666,42.10966],[-95.03851,42.1074],[-95.03708,42.10657],[-95.03839,42.10484],[-95.03703,42.10357],[-95.04083,42.10235],[-95.03862,42.09962],[-95.03979,42.09532],[-95.04175,42.09479],[-95.04274,42.09214],[-95.04023,42.09125],[-95.03905,42.08859],[-95.03477,42.08725],[-95.03434,42.08375],[-95.02835,42.07998],[-95.0279,42.07395],[-95.02514,42.07082],[-95.02943,42.06919],[-95.0316,42.0699],[-95.04077,42.06464],[-95.03977,42.06065],[-95.05011,42.06054],[-95.0515,42.05698],[-95.05001,42.0554],[-95.05314,42.05392],[-95.05076,42.0456],[-95.04634,42.04281],[-95.04967,42.03882],[-95.05878,42.03739],[-95.0595,42.0318],[-95.06161,42.03118],[-95.05968,42.02736],[-95.06464,42.02722],[-95.06651,42.02445],[-95.07064,42.02336],[-95.08106,42.02552],[-95.08647,42.02292],[-95.0923,42.02562],[-95.09656,42.02521],[-95.11277,42.02988],[-95.11837,42.02487],[-95.12072,42.02514],[-95.12418,42.02192],[-95.12775,42.02126],[-95.12657,42.01737],[-95.13224,42.01665],[-95.13651,42.01976],[-95.14167,42.02035],[-95.14959,42.01376],[-95.15654,42.01653],[-95.15968,42.01495],[-95.16472,42.01783],[-95.16763,42.01704],[-95.16856,42.02016],[-95.17284,42.02169],[-95.17431,42.02117],[-95.17367,42.01785],[-95.17815,42.01833],[-95.17884,42.01578],[-95.18388,42.01575],[-95.18373,42.01215],[-95.18604,42.01017],[-95.19586,42.00907],[-95.19563,42.00682],[-95.19822,42.00306],[-95.20163,42.00229],[-95.20233,42.00018],[-95.20003,41.99822],[-95.19982,41.99449],[-95.20934,41.99617],[-95.21328,41.99526],[-95.21804,41.99301],[-95.21673,41.98945],[-95.21863,41.98776],[-95.22649,41.98958],[-95.23008,41.98803],[-95.23646,41.99166],[-95.23865,41.99037],[-95.23689,41.98779],[-95.24053,41.98576],[-95.24837,41.98702],[-95.24726,41.98381],[-95.24988,41.98254],[-95.24799,41.98078],[-95.25206,41.97629],[-95.25146,41.97231],[-95.25601,41.96984],[-95.25346,41.96527],[-95.25425,41.96373],[-95.2512,41.96022],[-95.25259,41.95905],[-95.26485,41.95605],[-95.27339,41.95732],[-95.27515,41.95945],[-95.28328,41.95986],[-95.28641,41.95578],[-95.29683,41.95404],[-95.29906,41.94895],[-95.29508,41.94652],[-95.29512,41.94426],[-95.29673,41.94393],[-95.28922,41.9386],[-95.28863,41.93603],[-95.28851,41.93153],[-95.29128,41.92558],[-95.29943,41.92763],[-95.30671,41.92554],[-95.30866,41.92714],[-95.31644,41.9233],[-95.322,41.92505],[-95.32412,41.92013],[-95.3328,41.92189],[-95.33981,41.91635],[-95.33895,41.91423],[-95.34387,41.91138],[-95.34355,41.90873],[-95.34618,41.90572],[-95.35014,41.90363],[-95.35449,41.90511],[-95.36032,41.89945],[-95.35989,41.89805],[-95.36776,41.8946],[-95.36881,41.89273],[-95.37386,41.89839],[-95.38122,41.89644],[-95.38479,41.89764],[-95.38509,41.89482],[-95.39398,41.89014],[-95.39435,41.88722],[-95.39671,41.8854],[-95.39506,41.88366],[-95.39711,41.88059],[-95.40167,41.87902],[-95.40157,41.87645],[-95.40392,41.8744],[-95.40787,41.87379],[-95.41536,41.87756],[-95.41427,41.87909],[-95.41627,41.88093],[-95.4197,41.8813],[-95.42721,41.88824],[-95.43219,41.88981],[-95.43894,41.88732],[-95.44023,41.88582],[-95.43572,41.8824],[-95.43519,41.87911],[-95.43666,41.87722],[-95.43165,41.87072],[-95.43275,41.86568],[-95.42904,41.86298],[-95.42862,41.85866],[-95.42482,41.85686],[-95.426,41.85393],[-95.42305,41.85008],[-95.42663,41.84784],[-95.43312,41.84872],[-95.43925,41.84147],[-95.45628,41.83579],[-95.45492,41.83059],[-95.45852,41.82825],[-95.45455,41.82421],[-95.46928,41.8183],[-95.46979,41.81613],[-95.47257,41.81557],[-95.47372,41.81153],[-95.47865,41.81171],[-95.48063,41.80944],[-95.48183,41.80336],[-95.48447,41.80094],[-95.48218,41.79951],[-95.48414,41.79186],[-95.48246,41.78866],[-95.48591,41.78412],[-95.48391,41.77948],[-95.49249,41.7764],[-95.49848,41.77812],[-95.50177,41.7754],[-95.50644,41.77708],[-95.52022,41.76941],[-95.52501,41.75954],[-95.5292,41.75747],[-95.52868,41.7531],[-95.5389,41.74688],[-95.54444,41.74128],[-95.54071,41.73728],[-95.54534,41.73275],[-95.54447,41.73099],[-95.54611,41.72858],[-95.55597,41.72774],[-95.55803,41.72413],[-95.56388,41.72014],[-95.56686,41.72034],[-95.56899,41.7234],[-95.57737,41.72772],[-95.5839,41.72575],[-95.58426,41.72247],[-95.59194,41.71827],[-95.59279,41.71574],[-95.59646,41.71476],[-95.59604,41.7092],[-95.60125,41.70565],[-95.60037,41.70382],[-95.6104,41.69733],[-95.61314,41.69394],[-95.61209,41.69181],[-95.61719,41.68695],[-95.61664,41.68329],[-95.62029,41.68048],[-95.61973,41.67682],[-95.61471,41.67277],[-95.61819,41.67062],[-95.61924,41.66646],[-95.62656,41.66298],[-95.62799,41.6638],[-95.63205,41.66038],[-95.63527,41.64974],[-95.63299,41.64628],[-95.62995,41.64596],[-95.62943,41.64447],[-95.63384,41.63985],[-95.63545,41.63311],[-95.64144,41.627],[-95.64513,41.62561],[-95.64836,41.62631],[-95.65018,41.61979],[-95.65777,41.6203],[-95.66015,41.61789],[-95.67518,41.62548],[-95.68754,41.61854],[-95.69497,41.62139],[-95.69791,41.61885],[-95.70327,41.62586],[-95.71072,41.62664],[-95.71533,41.62336],[-95.71621,41.6205],[-95.722,41.61835],[-95.72524,41.62426],[-95.73054,41.62505],[-95.73945,41.63138],[-95.74363,41.63061],[-95.74851,41.63451],[-95.7553,41.6305],[-95.7604,41.63076],[-95.76329,41.63425],[-95.76741,41.63281],[-95.78074,41.63295],[-95.78579,41.63081],[-95.79237,41.63132],[-95.80504,41.6236],[-95.80778,41.62426],[-95.80809,41.62697]]]}}]}