{"type":"FeatureCollection","features":[{"type":"Feature","properties":{},"geometry":{"type":"Polygon","coordinates":[[[-91.39392,43.05452],[-91.40056,43.06067],[-91.40901,43.06201],[-91.41189,43.06082],[-91.42565,43.06235],[-91.42937,43.05962],[-91.44708,43.05598],[-91.45329,43.06073],[-91.45954,43.06045],[-91.46273,43.0623],[-91.46568,43.0604],[-91.47514,43.0615],[-91.48337,43.05844],[-91.49227,43.05848],[-91.4942,43.0572],[-91.51326,43.06619],[-91.52221,43.06542],[-91.53012,43.06919],[-91.52941,43.07178],[-91.53472,43.076],[-91.53417,43.08172],[-91.53791,43.08678],[-91.53857,43.09245],[-91.54364,43.09519],[-91.55141,43.09367],[-91.56052,43.08602],[-91.56814,43.08339],[-91.59124,43.08739],[-91.6028,43.098],[-91.61558,43.09881],[-91.62709,43.10233],[-91.63084,43.10028],[-91.63416,43.10066],[-91.64092,43.10519],[-91.64332,43.10335],[-91.6534,43.1013],[-91.65902,43.10565],[-91.67102,43.10676],[-91.67204,43.10945],[-91.6832,43.11707],[-91.68925,43.11568],[-91.70142,43.11967],[-91.70361,43.12285],[-91.706,43.12349],[-91.71176,43.12174],[-91.71715,43.12737],[-91.72328,43.13053],[-91.72549,43.134],[-91.73423,43.13499],[-91.74217,43.14043],[-91.74821,43.14171],[-91.75482,43.14065],[-91.75796,43.14397],[-91.7724,43.1498],[-91.77625,43.15425],[-91.77373,43.16329],[-91.77624,43.16662],[-91.77255,43.17013],[-91.77102,43.17628],[-91.76643,43.17851],[-91.76587,43.18149],[-91.75932,43.18404],[-91.75734,43.18757],[-91.75396,43.18676],[-91.74913,43.18842],[-91.74803,43.19213],[-91.74603,43.1928],[-91.74009,43.1875],[-91.72834,43.18323],[-91.72423,43.18528],[-91.71834,43.18465],[-91.71237,43.1864],[-91.70974,43.18876],[-91.70674,43.18709],[-91.70432,43.18875],[-91.69816,43.18847],[-91.68904,43.18368],[-91.67397,43.19313],[-91.66489,43.19488],[-91.66016,43.20032],[-91.6601,43.20315],[-91.65765,43.20443],[-91.65085,43.20044],[-91.64385,43.20351],[-91.6412,43.20081],[-91.63487,43.20258],[-91.62588,43.20176],[-91.62551,43.20513],[-91.62004,43.21178],[-91.617,43.21867],[-91.6187,43.22115],[-91.61739,43.22616],[-91.61453,43.22827],[-91.61579,43.23643],[-91.61069,43.24186],[-91.60203,43.24199],[-91.60129,43.24354],[-91.59669,43.24442],[-91.59515,43.24676],[-91.59672,43.25102],[-91.59254,43.25639],[-91.58529,43.25978],[-91.58365,43.26203],[-91.5778,43.26326],[-91.56791,43.2626],[-91.56557,43.26379],[-91.55894,43.26231],[-91.54919,43.26537],[-91.54082,43.26479],[-91.53513,43.27212],[-91.52275,43.27243],[-91.51793,43.27485],[-91.51415,43.27469],[-91.51178,43.27671],[-91.50709,43.26929],[-91.5041,43.26837],[-91.50453,43.26656],[-91.50066,43.2608],[-91.50117,43.25698],[-91.48712,43.24808],[-91.48411,43.23945],[-91.47181,43.23441],[-91.46588,43.23526],[-91.46402,43.23418],[-91.46454,43.23099],[-91.46114,43.22709],[-91.44965,43.21996],[-91.44674,43.22014],[-91.4404,43.21525],[-91.41914,43.20766],[-91.40509,43.20646],[-91.40278,43.20516],[-91.40156,43.20108],[-91.39407,43.198],[-91.38547,43.19848],[-91.37693,43.19365],[-91.36815,43.19533],[-91.36462,43.19252],[-91.35445,43.1915],[-91.34972,43.18769],[-91.32612,43.18334],[-91.31959,43.17747],[-91.31229,43.17559],[-91.30302,43.1645],[-91.29355,43.16174],[-91.28934,43.15579],[-91.27111,43.15341],[-91.26193,43.14997],[-91.25711,43.14645],[-91.25678,43.13899],[-91.26449,43.13085],[-91.25927,43.12528],[-91.25973,43.12167],[-91.2577,43.11957],[-91.24861,43.11897],[-91.24839,43.11682],[-91.25225,43.11277],[-91.24743,43.10925],[-91.27026,43.08707],[-91.29397,43.08511],[-91.29805,43.08253],[-91.29916,43.07754],[-91.30374,43.07691],[-91.30471,43.07447],[-91.31203,43.07775],[-91.31649,43.0757],[-91.32583,43.07469],[-91.3324,43.07627],[-91.34006,43.07402],[-91.34374,43.06688],[-91.35071,43.06321],[-91.35396,43.05782],[-91.35883,43.05893],[-91.36313,43.05735],[-91.36511,43.05861],[-91.3687,43.05803],[-91.37349,43.05514],[-91.37808,43.05547],[-91.38626,43.05087],[-91.39392,43.05452]]]}}]}