{"type":"FeatureCollection","features":[{"type":"Feature","properties":{},"geometry":{"type":"Polygon","coordinates":[[[-92.48296,42.7002],[-92.48296,42.69604],[-92.49129,42.69604],[-92.49129,42.68353],[-92.48713,42.68353],[-92.48713,42.67937],[-92.48296,42.67937],[-92.48296,42.6752],[-92.47879,42.6752],[-92.47879,42.6627],[-92.47463,42.6627],[-92.47463,42.66687],[-92.47046,42.66687],[-92.47046,42.67103],[-92.46629,42.67103],[-92.46629,42.6752],[-92.46213,42.6752],[-92.46213,42.68353],[-92.46629,42.68353],[-92.46629,42.6877],[-92.46213,42.6877],[-92.46213,42.69604],[-92.45796,42.69604],[-92.45796,42.7002],[-92.48296,42.7002]]]}}]}