{"type":"FeatureCollection","features":[{"type":"Feature","properties":{},"geometry":{"type":"Polygon","coordinates":[[[-93.8039,42.33767],[-93.8039,42.33351],[-93.81223,42.33351],[-93.81223,42.32934],[-93.8164,42.32934],[-93.8164,42.32517],[-93.83307,42.32517],[-93.83307,42.32101],[-93.83723,42.32101],[-93.83723,42.32517],[-93.84974,42.32517],[-93.84974,42.32934],[-93.8539,42.32934],[-93.8539,42.32517],[-93.85807,42.32517],[-93.85807,42.32101],[-93.86224,42.32101],[-93.86224,42.31684],[-93.87474,42.31684],[-93.87474,42.32101],[-93.87891,42.32101],[-93.87891,42.31684],[-93.89141,42.31684],[-93.89141,42.31267],[-93.89557,42.31267],[-93.89557,42.30434],[-93.90807,42.30434],[-93.90807,42.2835],[-93.91224,42.2835],[-93.91224,42.27934],[-93.91641,42.27934],[-93.91641,42.27517],[-93.92057,42.27517],[-93.92057,42.271],[-93.92474,42.271],[-93.92474,42.26683],[-93.92891,42.26683],[-93.92891,42.25433],[-93.93308,42.25433],[-93.93308,42.25017],[-93.93724,42.25017],[-93.93724,42.23767],[-93.95808,42.23767],[-93.95808,42.22933],[-93.96224,42.22933],[-93.96224,42.22516],[-93.96641,42.22516],[-93.96641,42.221],[-93.96224,42.221],[-93.96224,42.21683],[-93.95808,42.21683],[-93.95808,42.21266],[-93.95391,42.21266],[-93.95391,42.2085],[-93.93308,42.2085],[-93.93308,42.20016],[-93.92891,42.20016],[-93.92891,42.196],[-93.91641,42.196],[-93.91641,42.18349],[-93.92057,42.18349],[-93.92057,42.17516],[-93.91224,42.17516],[-93.91224,42.16683],[-93.90807,42.16683],[-93.90807,42.16266],[-93.89974,42.16266],[-93.89974,42.15849],[-93.89557,42.15849],[-93.89557,42.15433],[-93.89141,42.15433],[-93.89141,42.15849],[-93.88307,42.15849],[-93.88307,42.15433],[-93.87474,42.15433],[-93.87474,42.15016],[-93.87057,42.15016],[-93.87057,42.14599],[-93.87474,42.14599],[-93.87474,42.14182],[-93.88724,42.14182],[-93.88724,42.13766],[-93.89557,42.13766],[-93.89557,42.12932],[-93.89141,42.12932],[-93.89141,42.12516],[-93.88724,42.12516],[-93.88724,42.12099],[-93.88307,42.12099],[-93.88307,42.11266],[-93.87474,42.11266],[-93.87474,42.10849],[-93.8664,42.10849],[-93.8664,42.11266],[-93.85807,42.11266],[-93.85807,42.10432],[-93.8539,42.10432],[-93.8539,42.10015],[-93.84974,42.10015],[-93.84974,42.07932],[-93.84557,42.07932],[-93.84557,42.07515],[-93.83307,42.07515],[-93.83307,42.06682],[-93.83723,42.06682],[-93.83723,42.06265],[-93.83307,42.06265],[-93.83307,42.05848],[-93.8289,42.05848],[-93.8289,42.05432],[-93.82473,42.05432],[-93.82473,42.04182],[-93.8164,42.04182],[-93.8164,42.03765],[-93.81223,42.03765],[-93.81223,42.04182],[-93.8039,42.04182],[-93.8039,42.03765],[-93.79556,42.03765],[-93.79556,42.03348],[-93.7914,42.03348],[-93.7914,42.02932],[-93.78306,42.02932],[-93.78306,42.02515],[-93.77473,42.02515],[-93.77473,42.02098],[-93.77056,42.02098],[-93.77056,42.01681],[-93.76223,42.01681],[-93.76223,42.01265],[-93.75806,42.01265],[-93.75806,42.01681],[-93.74973,42.01681],[-93.74973,42.01265],[-93.71639,42.01265],[-93.71639,42.01681],[-93.70389,42.01681],[-93.70389,42.02098],[-93.69556,42.02098],[-93.69556,42.02515],[-93.67472,42.02515],[-93.67472,42.02098],[-93.67055,42.02098],[-93.67055,42.02515],[-93.66639,42.02515],[-93.66639,42.02932],[-93.66222,42.02932],[-93.66222,42.03348],[-93.65805,42.03348],[-93.65805,42.04182],[-93.65389,42.04182],[-93.65389,42.04598],[-93.65805,42.04598],[-93.65805,42.05015],[-93.64972,42.05015],[-93.64972,42.05432],[-93.64555,42.05432],[-93.64555,42.05848],[-93.64972,42.05848],[-93.64972,42.06265],[-93.65389,42.06265],[-93.65389,42.06682],[-93.65805,42.06682],[-93.65805,42.07515],[-93.66222,42.07515],[-93.66222,42.08349],[-93.65805,42.08349],[-93.65805,42.08765],[-93.65389,42.08765],[-93.65389,42.09599],[-93.64972,42.09599],[-93.64972,42.10015],[-93.64555,42.10015],[-93.64555,42.10432],[-93.64139,42.10432],[-93.64139,42.10849],[-93.63722,42.10849],[-93.63722,42.11682],[-93.63305,42.11682],[-93.63305,42.12099],[-93.62888,42.12099],[-93.62888,42.12516],[-93.62472,42.12516],[-93.62472,42.13349],[-93.62888,42.13349],[-93.62888,42.13766],[-93.63305,42.13766],[-93.63305,42.14182],[-93.64139,42.14182],[-93.64139,42.14599],[-93.64555,42.14599],[-93.64555,42.15016],[-93.65389,42.15016],[-93.65389,42.15849],[-93.66222,42.15849],[-93.66222,42.16266],[-93.67055,42.16266],[-93.67055,42.16683],[-93.67889,42.16683],[-93.67889,42.17099],[-93.68306,42.17099],[-93.68306,42.17516],[-93.68722,42.17516],[-93.68722,42.17933],[-93.69139,42.17933],[-93.69139,42.18349],[-93.69972,42.18349],[-93.69972,42.18766],[-93.70389,42.18766],[-93.70389,42.19183],[-93.70806,42.19183],[-93.70806,42.196],[-93.71223,42.196],[-93.71223,42.20016],[-93.71639,42.20016],[-93.71639,42.20433],[-93.72056,42.20433],[-93.72056,42.2085],[-93.72473,42.2085],[-93.72473,42.21266],[-93.72056,42.21266],[-93.72056,42.21683],[-93.72473,42.21683],[-93.72473,42.22933],[-93.73306,42.22933],[-93.73306,42.23767],[-93.73723,42.23767],[-93.73723,42.24183],[-93.74139,42.24183],[-93.74139,42.246],[-93.74973,42.246],[-93.74973,42.25017],[-93.75806,42.25017],[-93.75806,42.25433],[-93.7664,42.25433],[-93.7664,42.2585],[-93.77056,42.2585],[-93.77056,42.271],[-93.77473,42.271],[-93.77473,42.27517],[-93.7789,42.27517],[-93.7789,42.29184],[-93.78306,42.29184],[-93.78306,42.31684],[-93.78723,42.31684],[-93.78723,42.32101],[-93.78306,42.32101],[-93.78306,42.32517],[-93.78723,42.32517],[-93.78723,42.32934],[-93.79556,42.32934],[-93.79556,42.33351],[-93.79973,42.33351],[-93.79973,42.33767],[-93.8039,42.33767]]]}}]}