{"type":"FeatureCollection","features":[{"type":"Feature","properties":{},"geometry":{"type":"Polygon","coordinates":[[[-92.72045,43.1896],[-92.72666,43.19163],[-92.73071,43.19054],[-92.73557,43.19159],[-92.74763,43.19676],[-92.75197,43.20216],[-92.76815,43.20933],[-92.77635,43.21652],[-92.77505,43.22052],[-92.76281,43.21838],[-92.75813,43.22184],[-92.74988,43.2198],[-92.74524,43.22274],[-92.74763,43.2271],[-92.74671,43.23293],[-92.74497,43.23344],[-92.74335,43.23909],[-92.7452,43.24526],[-92.74142,43.24845],[-92.73724,43.24554],[-92.72835,43.24335],[-92.72157,43.24409],[-92.71725,43.24113],[-92.71945,43.23989],[-92.72108,43.23329],[-92.7173,43.22876],[-92.71858,43.22725],[-92.70767,43.22395],[-92.70755,43.21354],[-92.70556,43.2058],[-92.71078,43.20213],[-92.71452,43.20333],[-92.71933,43.20122],[-92.71761,43.19859],[-92.71986,43.19797],[-92.71762,43.19437],[-92.71831,43.19127],[-92.72045,43.1896]]]}}]}