{"type":"FeatureCollection","features":[{"type":"Feature","properties":{},"geometry":{"type":"Polygon","coordinates":[[[-91.39464,41.75064],[-91.39801,41.74662],[-91.39703,41.74446],[-91.40677,41.7476],[-91.40743,41.74587],[-91.41228,41.745],[-91.42363,41.74955],[-91.43008,41.74892],[-91.43184,41.74624],[-91.43366,41.74647],[-91.43656,41.75452],[-91.43368,41.75663],[-91.43175,41.75574],[-91.43029,41.7605],[-91.42477,41.76071],[-91.42229,41.7667],[-91.42497,41.77083],[-91.42091,41.7743],[-91.41442,41.76953],[-91.40952,41.7695],[-91.40318,41.76602],[-91.39894,41.76761],[-91.38748,41.76494],[-91.38772,41.76284],[-91.38473,41.76147],[-91.38488,41.75893],[-91.3873,41.75847],[-91.3874,41.75638],[-91.39198,41.75611],[-91.39707,41.7524],[-91.39464,41.75064]]]}}]}