{"type":"FeatureCollection","features":[{"type":"Feature","properties":{},"geometry":{"type":"Polygon","coordinates":[[[-93.21052,42.29908],[-93.24064,42.30655],[-93.24463,42.30389],[-93.25617,42.30448],[-93.26866,42.30915],[-93.27062,42.30682],[-93.28029,42.30383],[-93.28227,42.30087],[-93.28496,42.30258],[-93.28632,42.30814],[-93.28065,42.31186],[-93.27928,42.31744],[-93.29097,42.32032],[-93.30163,42.31968],[-93.30487,42.32834],[-93.31197,42.32229],[-93.31668,42.32168],[-93.31435,42.32798],[-93.31886,42.32974],[-93.32049,42.33421],[-93.32803,42.33772],[-93.33979,42.32925],[-93.34745,42.32867],[-93.34799,42.33187],[-93.35482,42.33611],[-93.35689,42.34022],[-93.35804,42.34445],[-93.35539,42.34866],[-93.35837,42.349],[-93.35878,42.35164],[-93.37876,42.35573],[-93.38168,42.36044],[-93.3926,42.35913],[-93.3955,42.36245],[-93.39976,42.35871],[-93.40353,42.36333],[-93.40645,42.36169],[-93.41102,42.36187],[-93.41785,42.35588],[-93.42273,42.35568],[-93.42495,42.35839],[-93.43089,42.35298],[-93.43239,42.34936],[-93.43942,42.34646],[-93.44793,42.34932],[-93.45533,42.34612],[-93.45875,42.34887],[-93.46297,42.34908],[-93.46438,42.35092],[-93.47105,42.35073],[-93.47591,42.35402],[-93.47808,42.35173],[-93.47754,42.348],[-93.48002,42.34762],[-93.4817,42.3481],[-93.48212,42.35148],[-93.49057,42.35548],[-93.48909,42.35895],[-93.48539,42.35937],[-93.48592,42.36523],[-93.48341,42.36722],[-93.4894,42.36881],[-93.49394,42.36689],[-93.49894,42.3683],[-93.50642,42.36134],[-93.51591,42.36875],[-93.53034,42.37622],[-93.52807,42.37998],[-93.52923,42.38147],[-93.53648,42.3824],[-93.5441,42.38765],[-93.56012,42.38047],[-93.55995,42.38293],[-93.56384,42.38469],[-93.56596,42.38823],[-93.56829,42.3986],[-93.56373,42.40353],[-93.56528,42.40582],[-93.56349,42.40939],[-93.56486,42.41827],[-93.56083,42.42316],[-93.56035,42.42693],[-93.55541,42.43053],[-93.55647,42.43448],[-93.55234,42.4378],[-93.55527,42.44329],[-93.55279,42.44742],[-93.55541,42.45285],[-93.5546,42.45808],[-93.5508,42.46255],[-93.55127,42.46846],[-93.54748,42.47238],[-93.54796,42.4758],[-93.53852,42.47871],[-93.53144,42.47357],[-93.5302,42.46717],[-93.52733,42.46708],[-93.52705,42.46379],[-93.5176,42.4611],[-93.51566,42.45923],[-93.51432,42.45437],[-93.50628,42.45472],[-93.49805,42.45906],[-93.49385,42.45866],[-93.49373,42.4563],[-93.49096,42.45678],[-93.49182,42.44998],[-93.5034,42.44291],[-93.5002,42.43882],[-93.49186,42.43541],[-93.48949,42.43787],[-93.47851,42.44001],[-93.4733,42.43384],[-93.47218,42.424],[-93.46345,42.41758],[-93.45397,42.42039],[-93.45521,42.42359],[-93.45339,42.42601],[-93.45827,42.42767],[-93.45916,42.43052],[-93.46292,42.43243],[-93.46333,42.43536],[-93.46117,42.43692],[-93.45344,42.43678],[-93.45137,42.44055],[-93.44686,42.44125],[-93.4469,42.44365],[-93.44191,42.44326],[-93.4396,42.44054],[-93.42916,42.44103],[-93.42786,42.44243],[-93.41922,42.44136],[-93.41388,42.43677],[-93.41452,42.43519],[-93.41182,42.42875],[-93.40311,42.42948],[-93.40093,42.42667],[-93.39759,42.42635],[-93.39475,42.42361],[-93.39564,42.42178],[-93.39393,42.41765],[-93.39029,42.41835],[-93.38556,42.41491],[-93.38427,42.40755],[-93.37804,42.40785],[-93.3746,42.40405],[-93.37073,42.40337],[-93.36884,42.40465],[-93.3681,42.40098],[-93.36132,42.39572],[-93.35793,42.39464],[-93.35491,42.39603],[-93.3497,42.39383],[-93.34831,42.39495],[-93.34672,42.39339],[-93.34898,42.3891],[-93.34411,42.38938],[-93.34624,42.38512],[-93.34207,42.3794],[-93.32812,42.37924],[-93.32712,42.37602],[-93.32435,42.37851],[-93.31357,42.3745],[-93.31119,42.36602],[-93.30677,42.36453],[-93.3029,42.36008],[-93.30517,42.35524],[-93.30468,42.35218],[-93.3003,42.34916],[-93.29063,42.35406],[-93.28391,42.34825],[-93.28583,42.34544],[-93.27834,42.34416],[-93.27159,42.34662],[-93.27371,42.3481],[-93.27214,42.35219],[-93.26468,42.35686],[-93.26197,42.35534],[-93.26463,42.35285],[-93.2638,42.34922],[-93.25921,42.34744],[-93.25878,42.34492],[-93.25184,42.34393],[-93.25586,42.33737],[-93.2535,42.33613],[-93.25342,42.33364],[-93.25611,42.33033],[-93.25481,42.3282],[-93.23272,42.32868],[-93.22898,42.3307],[-93.22837,42.3331],[-93.22065,42.33576],[-93.20748,42.33105],[-93.20232,42.33184],[-93.1983,42.32884],[-93.19501,42.33044],[-93.18839,42.33],[-93.18691,42.32755],[-93.19166,42.32474],[-93.19556,42.31853],[-93.20468,42.31877],[-93.21046,42.31404],[-93.21007,42.3099],[-93.21342,42.30686],[-93.20774,42.30231],[-93.21052,42.29908]]]}}]}