{"type":"FeatureCollection","features":[{"type":"Feature","properties":{},"geometry":{"type":"Polygon","coordinates":[[[-93.41637,42.43351],[-93.41637,42.42935],[-93.4247,42.42935],[-93.4247,42.42518],[-93.42887,42.42518],[-93.42887,42.42101],[-93.43304,42.42101],[-93.43304,42.41685],[-93.4372,42.41685],[-93.4372,42.40435],[-93.43304,42.40435],[-93.43304,42.40018],[-93.42887,42.40018],[-93.42887,42.39601],[-93.42054,42.39601],[-93.42054,42.39184],[-93.40803,42.39184],[-93.40803,42.38768],[-93.3997,42.38768],[-93.3997,42.39601],[-93.39553,42.39601],[-93.39553,42.40018],[-93.39137,42.40018],[-93.39137,42.40435],[-93.3872,42.40435],[-93.3872,42.40851],[-93.38303,42.40851],[-93.38303,42.41268],[-93.39137,42.41268],[-93.39137,42.42101],[-93.39553,42.42101],[-93.39553,42.42518],[-93.3997,42.42518],[-93.3997,42.42935],[-93.40387,42.42935],[-93.40387,42.43351],[-93.41637,42.43351]]]}}]}