{"type":"FeatureCollection","features":[{"type":"Feature","properties":{},"geometry":{"type":"Polygon","coordinates":[[[-90.81027,42.43467],[-90.80993,42.43651],[-90.81444,42.44433],[-90.81669,42.44562],[-90.81618,42.4471],[-90.82131,42.45079],[-90.8253,42.4516],[-90.83851,42.44773],[-90.84427,42.44848],[-90.85117,42.45833],[-90.84967,42.46482],[-90.84068,42.46833],[-90.83698,42.47237],[-90.83389,42.47323],[-90.83065,42.4778],[-90.82809,42.4782],[-90.82797,42.48272],[-90.83009,42.48581],[-90.82537,42.48972],[-90.80435,42.49069],[-90.79328,42.48617],[-90.78227,42.48604],[-90.77934,42.48068],[-90.7779,42.48049],[-90.77114,42.48329],[-90.76528,42.48214],[-90.75911,42.48308],[-90.75074,42.48734],[-90.74589,42.48678],[-90.73292,42.49051],[-90.7256,42.48722],[-90.71692,42.48631],[-90.71725,42.48382],[-90.7077,42.47921],[-90.70199,42.47285],[-90.69763,42.47697],[-90.69156,42.47254],[-90.68556,42.47238],[-90.67714,42.46887],[-90.67866,42.46451],[-90.68173,42.46369],[-90.68238,42.46154],[-90.67824,42.45719],[-90.6781,42.4536],[-90.68229,42.45182],[-90.68645,42.44534],[-90.69649,42.44474],[-90.70279,42.44072],[-90.70319,42.43796],[-90.70893,42.43565],[-90.71288,42.43621],[-90.71392,42.43202],[-90.71937,42.42814],[-90.71642,42.42345],[-90.72351,42.42005],[-90.72629,42.41445],[-90.74942,42.40742],[-90.75046,42.40417],[-90.7483,42.40029],[-90.75461,42.39947],[-90.75546,42.39573],[-90.76384,42.39393],[-90.7741,42.384],[-90.78108,42.38196],[-90.78376,42.37807],[-90.78215,42.37249],[-90.78996,42.36892],[-90.79514,42.36832],[-90.80229,42.37503],[-90.80952,42.37817],[-90.81055,42.38114],[-90.81521,42.38496],[-90.81475,42.38641],[-90.81849,42.38897],[-90.81819,42.39231],[-90.82265,42.39759],[-90.82328,42.40184],[-90.82937,42.40931],[-90.82956,42.41302],[-90.82769,42.4145],[-90.82994,42.42372],[-90.81962,42.42412],[-90.80375,42.42993],[-90.81027,42.43467]]]}}]}