{"type":"FeatureCollection","features":[{"type":"Feature","properties":{},"geometry":{"type":"Polygon","coordinates":[[[-91.97459,41.77096],[-91.97459,41.76263],[-91.98292,41.76263],[-91.98292,41.75846],[-91.98709,41.75846],[-91.98709,41.76263],[-91.99542,41.76263],[-91.99542,41.75846],[-91.99125,41.75846],[-91.99125,41.75429],[-91.99542,41.75429],[-91.99542,41.74179],[-91.99125,41.74179],[-91.99125,41.73763],[-91.99542,41.73763],[-91.99542,41.73346],[-92.01209,41.73346],[-92.01209,41.72512],[-92.01626,41.72512],[-92.01626,41.71679],[-92.02042,41.71679],[-92.02042,41.71262],[-92.01626,41.71262],[-92.01626,41.70846],[-92.00375,41.70846],[-92.00375,41.71262],[-91.99542,41.71262],[-91.99542,41.70846],[-91.97459,41.70846],[-91.97459,41.70429],[-91.97042,41.70429],[-91.97042,41.70012],[-91.97459,41.70012],[-91.97459,41.68762],[-91.97042,41.68762],[-91.97042,41.68345],[-91.96625,41.68345],[-91.96625,41.67929],[-91.96209,41.67929],[-91.96209,41.67512],[-91.94958,41.67512],[-91.94958,41.68345],[-91.94125,41.68345],[-91.94125,41.67929],[-91.93292,41.67929],[-91.93292,41.68345],[-91.87041,41.68345],[-91.87041,41.68762],[-91.86208,41.68762],[-91.86208,41.69179],[-91.85374,41.69179],[-91.85374,41.70012],[-91.84124,41.70012],[-91.84124,41.70429],[-91.80791,41.70429],[-91.80791,41.70012],[-91.80374,41.70012],[-91.80374,41.69596],[-91.79124,41.69596],[-91.79124,41.70012],[-91.76207,41.70012],[-91.76207,41.69179],[-91.75373,41.69179],[-91.75373,41.68762],[-91.7454,41.68762],[-91.7454,41.67929],[-91.73707,41.67929],[-91.73707,41.67512],[-91.7079,41.67512],[-91.7079,41.67929],[-91.6954,41.67929],[-91.6954,41.67095],[-91.69123,41.67095],[-91.69123,41.67512],[-91.67039,41.67512],[-91.67039,41.67095],[-91.66206,41.67095],[-91.66206,41.66679],[-91.65789,41.66679],[-91.65789,41.66262],[-91.64123,41.66262],[-91.64123,41.67095],[-91.62873,41.67095],[-91.62873,41.66679],[-91.62039,41.66679],[-91.62039,41.67095],[-91.61622,41.67095],[-91.61622,41.67512],[-91.61206,41.67512],[-91.61206,41.67095],[-91.59956,41.67095],[-91.59956,41.66679],[-91.59539,41.66679],[-91.59539,41.67095],[-91.58705,41.67095],[-91.58705,41.67929],[-91.58289,41.67929],[-91.58289,41.69179],[-91.57872,41.69179],[-91.57872,41.70012],[-91.58705,41.70012],[-91.58705,41.70846],[-91.59956,41.70846],[-91.59956,41.71262],[-91.60372,41.71262],[-91.60372,41.72096],[-91.60789,41.72096],[-91.60789,41.72512],[-91.61622,41.72512],[-91.61622,41.73346],[-91.62456,41.73346],[-91.62456,41.73763],[-91.62873,41.73763],[-91.62873,41.75013],[-91.62456,41.75013],[-91.62456,41.75429],[-91.64539,41.75429],[-91.64539,41.75013],[-91.65373,41.75013],[-91.65373,41.74596],[-91.6829,41.74596],[-91.6829,41.75013],[-91.69123,41.75013],[-91.69123,41.74596],[-91.69956,41.74596],[-91.69956,41.74179],[-91.7079,41.74179],[-91.7079,41.74596],[-91.72873,41.74596],[-91.72873,41.75013],[-91.75373,41.75013],[-91.75373,41.75429],[-91.77874,41.75429],[-91.77874,41.75013],[-91.81207,41.75013],[-91.81207,41.75429],[-91.82041,41.75429],[-91.82041,41.75846],[-91.82874,41.75846],[-91.82874,41.76263],[-91.87874,41.76263],[-91.87874,41.75846],[-91.89125,41.75846],[-91.89125,41.75429],[-91.89541,41.75429],[-91.89541,41.75846],[-91.92041,41.75846],[-91.92041,41.76263],[-91.93708,41.76263],[-91.93708,41.76679],[-91.97042,41.76679],[-91.97042,41.77096],[-91.97459,41.77096]]]}}]}