{"type":"FeatureCollection","features":[{"type":"Feature","properties":{},"geometry":{"type":"Polygon","coordinates":[[[-94.96232,41.93347],[-94.96232,41.92931],[-94.97066,41.92931],[-94.97066,41.92514],[-94.97483,41.92514],[-94.97483,41.92097],[-94.98733,41.92097],[-94.98733,41.91681],[-94.99566,41.91681],[-94.99566,41.90431],[-94.99149,41.90431],[-94.99149,41.90014],[-94.98733,41.90014],[-94.98733,41.89597],[-94.98316,41.89597],[-94.98316,41.88764],[-94.97899,41.88764],[-94.97899,41.88347],[-94.97066,41.88347],[-94.97066,41.87097],[-94.96649,41.87097],[-94.96649,41.8668],[-94.95816,41.8668],[-94.95816,41.85847],[-94.94566,41.85847],[-94.94566,41.85013],[-94.93316,41.85013],[-94.93316,41.83763],[-94.92482,41.83763],[-94.92482,41.82097],[-94.92065,41.82097],[-94.92065,41.8168],[-94.91649,41.8168],[-94.91649,41.81263],[-94.92482,41.81263],[-94.92482,41.80846],[-94.92899,41.80846],[-94.92899,41.8043],[-94.93732,41.8043],[-94.93732,41.80013],[-94.94566,41.80013],[-94.94566,41.79596],[-94.94982,41.79596],[-94.94982,41.78763],[-94.94566,41.78763],[-94.94566,41.78346],[-94.96232,41.78346],[-94.96232,41.7793],[-94.96649,41.7793],[-94.96649,41.77096],[-94.97483,41.77096],[-94.97483,41.76679],[-94.97899,41.76679],[-94.97899,41.75429],[-94.97066,41.75429],[-94.97066,41.74179],[-94.97483,41.74179],[-94.97483,41.72512],[-94.97066,41.72512],[-94.97066,41.72096],[-94.98316,41.72096],[-94.98316,41.71262],[-94.98733,41.71262],[-94.98733,41.70846],[-95.004,41.70846],[-95.004,41.71679],[-95.01233,41.71679],[-95.01233,41.72096],[-95.0165,41.72096],[-95.0165,41.71679],[-95.02066,41.71679],[-95.02066,41.70846],[-95.0415,41.70846],[-95.0415,41.69596],[-95.0665,41.69596],[-95.0665,41.70012],[-95.07483,41.70012],[-95.07483,41.70429],[-95.08317,41.70429],[-95.08317,41.70012],[-95.08733,41.70012],[-95.08733,41.69179],[-95.10817,41.69179],[-95.10817,41.69596],[-95.129,41.69596],[-95.129,41.69179],[-95.13734,41.69179],[-95.13734,41.68762],[-95.14151,41.68762],[-95.14151,41.67929],[-95.14567,41.67929],[-95.14567,41.67095],[-95.15401,41.67095],[-95.15401,41.66679],[-95.15817,41.66679],[-95.15817,41.65845],[-95.16651,41.65845],[-95.16651,41.65429],[-95.17068,41.65429],[-95.17068,41.64178],[-95.17484,41.64178],[-95.17484,41.63345],[-95.17901,41.63345],[-95.17901,41.62095],[-95.17484,41.62095],[-95.17484,41.60845],[-95.17901,41.60845],[-95.17901,41.60011],[-95.19151,41.60011],[-95.19151,41.58345],[-95.19568,41.58345],[-95.19568,41.57928],[-95.17901,41.57928],[-95.17901,41.57511],[-95.17484,41.57511],[-95.17484,41.55844],[-95.17901,41.55844],[-95.17901,41.52094],[-95.18318,41.52094],[-95.18318,41.50011],[-95.17901,41.50011],[-95.17901,41.49594],[-95.17484,41.49594],[-95.17484,41.46677],[-95.17068,41.46677],[-95.17068,41.45427],[-95.17484,41.45427],[-95.17484,41.44594],[-95.17901,41.44594],[-95.17901,41.4251],[-95.18318,41.4251],[-95.18318,41.39593],[-95.17901,41.39593],[-95.17901,41.38343],[-95.17484,41.38343],[-95.17484,41.37093],[-95.17901,41.37093],[-95.17901,41.35843],[-95.18734,41.35843],[-95.18734,41.33343],[-95.19151,41.33343],[-95.19151,41.31676],[-95.18734,41.31676],[-95.18734,41.30842],[-95.19151,41.30842],[-95.19151,41.30009],[-95.19568,41.30009],[-95.19568,41.27092],[-95.19151,41.27092],[-95.19151,41.26675],[-95.18734,41.26675],[-95.18734,41.25009],[-95.19568,41.25009],[-95.19568,41.24592],[-95.19151,41.24592],[-95.19151,41.22092],[-95.19568,41.22092],[-95.19568,41.21258],[-95.19984,41.21258],[-95.19984,41.20008],[-95.20401,41.20008],[-95.20401,41.19592],[-95.21234,41.19592],[-95.21234,41.19175],[-95.21651,41.19175],[-95.21651,41.17508],[-95.21234,41.17508],[-95.21234,41.16258],[-95.21651,41.16258],[-95.21651,41.15841],[-95.22485,41.15841],[-95.22485,41.13758],[-95.23318,41.13758],[-95.23318,41.12924],[-95.23735,41.12924],[-95.23735,41.10841],[-95.24568,41.10841],[-95.24568,41.10424],[-95.24985,41.10424],[-95.24985,41.09174],[-95.25401,41.09174],[-95.25401,41.08757],[-95.25818,41.08757],[-95.25818,41.07924],[-95.26235,41.07924],[-95.26235,41.07091],[-95.26652,41.07091],[-95.26652,41.06257],[-95.27485,41.06257],[-95.27485,41.0459],[-95.27902,41.0459],[-95.27902,41.0334],[-95.28318,41.0334],[-95.28318,41.02924],[-95.29152,41.02924],[-95.29152,41.02507],[-95.28735,41.02507],[-95.28735,41.01257],[-95.29152,41.01257],[-95.29152,41.0084],[-95.29568,41.0084],[-95.29568,41.00423],[-95.30402,41.00423],[-95.30402,41.00007],[-95.30819,41.00007],[-95.30819,40.9959],[-95.31235,40.9959],[-95.31235,40.97506],[-95.31652,40.97506],[-95.31652,40.96256],[-95.32069,40.96256],[-95.32069,40.95006],[-95.31652,40.95006],[-95.31652,40.9459],[-95.32069,40.9459],[-95.32069,40.93339],[-95.32485,40.93339],[-95.32485,40.92923],[-95.32069,40.92923],[-95.32069,40.92506],[-95.32485,40.92506],[-95.32485,40.92089],[-95.32902,40.92089],[-95.32902,40.91673],[-95.33319,40.91673],[-95.33319,40.91256],[-95.33736,40.91256],[-95.33736,40.90423],[-95.34152,40.90423],[-95.34152,40.90006],[-95.34569,40.90006],[-95.34569,40.89589],[-95.34986,40.89589],[-95.34986,40.88339],[-95.35402,40.88339],[-95.35402,40.87922],[-95.35819,40.87922],[-95.35819,40.87089],[-95.36236,40.87089],[-95.36236,40.86672],[-95.36652,40.86672],[-95.36652,40.86256],[-95.37486,40.86256],[-95.37486,40.85005],[-95.37902,40.85005],[-95.37902,40.84589],[-95.38736,40.84589],[-95.38736,40.83755],[-95.39986,40.83755],[-95.39986,40.82922],[-95.40819,40.82922],[-95.40819,40.82505],[-95.41236,40.82505],[-95.41236,40.82089],[-95.41653,40.82089],[-95.41653,40.81255],[-95.42069,40.81255],[-95.42069,40.80838],[-95.42486,40.80838],[-95.42486,40.80422],[-95.42903,40.80422],[-95.42903,40.79172],[-95.4332,40.79172],[-95.4332,40.78755],[-95.44986,40.78755],[-95.44986,40.78338],[-95.45403,40.78338],[-95.45403,40.77922],[-95.46653,40.77922],[-95.46653,40.77505],[-95.4707,40.77505],[-95.4707,40.77088],[-95.4832,40.77088],[-95.4832,40.77505],[-95.49153,40.77505],[-95.49153,40.77088],[-95.49987,40.77088],[-95.49987,40.76671],[-95.50404,40.76671],[-95.50404,40.76255],[-95.51237,40.76255],[-95.51237,40.76671],[-95.5207,40.76671],[-95.5207,40.76255],[-95.52487,40.76255],[-95.52487,40.75838],[-95.52904,40.75838],[-95.52904,40.74588],[-95.5332,40.74588],[-95.5332,40.74171],[-95.54154,40.74171],[-95.54154,40.73755],[-95.54987,40.73755],[-95.54987,40.73338],[-95.55404,40.73338],[-95.55404,40.72921],[-95.55821,40.72921],[-95.55821,40.72504],[-95.56237,40.72504],[-95.56237,40.72088],[-95.56654,40.72088],[-95.56654,40.71671],[-95.56237,40.71671],[-95.56237,40.70004],[-95.56654,40.70004],[-95.56654,40.69588],[-95.56237,40.69588],[-95.56237,40.69171],[-95.56654,40.69171],[-95.56654,40.67921],[-95.55821,40.67921],[-95.55821,40.67504],[-95.54154,40.67504],[-95.54154,40.67087],[-95.53737,40.67087],[-95.53737,40.66671],[-95.5332,40.66671],[-95.5332,40.65837],[-95.52904,40.65837],[-95.52904,40.65421],[-95.5332,40.65421],[-95.5332,40.65004],[-95.5207,40.65004],[-95.5207,40.6417],[-95.49987,40.6417],[-95.49987,40.65004],[-95.49153,40.65004],[-95.49153,40.65837],[-95.47903,40.65837],[-95.47903,40.66254],[-95.4707,40.66254],[-95.4707,40.66671],[-95.46653,40.66671],[-95.46653,40.67504],[-95.45403,40.67504],[-95.45403,40.67921],[-95.44986,40.67921],[-95.44986,40.68337],[-95.42903,40.68337],[-95.42903,40.68754],[-95.42486,40.68754],[-95.42486,40.69588],[-95.41653,40.69588],[-95.41653,40.68337],[-95.39569,40.68337],[-95.39569,40.67921],[-95.39153,40.67921],[-95.39153,40.67504],[-95.37069,40.67504],[-95.37069,40.67921],[-95.35402,40.67921],[-95.35402,40.68754],[-95.34986,40.68754],[-95.34986,40.69171],[-95.34569,40.69171],[-95.34569,40.69588],[-95.34152,40.69588],[-95.34152,40.70004],[-95.33319,40.70004],[-95.33319,40.70421],[-95.33736,40.70421],[-95.33736,40.70838],[-95.33319,40.70838],[-95.33319,40.71671],[-95.32902,40.71671],[-95.32902,40.72088],[-95.32485,40.72088],[-95.32485,40.72504],[-95.31652,40.72504],[-95.31652,40.72921],[-95.31235,40.72921],[-95.31235,40.73755],[-95.31652,40.73755],[-95.31652,40.74171],[-95.30819,40.74171],[-95.30819,40.74588],[-95.30402,40.74588],[-95.30402,40.76671],[-95.29985,40.76671],[-95.29985,40.77088],[-95.29152,40.77088],[-95.29152,40.78338],[-95.28318,40.78338],[-95.28318,40.78755],[-95.27485,40.78755],[-95.27485,40.79172],[-95.27068,40.79172],[-95.27068,40.79588],[-95.26652,40.79588],[-95.26652,40.80005],[-95.25401,40.80005],[-95.25401,40.80422],[-95.24151,40.80422],[-95.24151,40.80838],[-95.23735,40.80838],[-95.23735,40.82922],[-95.23318,40.82922],[-95.23318,40.85422],[-95.23735,40.85422],[-95.23735,40.87089],[-95.22068,40.87089],[-95.22068,40.87506],[-95.21651,40.87506],[-95.21651,40.87922],[-95.20818,40.87922],[-95.20818,40.88756],[-95.20401,40.88756],[-95.20401,40.89172],[-95.19984,40.89172],[-95.19984,40.90839],[-95.20401,40.90839],[-95.20401,40.95006],[-95.19984,40.95006],[-95.19984,40.97506],[-95.19568,40.97506],[-95.19568,40.97923],[-95.17901,40.97923],[-95.17901,40.98757],[-95.17484,40.98757],[-95.17484,40.9959],[-95.17901,40.9959],[-95.17901,41.00007],[-95.17484,41.00007],[-95.17484,41.02924],[-95.17068,41.02924],[-95.17068,41.03757],[-95.16651,41.03757],[-95.16651,41.04174],[-95.15817,41.04174],[-95.15817,41.0459],[-95.14984,41.0459],[-95.14984,41.05007],[-95.14567,41.05007],[-95.14567,41.0584],[-95.14151,41.0584],[-95.14151,41.06674],[-95.13734,41.06674],[-95.13734,41.07091],[-95.13317,41.07091],[-95.13317,41.08341],[-95.13734,41.08341],[-95.13734,41.10007],[-95.13317,41.10007],[-95.13317,41.10424],[-95.129,41.10424],[-95.129,41.12091],[-95.12484,41.12091],[-95.12484,41.11674],[-95.11234,41.11674],[-95.11234,41.12091],[-95.10817,41.12091],[-95.10817,41.12924],[-95.104,41.12924],[-95.104,41.13758],[-95.09984,41.13758],[-95.09984,41.15841],[-95.0915,41.15841],[-95.0915,41.17508],[-95.08733,41.17508],[-95.08733,41.20008],[-95.08317,41.20008],[-95.08317,41.20425],[-95.07067,41.20425],[-95.07067,41.20008],[-95.0665,41.20008],[-95.0665,41.20425],[-95.06233,41.20425],[-95.06233,41.20842],[-95.0665,41.20842],[-95.0665,41.24175],[-95.06233,41.24175],[-95.06233,41.25009],[-95.05817,41.25009],[-95.05817,41.27509],[-95.054,41.27509],[-95.054,41.29176],[-95.04566,41.29176],[-95.04566,41.29592],[-95.03316,41.29592],[-95.03316,41.30009],[-95.00816,41.30009],[-95.00816,41.30426],[-94.99149,41.30426],[-94.99149,41.30842],[-94.96232,41.30842],[-94.96232,41.30426],[-94.95816,41.30426],[-94.95816,41.30842],[-94.94982,41.30842],[-94.94982,41.31259],[-94.92899,41.31259],[-94.92899,41.30842],[-94.92482,41.30842],[-94.92482,41.30426],[-94.92065,41.30426],[-94.92065,41.30009],[-94.90815,41.30009],[-94.90815,41.30842],[-94.90399,41.30842],[-94.90399,41.31259],[-94.88315,41.31259],[-94.88315,41.32509],[-94.87065,41.32509],[-94.87065,41.32926],[-94.86232,41.32926],[-94.86232,41.33343],[-94.85398,41.33343],[-94.85398,41.33759],[-94.84982,41.33759],[-94.84982,41.34176],[-94.84565,41.34176],[-94.84565,41.34593],[-94.83315,41.34593],[-94.83315,41.34176],[-94.82898,41.34176],[-94.82898,41.34593],[-94.82481,41.34593],[-94.82481,41.34176],[-94.82065,41.34176],[-94.82065,41.34593],[-94.81648,41.34593],[-94.81648,41.35009],[-94.81231,41.35009],[-94.81231,41.3626],[-94.81648,41.3626],[-94.81648,41.37093],[-94.80815,41.37093],[-94.80815,41.3751],[-94.79981,41.3751],[-94.79981,41.37926],[-94.79564,41.37926],[-94.79564,41.38343],[-94.79148,41.38343],[-94.79148,41.4001],[-94.78731,41.4001],[-94.78731,41.40427],[-94.78314,41.40427],[-94.78314,41.40843],[-94.75814,41.40843],[-94.75814,41.42093],[-94.74981,41.42093],[-94.74981,41.4251],[-94.73731,41.4251],[-94.73731,41.4376],[-94.73314,41.4376],[-94.73314,41.44177],[-94.72897,41.44177],[-94.72897,41.4501],[-94.71647,41.4501],[-94.71647,41.45844],[-94.70814,41.45844],[-94.70814,41.4626],[-94.69564,41.4626],[-94.69564,41.46677],[-94.68314,41.46677],[-94.68314,41.47094],[-94.67897,41.47094],[-94.67897,41.4751],[-94.66647,41.4751],[-94.66647,41.47927],[-94.65813,41.47927],[-94.65813,41.48344],[-94.65397,41.48344],[-94.65397,41.48761],[-94.64147,41.48761],[-94.64147,41.49594],[-94.6373,41.49594],[-94.6373,41.50011],[-94.64563,41.50011],[-94.64563,41.50427],[-94.6498,41.50427],[-94.6498,41.51677],[-94.65397,41.51677],[-94.65397,41.52094],[-94.65813,41.52094],[-94.65813,41.52928],[-94.6623,41.52928],[-94.6623,41.53761],[-94.65813,41.53761],[-94.65813,41.54178],[-94.6623,41.54178],[-94.6623,41.55011],[-94.66647,41.55011],[-94.66647,41.55844],[-94.67063,41.55844],[-94.67063,41.57095],[-94.6748,41.57095],[-94.6748,41.57511],[-94.6873,41.57511],[-94.6873,41.57928],[-94.69147,41.57928],[-94.69147,41.58345],[-94.69564,41.58345],[-94.69564,41.58761],[-94.6998,41.58761],[-94.6998,41.60011],[-94.69147,41.60011],[-94.69147,41.60845],[-94.6873,41.60845],[-94.6873,41.61262],[-94.68314,41.61262],[-94.68314,41.61678],[-94.67063,41.61678],[-94.67063,41.62095],[-94.66647,41.62095],[-94.66647,41.62512],[-94.65813,41.62512],[-94.65813,41.64178],[-94.6748,41.64178],[-94.6748,41.64595],[-94.67897,41.64595],[-94.67897,41.65012],[-94.68314,41.65012],[-94.68314,41.65429],[-94.6873,41.65429],[-94.6873,41.67512],[-94.69564,41.67512],[-94.69564,41.67929],[-94.6998,41.67929],[-94.6998,41.68762],[-94.70814,41.68762],[-94.70814,41.69596],[-94.71647,41.69596],[-94.71647,41.70429],[-94.72064,41.70429],[-94.72064,41.71262],[-94.72481,41.71262],[-94.72481,41.72096],[-94.72897,41.72096],[-94.72897,41.72512],[-94.73314,41.72512],[-94.73314,41.72929],[-94.73731,41.72929],[-94.73731,41.73763],[-94.74147,41.73763],[-94.74147,41.74596],[-94.74981,41.74596],[-94.74981,41.76263],[-94.75397,41.76263],[-94.75397,41.77096],[-94.75814,41.77096],[-94.75814,41.77513],[-94.77898,41.77513],[-94.77898,41.7793],[-94.77481,41.7793],[-94.77481,41.78763],[-94.77898,41.78763],[-94.77898,41.7918],[-94.78731,41.7918],[-94.78731,41.80013],[-94.79148,41.80013],[-94.79148,41.8043],[-94.79981,41.8043],[-94.79981,41.80846],[-94.80398,41.80846],[-94.80398,41.82097],[-94.80815,41.82097],[-94.80815,41.82513],[-94.82065,41.82513],[-94.82065,41.83347],[-94.83731,41.83347],[-94.83731,41.85013],[-94.84148,41.85013],[-94.84148,41.86264],[-94.83731,41.86264],[-94.83731,41.87514],[-94.84565,41.87514],[-94.84565,41.8793],[-94.85815,41.8793],[-94.85815,41.88764],[-94.86232,41.88764],[-94.86232,41.8918],[-94.86648,41.8918],[-94.86648,41.89597],[-94.87482,41.89597],[-94.87482,41.90014],[-94.88732,41.90014],[-94.88732,41.90431],[-94.89982,41.90431],[-94.89982,41.91264],[-94.90399,41.91264],[-94.90399,41.91681],[-94.91232,41.91681],[-94.91232,41.92097],[-94.92065,41.92097],[-94.92065,41.91264],[-94.92899,41.91264],[-94.92899,41.91681],[-94.93732,41.91681],[-94.93732,41.92097],[-94.94566,41.92097],[-94.94566,41.92931],[-94.95816,41.92931],[-94.95816,41.93347],[-94.96232,41.93347]]]}}]}