{"type":"FeatureCollection","features":[{"type":"Feature","properties":{},"geometry":{"type":"Polygon","coordinates":[[[-92.0265,42.29509],[-92.02691,42.29935],[-92.02304,42.29983],[-92.01989,42.30596],[-92.0268,42.31172],[-92.02812,42.31497],[-92.02055,42.31903],[-92.0158,42.32671],[-92.00875,42.32987],[-92.0085,42.33555],[-92.00477,42.3415],[-92.00816,42.35317],[-92.00662,42.35623],[-91.99716,42.36235],[-92.0053,42.37474],[-92.00434,42.37995],[-91.99666,42.38382],[-91.99692,42.38511],[-92.00401,42.38995],[-92.00282,42.39153],[-92.0075,42.39381],[-92.00594,42.39816],[-92.01167,42.40222],[-92.0078,42.40738],[-92.01166,42.41307],[-92.0051,42.41894],[-92.00662,42.42241],[-92.00155,42.4264],[-92.00205,42.43045],[-91.9996,42.43467],[-92.00132,42.43977],[-92.0004,42.44088],[-92.00849,42.44667],[-92.00994,42.44949],[-92.00871,42.45223],[-92.00941,42.45859],[-92.00769,42.46127],[-92.00424,42.46247],[-92.00991,42.46614],[-92.01011,42.4691],[-92.01417,42.47513],[-92.00552,42.47863],[-92.00222,42.47748],[-91.99377,42.47853],[-91.99111,42.48128],[-91.9846,42.48192],[-91.98537,42.48392],[-91.98344,42.48604],[-91.97896,42.48667],[-91.97081,42.46982],[-91.97076,42.46693],[-91.96105,42.46572],[-91.94886,42.46927],[-91.93978,42.47044],[-91.93771,42.46927],[-91.93649,42.46157],[-91.9435,42.45537],[-91.9477,42.44917],[-91.94273,42.43989],[-91.94651,42.43655],[-91.94338,42.4261],[-91.94474,42.42333],[-91.93788,42.4161],[-91.92199,42.41157],[-91.92063,42.40678],[-91.91457,42.40033],[-91.91909,42.39215],[-91.91884,42.38804],[-91.92052,42.38541],[-91.91611,42.3805],[-91.92323,42.37788],[-91.92339,42.3753],[-91.9371,42.37231],[-91.93533,42.36412],[-91.93622,42.36287],[-91.93397,42.35743],[-91.93607,42.35339],[-91.94168,42.35112],[-91.94347,42.34564],[-91.94931,42.3461],[-91.95353,42.34265],[-91.95531,42.33742],[-91.9575,42.33666],[-91.95811,42.33348],[-91.96266,42.33087],[-91.96332,42.32866],[-91.97017,42.32795],[-91.96829,42.32478],[-91.97359,42.31946],[-91.97077,42.31749],[-91.97137,42.31348],[-91.9754,42.314],[-91.97749,42.30672],[-91.98516,42.30425],[-91.98828,42.30004],[-91.99279,42.29847],[-91.9924,42.29614],[-91.99531,42.29499],[-92.0011,42.29507],[-92.00752,42.29266],[-92.0097,42.29402],[-92.01669,42.29355],[-92.01952,42.29215],[-92.0217,42.29451],[-92.0265,42.29509]]]}}]}