{"type":"FeatureCollection","features":[{"type":"Feature","properties":{},"geometry":{"type":"Polygon","coordinates":[[[-94.80774,42.70879],[-94.82014,42.71478],[-94.83146,42.71591],[-94.83874,42.72075],[-94.84111,42.72284],[-94.83859,42.7248],[-94.84076,42.72926],[-94.84499,42.72907],[-94.85144,42.73273],[-94.85159,42.73424],[-94.84559,42.73744],[-94.84567,42.73959],[-94.85554,42.74314],[-94.853,42.74848],[-94.8567,42.75504],[-94.85958,42.75757],[-94.86356,42.75794],[-94.86703,42.75556],[-94.86779,42.76569],[-94.87541,42.76885],[-94.87549,42.77362],[-94.87772,42.77636],[-94.87988,42.77582],[-94.88377,42.77895],[-94.88791,42.77887],[-94.89324,42.78263],[-94.8917,42.78538],[-94.89275,42.78829],[-94.88514,42.79003],[-94.88301,42.79651],[-94.88087,42.79729],[-94.87665,42.79446],[-94.87104,42.79653],[-94.87095,42.8019],[-94.87591,42.80621],[-94.88013,42.82223],[-94.88225,42.82253],[-94.8842,42.82708],[-94.89474,42.82909],[-94.89458,42.83457],[-94.88753,42.84018],[-94.89009,42.84251],[-94.89006,42.84588],[-94.89255,42.84525],[-94.89793,42.849],[-94.89695,42.85106],[-94.90197,42.85324],[-94.90221,42.85506],[-94.89975,42.85631],[-94.90079,42.86002],[-94.89803,42.86255],[-94.90365,42.86793],[-94.90084,42.8744],[-94.90274,42.87867],[-94.90126,42.88086],[-94.90291,42.88307],[-94.90567,42.88346],[-94.90286,42.88706],[-94.90643,42.89162],[-94.90855,42.89378],[-94.92421,42.8911],[-94.9271,42.89413],[-94.93697,42.89407],[-94.93966,42.89272],[-94.9391,42.88709],[-94.94191,42.88719],[-94.94115,42.88285],[-94.95174,42.87656],[-94.95299,42.87711],[-94.95364,42.88747],[-94.95786,42.88737],[-94.95813,42.89258],[-94.95675,42.89673],[-94.95308,42.89858],[-94.95409,42.90135],[-94.95144,42.9025],[-94.95191,42.90593],[-94.94819,42.9076],[-94.94521,42.90434],[-94.94525,42.90191],[-94.94118,42.9017],[-94.9373,42.90803],[-94.93917,42.91145],[-94.93754,42.91483],[-94.93251,42.9129],[-94.9299,42.91501],[-94.92906,42.9213],[-94.92035,42.92388],[-94.9172,42.92736],[-94.91569,42.93204],[-94.91023,42.93166],[-94.90902,42.92833],[-94.90144,42.92409],[-94.89584,42.9238],[-94.89544,42.9255],[-94.89013,42.92839],[-94.88766,42.92812],[-94.88014,42.93225],[-94.8763,42.9305],[-94.86458,42.9295],[-94.85725,42.93167],[-94.85544,42.93656],[-94.85137,42.93607],[-94.84516,42.93045],[-94.84256,42.92383],[-94.84345,42.92146],[-94.83955,42.91789],[-94.84072,42.91633],[-94.83951,42.90948],[-94.83748,42.90642],[-94.83066,42.9067],[-94.82448,42.89926],[-94.83026,42.89606],[-94.82977,42.8938],[-94.82642,42.89132],[-94.82649,42.88816],[-94.82877,42.88565],[-94.82455,42.88393],[-94.82803,42.88116],[-94.82832,42.87887],[-94.82108,42.876],[-94.814,42.86902],[-94.8079,42.86905],[-94.80615,42.86695],[-94.80658,42.86072],[-94.80225,42.85704],[-94.81264,42.85467],[-94.81544,42.84983],[-94.81468,42.84403],[-94.81104,42.84359],[-94.81206,42.83682],[-94.82267,42.83558],[-94.83468,42.83028],[-94.83452,42.82543],[-94.82719,42.81998],[-94.83012,42.81363],[-94.82261,42.80934],[-94.82321,42.80711],[-94.82133,42.803],[-94.8231,42.79937],[-94.81809,42.79506],[-94.82109,42.79193],[-94.81515,42.78611],[-94.81809,42.77908],[-94.81432,42.77266],[-94.81457,42.76772],[-94.82082,42.76439],[-94.82084,42.7605],[-94.81654,42.75751],[-94.81362,42.75752],[-94.81159,42.75075],[-94.80346,42.74157],[-94.80132,42.7437],[-94.79823,42.74398],[-94.79687,42.74741],[-94.78901,42.7448],[-94.78826,42.74256],[-94.78968,42.73779],[-94.79523,42.73318],[-94.79342,42.73122],[-94.79866,42.7268],[-94.79782,42.72514],[-94.79407,42.72588],[-94.78511,42.72213],[-94.7856,42.7194],[-94.78815,42.71806],[-94.78327,42.71091],[-94.78556,42.70893],[-94.79482,42.71268],[-94.79441,42.70716],[-94.79827,42.70826],[-94.80284,42.70527],[-94.80789,42.70535],[-94.80774,42.70879]]]}}]}