{"type":"FeatureCollection","features":[{"type":"Feature","properties":{},"geometry":{"type":"Polygon","coordinates":[[[-91.4153,40.75879],[-91.41751,40.75828],[-91.42123,40.76169],[-91.42705,40.7627],[-91.43352,40.76086],[-91.43785,40.76359],[-91.43655,40.76713],[-91.43841,40.76854],[-91.44757,40.76717],[-91.46091,40.76247],[-91.46709,40.76314],[-91.47073,40.76574],[-91.46979,40.77469],[-91.47804,40.77913],[-91.4815,40.78387],[-91.48725,40.78437],[-91.4936,40.79081],[-91.49698,40.78928],[-91.49729,40.7985],[-91.50078,40.80322],[-91.50919,40.80647],[-91.52361,40.80525],[-91.52962,40.80811],[-91.53469,40.80605],[-91.53611,40.79936],[-91.54942,40.80037],[-91.55066,40.80144],[-91.54979,40.804],[-91.55119,40.80559],[-91.55282,40.8189],[-91.55699,40.82475],[-91.56082,40.8251],[-91.56499,40.82103],[-91.57422,40.82485],[-91.58306,40.8211],[-91.58546,40.8311],[-91.59434,40.83465],[-91.5986,40.83122],[-91.59963,40.82411],[-91.60272,40.82254],[-91.60347,40.8185],[-91.61164,40.81154],[-91.61421,40.80316],[-91.6254,40.80332],[-91.62658,40.80037],[-91.6315,40.79625],[-91.63502,40.79876],[-91.64191,40.80011],[-91.64596,40.80332],[-91.65624,40.79931],[-91.65198,40.79701],[-91.65621,40.78982],[-91.66124,40.78805],[-91.66157,40.78575],[-91.65672,40.78154],[-91.64996,40.77988],[-91.64458,40.77597],[-91.64405,40.76873],[-91.64538,40.76497],[-91.65411,40.7639],[-91.65744,40.76577],[-91.66267,40.76463],[-91.67603,40.7605],[-91.67835,40.75581],[-91.68255,40.7563],[-91.68551,40.75865],[-91.69217,40.75636],[-91.70195,40.75647],[-91.71715,40.76448],[-91.71904,40.7696],[-91.72787,40.77516],[-91.73272,40.78079],[-91.75095,40.77911],[-91.74875,40.78944],[-91.75686,40.7915],[-91.76489,40.7979],[-91.77059,40.79876],[-91.77169,40.79622],[-91.77612,40.79502],[-91.78166,40.79605],[-91.78626,40.80118],[-91.80466,40.80221],[-91.80634,40.80453],[-91.81132,40.80567],[-91.81517,40.80899],[-91.8263,40.80613],[-91.83594,40.80726],[-91.84493,40.81319],[-91.85181,40.82106],[-91.84896,40.82445],[-91.84089,40.82728],[-91.83398,40.82653],[-91.83344,40.85424],[-91.83149,40.85552],[-91.84001,40.86128],[-91.84447,40.86762],[-91.84796,40.86959],[-91.86138,40.87361],[-91.86529,40.87311],[-91.87163,40.86857],[-91.87268,40.86357],[-91.89013,40.86623],[-91.89232,40.86554],[-91.89566,40.86018],[-91.901,40.85831],[-91.90446,40.86042],[-91.9109,40.86105],[-91.92448,40.87462],[-91.93696,40.87262],[-91.94751,40.87402],[-91.95274,40.8822],[-91.95547,40.88226],[-91.95436,40.8905],[-91.9676,40.90223],[-91.97237,40.9043],[-91.97731,40.90216],[-91.98225,40.90422],[-91.99322,40.90521],[-91.99379,40.91008],[-92.00216,40.91757],[-92.00257,40.91956],[-91.99873,40.92292],[-91.9996,40.93159],[-91.99569,40.93175],[-91.9943,40.93285],[-91.9949,40.93439],[-92.00825,40.94352],[-92.00906,40.95],[-92.01242,40.95249],[-92.01821,40.95268],[-92.01862,40.94801],[-92.02866,40.94495],[-92.03395,40.95064],[-92.04219,40.9525],[-92.04481,40.95697],[-92.05361,40.96181],[-92.07638,40.96627],[-92.09025,40.96393],[-92.09669,40.95671],[-92.09917,40.95724],[-92.10304,40.96251],[-92.10813,40.96456],[-92.11098,40.96053],[-92.1208,40.95812],[-92.12375,40.95512],[-92.13446,40.95038],[-92.14022,40.94328],[-92.14301,40.94337],[-92.14514,40.9462],[-92.15179,40.94539],[-92.15742,40.94803],[-92.1625,40.94742],[-92.16584,40.95125],[-92.1716,40.95357],[-92.17153,40.95603],[-92.17956,40.96068],[-92.18616,40.95807],[-92.19163,40.94993],[-92.20946,40.95102],[-92.21377,40.94909],[-92.21424,40.94696],[-92.2192,40.94539],[-92.23612,40.95178],[-92.23695,40.95514],[-92.24182,40.96059],[-92.24918,40.96257],[-92.25255,40.96058],[-92.25387,40.9628],[-92.26675,40.96953],[-92.2723,40.97492],[-92.28481,40.97906],[-92.30121,40.98981],[-92.30365,40.99425],[-92.31234,40.99601],[-92.31986,40.99531],[-92.32326,40.99776],[-92.32221,41.0009],[-92.3271,41.00661],[-92.3247,41.01019],[-92.32451,41.01523],[-92.32087,41.01831],[-92.32046,41.02283],[-92.32607,41.03011],[-92.3246,41.03427],[-92.33464,41.04645],[-92.33932,41.04775],[-92.3483,41.04555],[-92.35023,41.0468],[-92.35035,41.05038],[-92.36198,41.05023],[-92.36835,41.05858],[-92.37373,41.059],[-92.37798,41.06238],[-92.38618,41.06466],[-92.39689,41.06194],[-92.40732,41.06625],[-92.41596,41.05698],[-92.42062,41.05738],[-92.42058,41.06217],[-92.42232,41.06414],[-92.42102,41.06786],[-92.42675,41.07371],[-92.43751,41.07957],[-92.44404,41.08657],[-92.45445,41.09371],[-92.45406,41.09813],[-92.44582,41.10768],[-92.44922,41.11433],[-92.45502,41.11873],[-92.45733,41.12315],[-92.46274,41.12424],[-92.46462,41.13288],[-92.4789,41.14004],[-92.48008,41.14322],[-92.48711,41.14546],[-92.49316,41.14363],[-92.4935,41.14618],[-92.50292,41.14787],[-92.51133,41.15293],[-92.51909,41.1636],[-92.51956,41.16627],[-92.52682,41.16809],[-92.53202,41.172],[-92.53721,41.17069],[-92.54028,41.17354],[-92.54488,41.17449],[-92.5491,41.17875],[-92.55447,41.17789],[-92.56176,41.18191],[-92.56533,41.18155],[-92.57457,41.18663],[-92.5827,41.18891],[-92.5825,41.19342],[-92.57944,41.19821],[-92.58644,41.20269],[-92.58515,41.20506],[-92.58915,41.21375],[-92.5727,41.22537],[-92.57282,41.23691],[-92.5703,41.23879],[-92.56232,41.23851],[-92.56,41.24044],[-92.56016,41.24312],[-92.56433,41.24929],[-92.57097,41.24929],[-92.579,41.25427],[-92.58032,41.25718],[-92.58824,41.25916],[-92.59431,41.26376],[-92.61405,41.27174],[-92.6193,41.2773],[-92.62926,41.28396],[-92.63004,41.28619],[-92.63576,41.28819],[-92.64003,41.29274],[-92.64884,41.29417],[-92.65864,41.30396],[-92.66561,41.30613],[-92.66777,41.30977],[-92.66677,41.31233],[-92.67586,41.31355],[-92.67618,41.31618],[-92.67954,41.31831],[-92.69242,41.31997],[-92.69606,41.32367],[-92.69654,41.32835],[-92.69975,41.3333],[-92.70678,41.3334],[-92.70854,41.33606],[-92.71782,41.341],[-92.72239,41.33916],[-92.74053,41.34239],[-92.75041,41.33996],[-92.75444,41.34218],[-92.75563,41.34586],[-92.75879,41.34717],[-92.75924,41.34918],[-92.76259,41.35019],[-92.76733,41.35701],[-92.77881,41.35918],[-92.78303,41.36109],[-92.78537,41.36434],[-92.79048,41.36533],[-92.79167,41.36833],[-92.79538,41.37013],[-92.79407,41.37674],[-92.79579,41.37905],[-92.80265,41.38277],[-92.80991,41.38446],[-92.82624,41.38364],[-92.83508,41.38995],[-92.84112,41.39199],[-92.84346,41.39771],[-92.84166,41.40107],[-92.844,41.40505],[-92.84319,41.41495],[-92.84692,41.42067],[-92.85007,41.42163],[-92.85611,41.42259],[-92.85901,41.41927],[-92.87015,41.41811],[-92.87311,41.41854],[-92.87491,41.42067],[-92.88209,41.41912],[-92.88207,41.41134],[-92.88533,41.40862],[-92.89088,41.40861],[-92.89132,41.40467],[-92.89407,41.4032],[-92.89473,41.39863],[-92.89703,41.39573],[-92.91751,41.39733],[-92.9205,41.40387],[-92.91918,41.40661],[-92.92454,41.40932],[-92.93046,41.40921],[-92.93344,41.41123],[-92.93824,41.41016],[-92.93872,41.41198],[-92.94065,41.41222],[-92.94828,41.40926],[-92.95763,41.40878],[-92.96075,41.41102],[-92.96438,41.41997],[-92.96701,41.42169],[-92.97628,41.42423],[-92.98882,41.43267],[-92.99786,41.43663],[-92.99843,41.43878],[-93.00188,41.44045],[-93.01145,41.44043],[-93.02088,41.44539],[-93.02555,41.44934],[-93.02671,41.45607],[-93.0325,41.46154],[-93.03538,41.47282],[-93.04513,41.47447],[-93.05138,41.48052],[-93.05791,41.48066],[-93.06021,41.48634],[-93.06889,41.48705],[-93.06969,41.49064],[-93.07428,41.49295],[-93.07718,41.49986],[-93.07718,41.50497],[-93.08517,41.50929],[-93.0891,41.51585],[-93.09378,41.5182],[-93.09862,41.51714],[-93.10957,41.52286],[-93.1108,41.52867],[-93.11288,41.53089],[-93.11172,41.53317],[-93.1145,41.53571],[-93.11375,41.54066],[-93.12272,41.54657],[-93.13246,41.54886],[-93.1362,41.55138],[-93.13736,41.55622],[-93.1432,41.55713],[-93.14483,41.56068],[-93.15163,41.56296],[-93.1656,41.57412],[-93.18304,41.58282],[-93.18613,41.58729],[-93.18867,41.58871],[-93.19942,41.58746],[-93.21447,41.59684],[-93.22153,41.59762],[-93.22718,41.59626],[-93.23236,41.60054],[-93.23607,41.60074],[-93.24175,41.59469],[-93.25124,41.5985],[-93.25949,41.59561],[-93.26238,41.59633],[-93.26565,41.60512],[-93.26992,41.60734],[-93.27162,41.61008],[-93.2705,41.61353],[-93.27298,41.6192],[-93.28549,41.62128],[-93.28582,41.62504],[-93.28847,41.62741],[-93.2899,41.63224],[-93.30333,41.63199],[-93.30971,41.63931],[-93.31329,41.63992],[-93.31503,41.63717],[-93.3222,41.63474],[-93.32507,41.6425],[-93.33013,41.64396],[-93.33711,41.65085],[-93.34012,41.65083],[-93.34239,41.65289],[-93.34692,41.65269],[-93.34864,41.6559],[-93.35262,41.65575],[-93.35376,41.65711],[-93.35058,41.66161],[-93.35657,41.66494],[-93.356,41.66669],[-93.36055,41.67105],[-93.35956,41.67387],[-93.36258,41.67872],[-93.36773,41.67959],[-93.3714,41.68881],[-93.37388,41.6903],[-93.37509,41.69537],[-93.38908,41.69796],[-93.39479,41.69508],[-93.40304,41.69527],[-93.41335,41.69254],[-93.41935,41.69402],[-93.42812,41.68908],[-93.43179,41.68445],[-93.44151,41.68919],[-93.44417,41.69354],[-93.44246,41.69616],[-93.44359,41.69792],[-93.44936,41.70158],[-93.44953,41.70466],[-93.45279,41.70632],[-93.45258,41.71342],[-93.45728,41.71514],[-93.45749,41.71936],[-93.45956,41.72229],[-93.45846,41.72637],[-93.4646,41.72797],[-93.46275,41.7353],[-93.46439,41.74183],[-93.48298,41.74056],[-93.48728,41.74282],[-93.49288,41.74331],[-93.49469,41.74806],[-93.50048,41.74898],[-93.50107,41.75506],[-93.50272,41.7568],[-93.50882,41.75868],[-93.50261,41.76262],[-93.50343,41.76698],[-93.50968,41.7718],[-93.51614,41.77212],[-93.51584,41.77468],[-93.51985,41.77643],[-93.5197,41.78266],[-93.52331,41.78404],[-93.53194,41.79352],[-93.53974,41.7935],[-93.54105,41.80351],[-93.5464,41.80676],[-93.54756,41.80919],[-93.54707,41.8149],[-93.55999,41.81773],[-93.56882,41.81723],[-93.57111,41.82016],[-93.58243,41.8263],[-93.58337,41.82881],[-93.59745,41.83113],[-93.60018,41.84003],[-93.59932,41.84313],[-93.59587,41.84532],[-93.59679,41.84773],[-93.60058,41.84952],[-93.60422,41.85674],[-93.60335,41.86086],[-93.59974,41.86504],[-93.59942,41.86926],[-93.60989,41.87696],[-93.6124,41.88372],[-93.61674,41.8846],[-93.62504,41.88196],[-93.63284,41.88248],[-93.63412,41.8876],[-93.63876,41.88941],[-93.63742,41.89241],[-93.64891,41.89864],[-93.65497,41.89621],[-93.65432,41.89252],[-93.668,41.88737],[-93.66717,41.88548],[-93.6696,41.88288],[-93.67177,41.88551],[-93.67863,41.8851],[-93.68217,41.88941],[-93.68661,41.89009],[-93.69741,41.89807],[-93.70396,41.89921],[-93.71141,41.90418],[-93.71626,41.90384],[-93.71988,41.90965],[-93.71789,41.9114],[-93.71819,41.91363],[-93.73112,41.92523],[-93.73201,41.92878],[-93.7305,41.92943],[-93.72934,41.92781],[-93.70823,41.93042],[-93.70291,41.9362],[-93.698,41.93838],[-93.7008,41.93971],[-93.70412,41.94532],[-93.70776,41.94505],[-93.70992,41.95021],[-93.70787,41.95487],[-93.71305,41.95677],[-93.71364,41.95829],[-93.71959,41.95945],[-93.72027,41.96124],[-93.71739,41.96446],[-93.72526,41.97007],[-93.7302,41.97149],[-93.73612,41.97688],[-93.72901,41.98239],[-93.7352,41.98879],[-93.74568,41.98867],[-93.76031,41.98174],[-93.76895,41.98709],[-93.77239,41.9916],[-93.77609,41.99286],[-93.78082,42.0046],[-93.79063,42.01753],[-93.79056,42.02583],[-93.79889,42.03404],[-93.80709,42.03568],[-93.81951,42.04117],[-93.82655,42.04818],[-93.83288,42.06066],[-93.82957,42.0629],[-93.82896,42.06536],[-93.83169,42.07],[-93.83421,42.07084],[-93.8344,42.07307],[-93.83842,42.07655],[-93.84725,42.07816],[-93.84468,42.08767],[-93.8492,42.10041],[-93.85376,42.1015],[-93.85476,42.10376],[-93.85122,42.10612],[-93.85205,42.10843],[-93.86037,42.11069],[-93.86346,42.10957],[-93.86858,42.11302],[-93.87042,42.11079],[-93.87423,42.11029],[-93.87541,42.11133],[-93.87432,42.1134],[-93.87553,42.12014],[-93.8791,42.12539],[-93.89086,42.12567],[-93.89876,42.13442],[-93.89748,42.13738],[-93.89053,42.14139],[-93.88138,42.13568],[-93.87374,42.14084],[-93.86883,42.14222],[-93.8647,42.14862],[-93.86571,42.1506],[-93.87057,42.15032],[-93.8768,42.15606],[-93.882,42.15668],[-93.88743,42.16421],[-93.88591,42.16657],[-93.88912,42.16932],[-93.90234,42.17309],[-93.90955,42.18216],[-93.89982,42.18405],[-93.89903,42.18594],[-93.9015,42.18893],[-93.89885,42.19184],[-93.90082,42.19614],[-93.90713,42.19414],[-93.91348,42.19551],[-93.91723,42.19229],[-93.92225,42.19747],[-93.92832,42.19714],[-93.93322,42.20055],[-93.93996,42.20255],[-93.94721,42.20174],[-93.95337,42.20371],[-93.95155,42.20602],[-93.95412,42.20852],[-93.95111,42.21028],[-93.9513,42.2151],[-93.96,42.21901],[-93.95703,42.22232],[-93.95482,42.22896],[-93.94777,42.23233],[-93.94929,42.23612],[-93.94742,42.24765],[-93.94286,42.24866],[-93.94207,42.25183],[-93.93744,42.25322],[-93.93705,42.25667],[-93.9332,42.26216],[-93.93262,42.26744],[-93.92653,42.26956],[-93.92493,42.27182],[-93.92771,42.27559],[-93.9225,42.28211],[-93.9104,42.28397],[-93.90867,42.28598],[-93.90982,42.28832],[-93.90658,42.29931],[-93.904,42.30033],[-93.90193,42.29802],[-93.89896,42.30192],[-93.89423,42.30217],[-93.89252,42.30782],[-93.8845,42.31531],[-93.8737,42.31441],[-93.86981,42.31089],[-93.86688,42.31047],[-93.86568,42.3071],[-93.85178,42.31801],[-93.84177,42.32314],[-93.83534,42.32233],[-93.83445,42.32],[-93.82887,42.32006],[-93.82717,42.31688],[-93.81282,42.31956],[-93.80858,42.32328],[-93.80464,42.3243],[-93.79135,42.32329],[-93.78107,42.31841],[-93.77705,42.32072],[-93.77726,42.32291],[-93.78317,42.32775],[-93.78354,42.33236],[-93.79195,42.33908],[-93.78729,42.34424],[-93.78199,42.34674],[-93.77547,42.34688],[-93.77372,42.34436],[-93.77184,42.34444],[-93.76939,42.34642],[-93.7689,42.35609],[-93.76671,42.36005],[-93.75631,42.3673],[-93.75755,42.3729],[-93.76348,42.3748],[-93.76606,42.38359],[-93.75548,42.38616],[-93.75568,42.38895],[-93.75325,42.39205],[-93.75901,42.39407],[-93.75423,42.39657],[-93.75425,42.40007],[-93.75215,42.3986],[-93.74797,42.39962],[-93.7473,42.40522],[-93.72895,42.40518],[-93.72362,42.40916],[-93.7238,42.41153],[-93.71602,42.41859],[-93.71467,42.42281],[-93.70982,42.42611],[-93.70382,42.43837],[-93.70195,42.44465],[-93.70275,42.44856],[-93.69867,42.45582],[-93.70152,42.45833],[-93.70205,42.46975],[-93.69493,42.47777],[-93.68778,42.47853],[-93.69081,42.48431],[-93.69055,42.48962],[-93.68467,42.49142],[-93.68192,42.49502],[-93.6827,42.49947],[-93.6783,42.50313],[-93.67102,42.51913],[-93.66726,42.51886],[-93.66427,42.51669],[-93.66503,42.50858],[-93.66282,42.50438],[-93.66511,42.50457],[-93.66696,42.50273],[-93.66127,42.49851],[-93.66452,42.49687],[-93.6651,42.4948],[-93.6572,42.48829],[-93.66144,42.48054],[-93.66098,42.47507],[-93.65458,42.47266],[-93.6527,42.47397],[-93.65199,42.47745],[-93.64324,42.47882],[-93.64346,42.48302],[-93.63633,42.48673],[-93.63339,42.4865],[-93.63396,42.49],[-93.6325,42.49169],[-93.6251,42.49157],[-93.61783,42.4951],[-93.61623,42.49694],[-93.61767,42.50003],[-93.62108,42.49959],[-93.62147,42.50087],[-93.619,42.50361],[-93.61631,42.50405],[-93.61856,42.50881],[-93.61506,42.51152],[-93.59245,42.50611],[-93.58709,42.50586],[-93.5816,42.50802],[-93.57058,42.50119],[-93.56562,42.50322],[-93.56502,42.50543],[-93.56096,42.50357],[-93.55284,42.50334],[-93.54706,42.49081],[-93.54816,42.48949],[-93.54608,42.48769],[-93.54928,42.48369],[-93.54801,42.48137],[-93.55065,42.47701],[-93.54796,42.4758],[-93.54748,42.47238],[-93.55127,42.46846],[-93.5508,42.46255],[-93.5546,42.45808],[-93.55541,42.45285],[-93.55279,42.44742],[-93.55527,42.44329],[-93.55234,42.4378],[-93.55647,42.43448],[-93.55541,42.43053],[-93.56035,42.42693],[-93.56083,42.42316],[-93.56486,42.41827],[-93.56349,42.40939],[-93.56528,42.40582],[-93.56373,42.40353],[-93.56442,42.40138],[-93.56775,42.39975],[-93.56834,42.3961],[-93.56612,42.39311],[-93.56488,42.38632],[-93.55995,42.38293],[-93.56012,42.38047],[-93.5441,42.38765],[-93.53648,42.3824],[-93.52923,42.38147],[-93.52807,42.37998],[-93.53034,42.37622],[-93.51591,42.36875],[-93.50642,42.36134],[-93.49894,42.3683],[-93.49394,42.36689],[-93.4894,42.36881],[-93.48341,42.36722],[-93.48592,42.36523],[-93.48539,42.35937],[-93.48909,42.35895],[-93.49057,42.35548],[-93.48212,42.35148],[-93.48123,42.34898],[-93.48815,42.34342],[-93.48905,42.34229],[-93.48758,42.33996],[-93.49245,42.33784],[-93.49293,42.3353],[-93.50039,42.33281],[-93.49903,42.32898],[-93.4966,42.32651],[-93.48975,42.32511],[-93.48861,42.32339],[-93.48823,42.3216],[-93.49233,42.31771],[-93.49034,42.31204],[-93.47887,42.31504],[-93.47291,42.31257],[-93.46904,42.31324],[-93.45949,42.30392],[-93.45953,42.30113],[-93.46402,42.30209],[-93.46564,42.30051],[-93.46273,42.29859],[-93.46304,42.29473],[-93.45703,42.28724],[-93.45927,42.28585],[-93.4599,42.27755],[-93.46202,42.27716],[-93.46283,42.27346],[-93.46507,42.27141],[-93.46414,42.26802],[-93.46034,42.26726],[-93.45834,42.2705],[-93.44907,42.27177],[-93.44206,42.26634],[-93.43772,42.25891],[-93.43531,42.25875],[-93.43482,42.26072],[-93.42916,42.26266],[-93.42564,42.25864],[-93.42193,42.25944],[-93.42167,42.25698],[-93.42437,42.25278],[-93.42228,42.25005],[-93.42225,42.24698],[-93.41988,42.24483],[-93.42387,42.24116],[-93.41806,42.23718],[-93.41628,42.23322],[-93.40842,42.22992],[-93.40736,42.22414],[-93.40059,42.21834],[-93.40246,42.21661],[-93.40004,42.21367],[-93.40084,42.21101],[-93.39908,42.20984],[-93.40161,42.20859],[-93.39669,42.20667],[-93.39867,42.20113],[-93.39548,42.19584],[-93.39784,42.19323],[-93.3965,42.18951],[-93.39933,42.18367],[-93.39727,42.18009],[-93.40073,42.17543],[-93.40167,42.17095],[-93.39825,42.16823],[-93.39379,42.16883],[-93.39189,42.16619],[-93.38202,42.1631],[-93.37987,42.16091],[-93.37599,42.16302],[-93.37375,42.16245],[-93.37159,42.15823],[-93.36848,42.15627],[-93.36246,42.15628],[-93.36152,42.15127],[-93.36369,42.14781],[-93.36145,42.14633],[-93.3596,42.14574],[-93.35614,42.14801],[-93.34558,42.1478],[-93.33626,42.1398],[-93.32679,42.13951],[-93.32573,42.14168],[-93.32383,42.14172],[-93.31768,42.14058],[-93.31532,42.13849],[-93.3136,42.14089],[-93.31112,42.14091],[-93.30565,42.13711],[-93.3102,42.1339],[-93.30888,42.13279],[-93.30466,42.13401],[-93.30056,42.13164],[-93.30445,42.12893],[-93.29972,42.12032],[-93.30247,42.11501],[-93.30112,42.11251],[-93.30529,42.10929],[-93.30633,42.10457],[-93.31016,42.10072],[-93.27444,42.08477],[-93.27643,42.08345],[-93.27541,42.07868],[-93.27325,42.07654],[-93.27459,42.07311],[-93.27245,42.07108],[-93.27057,42.06042],[-93.26774,42.05814],[-93.25531,42.05529],[-93.26218,42.05161],[-93.26273,42.04812],[-93.26897,42.04666],[-93.26299,42.04182],[-93.26264,42.039],[-93.27376,42.03627],[-93.26957,42.03168],[-93.27275,42.02963],[-93.27011,42.02631],[-93.27076,42.01713],[-93.27256,42.01377],[-93.26998,42.01297],[-93.26946,42.01105],[-93.26492,42.01343],[-93.26088,42.01253],[-93.25883,42.01412],[-93.25404,42.01422],[-93.25025,42.01813],[-93.2469,42.01893],[-93.22831,42.01859],[-93.22474,42.02358],[-93.2211,42.02505],[-93.2193,42.02328],[-93.20947,42.02399],[-93.2082,42.02015],[-93.21167,42.01752],[-93.20985,42.01434],[-93.20414,42.01158],[-93.20437,42.00767],[-93.19291,42.00761],[-93.16854,41.99438],[-93.16703,41.99225],[-93.16713,41.98792],[-93.1625,41.9865],[-93.15613,41.98048],[-93.14629,41.98022],[-93.14339,41.97571],[-93.13841,41.97482],[-93.13695,41.97704],[-93.12442,41.97115],[-93.12065,41.97203],[-93.11418,41.96961],[-93.10388,41.97085],[-93.09954,41.96753],[-93.09207,41.96557],[-93.09188,41.96284],[-93.0934,41.96136],[-93.091,41.95913],[-93.08312,41.95634],[-93.07066,41.95733],[-93.06572,41.95422],[-93.06612,41.95157],[-93.06342,41.94831],[-93.05753,41.94945],[-93.05609,41.94814],[-93.05628,41.94359],[-93.05218,41.94099],[-93.04345,41.94092],[-93.03328,41.9444],[-93.03221,41.9429],[-93.0332,41.94168],[-93.02738,41.93756],[-93.02932,41.93465],[-93.02319,41.93209],[-93.02115,41.92963],[-93.01266,41.92948],[-93.00799,41.92742],[-93.00869,41.92031],[-93.00567,41.91667],[-93.00625,41.91485],[-93.00219,41.91192],[-93.00125,41.90932],[-92.99513,41.90757],[-92.9932,41.90273],[-92.97683,41.89208],[-92.97176,41.892],[-92.96528,41.88884],[-92.96486,41.88667],[-92.96082,41.88369],[-92.95212,41.88656],[-92.94791,41.89161],[-92.94314,41.89201],[-92.93967,41.88426],[-92.9379,41.88315],[-92.92933,41.8841],[-92.93006,41.88069],[-92.92434,41.87665],[-92.92142,41.87685],[-92.91563,41.88078],[-92.91631,41.88293],[-92.91484,41.88407],[-92.90747,41.88313],[-92.9035,41.87857],[-92.89765,41.87876],[-92.89307,41.87564],[-92.89234,41.87164],[-92.89062,41.87188],[-92.89012,41.87007],[-92.88219,41.87096],[-92.87878,41.86658],[-92.87028,41.86746],[-92.86837,41.86558],[-92.86857,41.86172],[-92.86397,41.85857],[-92.83356,41.8546],[-92.83206,41.85226],[-92.82772,41.85097],[-92.82684,41.84765],[-92.82069,41.84504],[-92.81312,41.83812],[-92.813,41.83319],[-92.81131,41.83152],[-92.80203,41.83117],[-92.79867,41.82933],[-92.80016,41.82448],[-92.79755,41.82113],[-92.79499,41.82169],[-92.78342,41.81258],[-92.77895,41.81489],[-92.76719,41.80949],[-92.76025,41.80208],[-92.75884,41.79684],[-92.7542,41.79412],[-92.74908,41.79568],[-92.74203,41.79049],[-92.73814,41.7924],[-92.7294,41.78856],[-92.72792,41.78543],[-92.72281,41.78249],[-92.72026,41.77799],[-92.71428,41.77797],[-92.7113,41.77535],[-92.71093,41.77271],[-92.71312,41.76882],[-92.70784,41.76312],[-92.71137,41.75818],[-92.70716,41.75384],[-92.70879,41.75114],[-92.71904,41.74968],[-92.72346,41.75054],[-92.72731,41.74722],[-92.72391,41.73892],[-92.7157,41.73576],[-92.71821,41.72998],[-92.72167,41.72721],[-92.72059,41.72041],[-92.72357,41.71635],[-92.73016,41.71587],[-92.73574,41.71254],[-92.7337,41.70832],[-92.742,41.70213],[-92.73945,41.69827],[-92.74127,41.69402],[-92.73896,41.69275],[-92.73323,41.69345],[-92.72635,41.68839],[-92.71739,41.68767],[-92.71099,41.68532],[-92.70787,41.68245],[-92.69818,41.67876],[-92.69381,41.67177],[-92.68901,41.66962],[-92.66978,41.66813],[-92.66487,41.66299],[-92.66014,41.66363],[-92.64654,41.65736],[-92.64378,41.65217],[-92.63493,41.65373],[-92.63258,41.65197],[-92.62612,41.65176],[-92.61967,41.6474],[-92.62098,41.64528],[-92.62002,41.64411],[-92.61579,41.64307],[-92.60967,41.63626],[-92.59916,41.63236],[-92.59932,41.62922],[-92.59258,41.62483],[-92.58845,41.6249],[-92.57489,41.61915],[-92.56363,41.61938],[-92.55865,41.62196],[-92.5507,41.62285],[-92.53996,41.61811],[-92.53897,41.61546],[-92.5342,41.61269],[-92.53294,41.6089],[-92.52487,41.60554],[-92.518,41.59756],[-92.51893,41.59136],[-92.52213,41.58829],[-92.52373,41.5824],[-92.5266,41.57916],[-92.52525,41.5763],[-92.52199,41.57543],[-92.5102,41.56269],[-92.51056,41.55545],[-92.51948,41.55087],[-92.51884,41.54409],[-92.51428,41.54115],[-92.51328,41.53702],[-92.50343,41.53533],[-92.50065,41.52916],[-92.49114,41.523],[-92.49096,41.51051],[-92.48904,41.50712],[-92.48067,41.50644],[-92.46817,41.50947],[-92.45356,41.50806],[-92.44906,41.50227],[-92.43861,41.49758],[-92.4318,41.49677],[-92.42753,41.49818],[-92.42476,41.49569],[-92.41962,41.49701],[-92.4088,41.49266],[-92.4055,41.49318],[-92.39746,41.4909],[-92.3945,41.48904],[-92.3946,41.47994],[-92.38697,41.47666],[-92.37389,41.47736],[-92.37059,41.47373],[-92.36399,41.47232],[-92.35559,41.47401],[-92.34429,41.47157],[-92.33956,41.46888],[-92.33001,41.46902],[-92.32505,41.46485],[-92.31958,41.46792],[-92.30721,41.46729],[-92.30526,41.46682],[-92.30344,41.46153],[-92.287,41.45566],[-92.28379,41.45601],[-92.28032,41.45889],[-92.27597,41.45637],[-92.26783,41.45554],[-92.26112,41.4591],[-92.2574,41.45646],[-92.25363,41.4575],[-92.24858,41.45556],[-92.24578,41.45154],[-92.24379,41.45136],[-92.2413,41.45439],[-92.23417,41.4551],[-92.22627,41.45045],[-92.21982,41.45253],[-92.21793,41.44956],[-92.2088,41.44872],[-92.20677,41.44567],[-92.19624,41.43955],[-92.19303,41.43913],[-92.18886,41.44166],[-92.17591,41.43793],[-92.16911,41.4377],[-92.16119,41.4437],[-92.15929,41.44697],[-92.14648,41.45019],[-92.14035,41.44806],[-92.13515,41.45155],[-92.12845,41.45251],[-92.12995,41.45498],[-92.12424,41.45417],[-92.12071,41.45708],[-92.11558,41.45156],[-92.11308,41.4524],[-92.1052,41.44937],[-92.10362,41.45286],[-92.09968,41.45337],[-92.09759,41.45611],[-92.08974,41.4536],[-92.08385,41.45569],[-92.08205,41.45444],[-92.08082,41.44863],[-92.06086,41.43943],[-92.06125,41.43283],[-92.05448,41.43038],[-92.03544,41.43072],[-92.02532,41.43404],[-92.01466,41.4431],[-91.99795,41.44617],[-91.98482,41.44362],[-91.97614,41.43837],[-91.9723,41.43255],[-91.96796,41.43037],[-91.95042,41.42687],[-91.92911,41.42852],[-91.91339,41.43481],[-91.90345,41.43285],[-91.89532,41.43423],[-91.89171,41.42795],[-91.88482,41.43071],[-91.86809,41.42934],[-91.86066,41.42693],[-91.85411,41.42701],[-91.8378,41.42111],[-91.83495,41.42302],[-91.83361,41.4281],[-91.82999,41.43078],[-91.82197,41.42928],[-91.82012,41.42799],[-91.82022,41.42174],[-91.81294,41.41482],[-91.79584,41.4086],[-91.79282,41.40767],[-91.78612,41.40985],[-91.77912,41.40907],[-91.77542,41.41102],[-91.77177,41.40834],[-91.76125,41.40882],[-91.75779,41.40718],[-91.75583,41.40302],[-91.75538,41.39567],[-91.76747,41.3881],[-91.77211,41.3696],[-91.77107,41.36316],[-91.76632,41.36226],[-91.7572,41.35608],[-91.74772,41.35444],[-91.7367,41.34775],[-91.73125,41.34851],[-91.71686,41.34511],[-91.71735,41.34124],[-91.7155,41.33686],[-91.70683,41.33067],[-91.70701,41.32513],[-91.70479,41.31868],[-91.70227,41.31657],[-91.69153,41.31595],[-91.6893,41.31434],[-91.68637,41.30797],[-91.68719,41.30087],[-91.68574,41.2919],[-91.67563,41.28536],[-91.66669,41.27157],[-91.65226,41.26579],[-91.64909,41.26721],[-91.64831,41.27129],[-91.60398,41.2506],[-91.59251,41.24945],[-91.58599,41.24193],[-91.58215,41.24018],[-91.5822,41.23656],[-91.57766,41.23626],[-91.57276,41.23167],[-91.5641,41.23005],[-91.54472,41.23078],[-91.53922,41.2293],[-91.53388,41.23281],[-91.53073,41.23311],[-91.52494,41.23223],[-91.52154,41.22869],[-91.51204,41.22751],[-91.50829,41.22182],[-91.49179,41.21596],[-91.49713,41.20178],[-91.49758,41.19873],[-91.49619,41.197],[-91.48551,41.19475],[-91.4799,41.19059],[-91.46533,41.18894],[-91.46201,41.18418],[-91.4622,41.17859],[-91.4571,41.17502],[-91.45494,41.17434],[-91.44699,41.17798],[-91.44009,41.17746],[-91.4367,41.17457],[-91.43832,41.16891],[-91.4374,41.16703],[-91.43158,41.16399],[-91.41993,41.16308],[-91.41496,41.15999],[-91.41064,41.16097],[-91.40945,41.16778],[-91.40587,41.17024],[-91.40718,41.17424],[-91.40297,41.17669],[-91.40089,41.17597],[-91.40045,41.17365],[-91.39491,41.17226],[-91.39348,41.1704],[-91.38515,41.17064],[-91.37538,41.16741],[-91.36445,41.17347],[-91.35972,41.17274],[-91.35417,41.16668],[-91.35452,41.16264],[-91.35042,41.15885],[-91.35077,41.15457],[-91.33857,41.15252],[-91.33802,41.14923],[-91.34179,41.14861],[-91.34293,41.14224],[-91.33875,41.13884],[-91.33663,41.13388],[-91.32981,41.12671],[-91.3206,41.12022],[-91.31808,41.12081],[-91.30982,41.1182],[-91.30367,41.11059],[-91.29584,41.10615],[-91.29177,41.10072],[-91.29221,41.09582],[-91.28574,41.08936],[-91.2842,41.08077],[-91.29437,41.07417],[-91.28442,41.06119],[-91.2948,41.05303],[-91.29805,41.04587],[-91.30365,41.04545],[-91.30724,41.04197],[-91.31321,41.03999],[-91.31272,41.03404],[-91.31866,41.02839],[-91.31893,41.02333],[-91.32733,41.01928],[-91.32704,41.01609],[-91.3226,41.01595],[-91.3205,41.00524],[-91.32039,41.00269],[-91.32468,40.99698],[-91.33365,40.99372],[-91.34188,40.99839],[-91.34524,40.99166],[-91.35271,40.98698],[-91.34902,40.97746],[-91.35283,40.9738],[-91.36429,40.97253],[-91.39107,40.96336],[-91.39532,40.95715],[-91.39568,40.95406],[-91.4005,40.94929],[-91.39996,40.94693],[-91.4082,40.94152],[-91.40661,40.93688],[-91.39736,40.92798],[-91.37796,40.91556],[-91.37292,40.91458],[-91.37045,40.91071],[-91.36743,40.91063],[-91.36093,40.90615],[-91.35909,40.90795],[-91.35583,40.90463],[-91.3343,40.90048],[-91.33119,40.89312],[-91.32303,40.88612],[-91.32998,40.87866],[-91.32397,40.87407],[-91.32372,40.8706],[-91.32848,40.86632],[-91.33326,40.85618],[-91.32625,40.83766],[-91.32528,40.83014],[-91.33612,40.8182],[-91.33331,40.8081],[-91.32538,40.80647],[-91.31802,40.80084],[-91.31218,40.80016],[-91.31071,40.79792],[-91.30268,40.79617],[-91.29868,40.79204],[-91.29069,40.78775],[-91.28045,40.78584],[-91.27765,40.78107],[-91.26858,40.77608],[-91.2667,40.77165],[-91.27615,40.76161],[-91.27457,40.75895],[-91.27615,40.75151],[-91.28526,40.75048],[-91.29368,40.74706],[-91.29333,40.74341],[-91.2965,40.74065],[-91.29662,40.73824],[-91.30094,40.736],[-91.30817,40.73591],[-91.32271,40.74089],[-91.34428,40.74314],[-91.35007,40.74602],[-91.35485,40.75157],[-91.35969,40.75084],[-91.36158,40.75369],[-91.37158,40.75491],[-91.37919,40.75872],[-91.38553,40.75966],[-91.38954,40.7573],[-91.39279,40.75746],[-91.39793,40.7615],[-91.40369,40.76274],[-91.40423,40.76667],[-91.40958,40.76584],[-91.41055,40.76238],[-91.4153,40.75879]]]}}]}