{"type":"FeatureCollection","features":[{"type":"Feature","properties":{},"geometry":{"type":"Polygon","coordinates":[[[-96.01494,41.85312],[-96.01521,41.85894],[-96.01834,41.8602],[-96.01602,41.86706],[-96.01347,41.87028],[-96.00873,41.87161],[-96.00831,41.87504],[-96.00325,41.87721],[-96.00245,41.87912],[-95.99909,41.87765],[-95.99928,41.89226],[-95.99781,41.89504],[-95.99435,41.89809],[-95.98805,41.89772],[-95.98645,41.90169],[-95.98114,41.90161],[-95.98012,41.90494],[-95.98397,41.90829],[-95.98179,41.90944],[-95.98133,41.91525],[-95.97524,41.91625],[-95.97529,41.92531],[-95.97926,41.92686],[-95.97778,41.93008],[-95.97524,41.93038],[-95.97486,41.94098],[-95.98033,41.94187],[-95.98069,41.94917],[-95.98339,41.94996],[-95.98725,41.96148],[-95.98888,41.96264],[-95.98232,41.96507],[-95.9822,41.96988],[-95.98603,41.97252],[-95.98579,41.97488],[-95.98871,41.97483],[-95.99163,41.97947],[-95.98965,41.98578],[-95.98405,41.98559],[-95.9836,41.98803],[-95.98475,41.99364],[-95.98786,41.99269],[-95.98842,41.99059],[-95.9909,41.99122],[-95.98796,41.99928],[-95.98545,42.00017],[-95.98542,42.00814],[-95.98906,42.00943],[-95.99089,42.01428],[-95.98979,42.01551],[-95.99369,42.01902],[-95.99291,42.02013],[-95.98505,42.01925],[-96.00663,42.03013],[-96.01131,42.03064],[-96.01166,42.03679],[-96.01825,42.04244],[-96.0191,42.0461],[-96.03002,42.05269],[-96.03115,42.0574],[-96.0353,42.05841],[-96.03525,42.06325],[-96.03177,42.06737],[-96.03396,42.06925],[-96.03356,42.07222],[-96.03649,42.07311],[-96.03506,42.07593],[-96.03834,42.07637],[-96.03869,42.08984],[-96.03526,42.09154],[-96.03678,42.0942],[-96.03414,42.09836],[-96.02964,42.09527],[-96.01575,42.09442],[-96.01102,42.09885],[-96.0031,42.10185],[-96.00349,42.1078],[-96.0075,42.11107],[-96.01001,42.11098],[-96.01116,42.11563],[-96.01715,42.11455],[-96.01591,42.11672],[-96.01678,42.11845],[-96.00518,42.12273],[-96.0055,42.14249],[-96.00311,42.14986],[-96.0053,42.15249],[-96.00672,42.16178],[-96.00948,42.16422],[-96.00994,42.17313],[-96.00838,42.1756],[-96.01009,42.17863],[-96.00932,42.18313],[-96.00608,42.18247],[-95.99962,42.18835],[-96.00091,42.19171],[-95.99579,42.19332],[-95.99356,42.20183],[-95.98794,42.20506],[-95.98973,42.20693],[-95.98892,42.20926],[-95.98131,42.21221],[-95.97864,42.21705],[-95.97072,42.21738],[-95.96838,42.22075],[-95.96982,42.22363],[-95.96614,42.22804],[-95.96395,42.22755],[-95.95982,42.2311],[-95.95646,42.23086],[-95.95901,42.23459],[-95.96198,42.23554],[-95.96005,42.24297],[-95.95857,42.24362],[-95.95851,42.24657],[-95.96159,42.25194],[-95.95942,42.25579],[-95.95446,42.25715],[-95.95209,42.25968],[-95.95479,42.2623],[-95.95479,42.26547],[-95.94864,42.2693],[-95.95017,42.27132],[-95.9469,42.27445],[-95.94689,42.27761],[-95.94892,42.27863],[-95.95034,42.28316],[-95.94535,42.28636],[-95.94588,42.28847],[-95.94818,42.28935],[-95.94708,42.29258],[-95.94376,42.29467],[-95.94049,42.29364],[-95.93829,42.29551],[-95.93363,42.29502],[-95.93208,42.29643],[-95.92843,42.29474],[-95.92621,42.29631],[-95.92715,42.3041],[-95.9284,42.30463],[-95.92533,42.30626],[-95.92509,42.30865],[-95.92802,42.31161],[-95.92911,42.31965],[-95.92221,42.32427],[-95.92068,42.32287],[-95.91896,42.32349],[-95.91656,42.32628],[-95.91752,42.33335],[-95.91271,42.34112],[-95.91066,42.34155],[-95.91139,42.34389],[-95.90786,42.34772],[-95.91222,42.3513],[-95.91116,42.35458],[-95.91267,42.35652],[-95.90992,42.35682],[-95.90784,42.35933],[-95.90768,42.36663],[-95.91073,42.3674],[-95.91273,42.36987],[-95.91123,42.37353],[-95.90853,42.37411],[-95.90808,42.38033],[-95.9024,42.38932],[-95.90463,42.39396],[-95.90276,42.39519],[-95.90443,42.39772],[-95.90282,42.39994],[-95.90524,42.40243],[-95.90235,42.40764],[-95.90261,42.4114],[-95.90517,42.41435],[-95.90394,42.41657],[-95.90468,42.42092],[-95.90296,42.42213],[-95.9059,42.4248],[-95.90389,42.42895],[-95.90574,42.43303],[-95.90477,42.4377],[-95.90169,42.4385],[-95.90226,42.44036],[-95.90036,42.44196],[-95.9047,42.44601],[-95.90343,42.44913],[-95.90479,42.4511],[-95.89814,42.4554],[-95.90107,42.45755],[-95.90774,42.45822],[-95.90878,42.46008],[-95.91514,42.46082],[-95.91486,42.4647],[-95.92235,42.47152],[-95.91825,42.47484],[-95.91586,42.48068],[-95.91279,42.48091],[-95.91156,42.48348],[-95.91572,42.48493],[-95.91518,42.48749],[-95.90873,42.49378],[-95.9047,42.49378],[-95.90149,42.49698],[-95.89881,42.49673],[-95.89859,42.5005],[-95.89577,42.49949],[-95.89073,42.50263],[-95.89393,42.5048],[-95.89439,42.51014],[-95.90467,42.51471],[-95.90248,42.519],[-95.90318,42.52357],[-95.92021,42.53373],[-95.92005,42.54173],[-95.92243,42.54445],[-95.91859,42.5488],[-95.91453,42.5505],[-95.91369,42.55323],[-95.91121,42.55386],[-95.90692,42.56271],[-95.90375,42.56413],[-95.9056,42.56858],[-95.90532,42.57349],[-95.89774,42.58086],[-95.8994,42.58343],[-95.89753,42.59119],[-95.89312,42.5919],[-95.88694,42.59602],[-95.87917,42.59401],[-95.86463,42.59448],[-95.86278,42.60284],[-95.85912,42.60603],[-95.86092,42.60853],[-95.85413,42.61316],[-95.84677,42.61181],[-95.84402,42.61405],[-95.84095,42.61344],[-95.83743,42.6158],[-95.82448,42.61834],[-95.82357,42.62332],[-95.81952,42.62466],[-95.82194,42.62692],[-95.82097,42.63379],[-95.81169,42.63727],[-95.81248,42.64075],[-95.80754,42.64605],[-95.80767,42.64987],[-95.80436,42.65025],[-95.79833,42.64728],[-95.79413,42.6484],[-95.78815,42.65494],[-95.78613,42.65992],[-95.78045,42.66394],[-95.78047,42.66756],[-95.77559,42.66754],[-95.77302,42.67346],[-95.77008,42.67446],[-95.76967,42.67692],[-95.76524,42.6796],[-95.76637,42.68708],[-95.76002,42.6973],[-95.76332,42.70187],[-95.75932,42.70416],[-95.75978,42.70963],[-95.75792,42.71165],[-95.75778,42.7184],[-95.76105,42.72093],[-95.76193,42.731],[-95.76541,42.73758],[-95.75747,42.74358],[-95.75911,42.74857],[-95.75652,42.75206],[-95.75282,42.75086],[-95.74869,42.7529],[-95.7477,42.75603],[-95.74875,42.75876],[-95.74153,42.76074],[-95.73988,42.76411],[-95.7406,42.76921],[-95.73763,42.7743],[-95.74179,42.78522],[-95.73278,42.78906],[-95.73257,42.79108],[-95.73536,42.79403],[-95.7333,42.79532],[-95.73297,42.79889],[-95.7248,42.80464],[-95.72718,42.80757],[-95.72556,42.80848],[-95.72642,42.81267],[-95.72475,42.81382],[-95.72322,42.81936],[-95.71827,42.8191],[-95.71324,42.82349],[-95.71327,42.8264],[-95.71786,42.83064],[-95.71325,42.8331],[-95.71552,42.83732],[-95.7117,42.83979],[-95.71238,42.84703],[-95.7167,42.85187],[-95.70963,42.85694],[-95.71126,42.8618],[-95.71956,42.86555],[-95.72697,42.85966],[-95.73991,42.86613],[-95.76431,42.86574],[-95.78525,42.87332],[-95.79269,42.8712],[-95.79965,42.86664],[-95.80682,42.87171],[-95.80925,42.87994],[-95.79679,42.88601],[-95.79174,42.89164],[-95.78406,42.89336],[-95.77742,42.90057],[-95.78036,42.90594],[-95.78425,42.90683],[-95.79279,42.91585],[-95.80212,42.91967],[-95.80505,42.92612],[-95.80783,42.92813],[-95.81022,42.93409],[-95.8093,42.93655],[-95.81537,42.93822],[-95.82033,42.94271],[-95.82114,42.94743],[-95.82865,42.94978],[-95.82795,42.95277],[-95.82359,42.95416],[-95.81219,42.95331],[-95.81051,42.95889],[-95.82056,42.96412],[-95.82097,42.96783],[-95.82563,42.97234],[-95.82657,42.97683],[-95.84225,42.98278],[-95.8415,42.98632],[-95.83689,42.98995],[-95.83794,43.00057],[-95.83491,43.00336],[-95.83257,43.01048],[-95.82579,43.01438],[-95.81587,43.01435],[-95.80332,43.00791],[-95.783,43.00557],[-95.77744,43.00932],[-95.77614,43.01137],[-95.77687,43.01548],[-95.78429,43.0189],[-95.77961,43.0249],[-95.79092,43.02965],[-95.79419,43.03402],[-95.79165,43.03462],[-95.78268,43.04626],[-95.78118,43.05829],[-95.78262,43.0631],[-95.77191,43.07011],[-95.77091,43.07207],[-95.77322,43.07625],[-95.76037,43.08685],[-95.74976,43.09065],[-95.74472,43.09721],[-95.74305,43.1038],[-95.74748,43.10757],[-95.74821,43.11025],[-95.75638,43.11607],[-95.75504,43.1206],[-95.76002,43.12317],[-95.75356,43.12917],[-95.74822,43.13241],[-95.74091,43.13221],[-95.73311,43.13626],[-95.73116,43.13941],[-95.71107,43.13525],[-95.70641,43.13558],[-95.69974,43.1406],[-95.69385,43.14092],[-95.69026,43.14317],[-95.67738,43.14618],[-95.67208,43.1442],[-95.65713,43.1446],[-95.65489,43.14296],[-95.65155,43.14498],[-95.64471,43.14517],[-95.64116,43.14454],[-95.63651,43.14061],[-95.63546,43.14447],[-95.62957,43.14506],[-95.61274,43.15528],[-95.61595,43.17118],[-95.60459,43.17127],[-95.60379,43.17437],[-95.59702,43.17488],[-95.59298,43.18264],[-95.594,43.18583],[-95.59748,43.189],[-95.59272,43.19271],[-95.5935,43.19651],[-95.58792,43.20709],[-95.58753,43.21004],[-95.59463,43.22685],[-95.59224,43.23048],[-95.5948,43.23613],[-95.59505,43.24584],[-95.60263,43.25211],[-95.60321,43.25845],[-95.60787,43.26507],[-95.60766,43.27095],[-95.60556,43.27307],[-95.61049,43.27734],[-95.60954,43.2813],[-95.6116,43.28454],[-95.60913,43.28971],[-95.61317,43.29729],[-95.61354,43.30135],[-95.61646,43.30482],[-95.61813,43.31277],[-95.61786,43.31588],[-95.61345,43.3216],[-95.61414,43.32468],[-95.61054,43.32767],[-95.61467,43.33087],[-95.61439,43.33402],[-95.623,43.33754],[-95.62335,43.34194],[-95.62503,43.34288],[-95.63365,43.34423],[-95.63549,43.34777],[-95.64992,43.34644],[-95.6513,43.3524],[-95.65607,43.35308],[-95.6544,43.35973],[-95.65718,43.36503],[-95.65632,43.36622],[-95.66576,43.37819],[-95.66839,43.38423],[-95.67095,43.38548],[-95.66859,43.38738],[-95.67386,43.39487],[-95.67091,43.39703],[-95.67122,43.39988],[-95.66911,43.4023],[-95.67396,43.40658],[-95.67474,43.41716],[-95.6812,43.41693],[-95.69,43.42452],[-95.69625,43.43275],[-95.6957,43.43729],[-95.69816,43.44124],[-95.69753,43.44329],[-95.68515,43.44918],[-95.68727,43.45291],[-95.68599,43.4555],[-95.69327,43.47032],[-95.69005,43.47946],[-95.69157,43.47998],[-95.69149,43.48348],[-95.69521,43.48813],[-95.69069,43.49447],[-95.68985,43.49983],[-95.6838,43.49998],[-95.68235,43.50866],[-95.68431,43.51303],[-95.68354,43.51599],[-95.67493,43.52298],[-95.68237,43.52644],[-95.68488,43.53087],[-95.69218,43.53683],[-95.7025,43.53671],[-95.70748,43.53927],[-95.69961,43.54572],[-95.69589,43.54597],[-95.69565,43.55181],[-95.69381,43.55308],[-95.69193,43.55919],[-95.69526,43.56206],[-95.68847,43.56521],[-95.67802,43.56309],[-95.67284,43.56889],[-95.67409,43.57039],[-95.67339,43.57252],[-95.66258,43.57169],[-95.65659,43.57544],[-95.65902,43.57773],[-95.65688,43.58055],[-95.66421,43.58311],[-95.66411,43.58629],[-95.67168,43.59568],[-95.66871,43.60012],[-95.67168,43.60196],[-95.67097,43.60384],[-95.67285,43.60747],[-95.6754,43.60986],[-95.6777,43.61029],[-95.68025,43.60817],[-95.68478,43.60992],[-95.68189,43.61151],[-95.68417,43.61548],[-95.68166,43.6179],[-95.68401,43.62236],[-95.68692,43.6225],[-95.69372,43.62774],[-95.70114,43.62501],[-95.70822,43.62852],[-95.70902,43.64079],[-95.70599,43.64534],[-95.70638,43.64899],[-95.70115,43.65103],[-95.70116,43.65257],[-95.71046,43.65546],[-95.71384,43.65935],[-95.71645,43.65826],[-95.721,43.66158],[-95.72595,43.66184],[-95.7284,43.6645],[-95.72545,43.66546],[-95.72171,43.66956],[-95.72093,43.67386],[-95.71784,43.67634],[-95.7163,43.68031],[-95.71152,43.68243],[-95.70291,43.69237],[-95.69962,43.69382],[-95.70015,43.69829],[-95.68999,43.69704],[-95.68833,43.69474],[-95.68517,43.69403],[-95.67737,43.68541],[-95.66539,43.68273],[-95.66357,43.68069],[-95.66339,43.67603],[-95.66011,43.67315],[-95.6611,43.6661],[-95.6537,43.6638],[-95.65241,43.66414],[-95.65292,43.6663],[-95.64761,43.66774],[-95.6412,43.66357],[-95.63988,43.65972],[-95.63553,43.6592],[-95.63467,43.65777],[-95.63639,43.65603],[-95.63258,43.65133],[-95.62724,43.65051],[-95.62563,43.64718],[-95.61813,43.64711],[-95.61604,43.64533],[-95.61585,43.63972],[-95.61324,43.64003],[-95.61079,43.63388],[-95.61282,43.63218],[-95.61489,43.62425],[-95.61304,43.62263],[-95.60612,43.62106],[-95.60079,43.62262],[-95.59391,43.61876],[-95.58557,43.62567],[-95.57998,43.62786],[-95.5796,43.63074],[-95.57753,43.63107],[-95.57775,43.63316],[-95.57084,43.63448],[-95.56907,43.62823],[-95.5668,43.62631],[-95.56748,43.625],[-95.56288,43.62081],[-95.55335,43.61707],[-95.54059,43.62507],[-95.52963,43.62683],[-95.52916,43.63048],[-95.52166,43.63065],[-95.51179,43.63478],[-95.51149,43.63879],[-95.50232,43.63962],[-95.49819,43.64279],[-95.49586,43.64093],[-95.4961,43.63886],[-95.49,43.63544],[-95.49051,43.63046],[-95.48281,43.62846],[-95.48007,43.62967],[-95.47253,43.62837],[-95.46525,43.63021],[-95.45768,43.62922],[-95.45431,43.63067],[-95.45559,43.63197],[-95.45409,43.63404],[-95.45529,43.64035],[-95.45189,43.64465],[-95.44057,43.65024],[-95.43466,43.6591],[-95.43609,43.66742],[-95.4301,43.66928],[-95.42838,43.66569],[-95.41457,43.66963],[-95.41107,43.66597],[-95.41018,43.6577],[-95.40037,43.64906],[-95.39031,43.65202],[-95.38497,43.64798],[-95.37841,43.64634],[-95.3753,43.65272],[-95.36895,43.65561],[-95.35908,43.65309],[-95.35715,43.64899],[-95.35078,43.64692],[-95.33265,43.64421],[-95.33031,43.64899],[-95.33549,43.65371],[-95.33509,43.65991],[-95.33004,43.66128],[-95.33036,43.66563],[-95.3111,43.66819],[-95.30075,43.66725],[-95.29671,43.67079],[-95.28885,43.65936],[-95.2844,43.6596],[-95.27821,43.65416],[-95.27139,43.65495],[-95.26871,43.65257],[-95.26966,43.64994],[-95.26546,43.64872],[-95.25944,43.65129],[-95.25161,43.65163],[-95.24758,43.65412],[-95.23973,43.64914],[-95.22913,43.64957],[-95.22172,43.65193],[-95.22019,43.65461],[-95.21432,43.655],[-95.21048,43.65378],[-95.21004,43.65175],[-95.20823,43.65241],[-95.20898,43.64895],[-95.20517,43.64595],[-95.18932,43.64604],[-95.18905,43.64436],[-95.18085,43.64297],[-95.17549,43.6465],[-95.16984,43.64737],[-95.16952,43.65103],[-95.16678,43.64997],[-95.16499,43.65795],[-95.16216,43.65886],[-95.15747,43.65741],[-95.15427,43.66072],[-95.14822,43.65881],[-95.14433,43.66302],[-95.1147,43.6556],[-95.1109,43.65904],[-95.10597,43.65754],[-95.10833,43.65163],[-95.10454,43.6475],[-95.10613,43.64571],[-95.08774,43.64118],[-95.08864,43.63913],[-95.0871,43.63638],[-95.08566,43.63524],[-95.08352,43.63628],[-95.08234,43.63413],[-95.07401,43.63297],[-95.06742,43.63603],[-95.06357,43.63224],[-95.06392,43.62627],[-95.06136,43.6251],[-95.06223,43.6214],[-95.06971,43.61734],[-95.06174,43.61449],[-95.06053,43.60817],[-95.06554,43.6043],[-95.06408,43.60231],[-95.06512,43.60115],[-95.07222,43.5973],[-95.07179,43.59503],[-95.06836,43.59383],[-95.06794,43.5891],[-95.06532,43.58932],[-95.06622,43.58509],[-95.06374,43.5774],[-95.06556,43.57519],[-95.06571,43.56669],[-95.06858,43.56383],[-95.06873,43.55879],[-95.07261,43.55569],[-95.06821,43.55028],[-95.07003,43.54555],[-95.06578,43.53971],[-95.06962,43.5353],[-95.06901,43.53138],[-95.06571,43.53035],[-95.06874,43.5293],[-95.07519,43.53098],[-95.0744,43.52282],[-95.08282,43.51786],[-95.07947,43.51585],[-95.08033,43.51305],[-95.07594,43.51091],[-95.06966,43.511],[-95.06333,43.50684],[-95.05731,43.50828],[-95.04817,43.50502],[-95.04508,43.50711],[-95.0418,43.5063],[-95.04138,43.50079],[-95.04284,43.49742],[-95.04645,43.49653],[-95.04838,43.49219],[-95.04629,43.49045],[-95.03978,43.49],[-95.03522,43.49184],[-95.02778,43.49007],[-95.01473,43.49059],[-95.01201,43.4877],[-95.00524,43.48594],[-94.9936,43.48589],[-94.99934,43.47873],[-94.99835,43.47162],[-95.00028,43.46892],[-95.00225,43.46945],[-95.00411,43.46784],[-95.00317,43.45872],[-95.00796,43.45637],[-95.01639,43.45615],[-95.01879,43.45404],[-95.01652,43.45066],[-95.01784,43.44778],[-95.01612,43.446],[-95.01722,43.44264],[-95.01437,43.44198],[-95.01111,43.43826],[-95.0141,43.4348],[-95.01359,43.43157],[-95.00735,43.43032],[-94.99778,43.43486],[-94.98899,43.4346],[-94.98578,43.43692],[-94.97911,43.43459],[-94.97111,43.4282],[-94.95876,43.42647],[-94.95567,43.4282],[-94.95575,43.43024],[-94.94075,43.43474],[-94.93018,43.43366],[-94.93141,43.42691],[-94.93583,43.42399],[-94.93544,43.42196],[-94.938,43.4199],[-94.93481,43.41466],[-94.93488,43.40726],[-94.93975,43.40539],[-94.94051,43.40348],[-94.93906,43.40104],[-94.94023,43.39866],[-94.93921,43.3914],[-94.9359,43.38885],[-94.93777,43.38668],[-94.93691,43.38346],[-94.93027,43.37964],[-94.93097,43.37858],[-94.92822,43.37544],[-94.92893,43.37241],[-94.92362,43.36984],[-94.9203,43.36173],[-94.91738,43.36091],[-94.91135,43.36378],[-94.90883,43.36173],[-94.91079,43.36034],[-94.90933,43.35761],[-94.90107,43.35509],[-94.8898,43.34814],[-94.88731,43.33946],[-94.88392,43.33743],[-94.88726,43.33512],[-94.8868,43.33387],[-94.88436,43.33277],[-94.88274,43.32796],[-94.87935,43.32574],[-94.8801,43.32412],[-94.87598,43.32219],[-94.87749,43.31958],[-94.87684,43.31287],[-94.87875,43.31199],[-94.87872,43.30921],[-94.88142,43.30787],[-94.87887,43.30606],[-94.8765,43.301],[-94.87431,43.30134],[-94.86988,43.298],[-94.86694,43.29828],[-94.86211,43.29469],[-94.86026,43.28939],[-94.86098,43.28567],[-94.85446,43.28095],[-94.85181,43.28108],[-94.84774,43.27457],[-94.8481,43.26947],[-94.85066,43.26734],[-94.85301,43.26796],[-94.85536,43.2637],[-94.85382,43.261],[-94.85491,43.25836],[-94.85249,43.25474],[-94.8561,43.25057],[-94.85702,43.24135],[-94.85945,43.24039],[-94.85236,43.23335],[-94.85186,43.23145],[-94.85456,43.22831],[-94.85248,43.22363],[-94.8472,43.22101],[-94.8484,43.21733],[-94.8463,43.21635],[-94.84348,43.20963],[-94.84449,43.20743],[-94.83916,43.20241],[-94.8418,43.19887],[-94.84966,43.1949],[-94.84643,43.1947],[-94.84616,43.19138],[-94.83589,43.18718],[-94.83815,43.184],[-94.83599,43.18143],[-94.83658,43.17894],[-94.84403,43.17659],[-94.83874,43.17221],[-94.8415,43.16832],[-94.84137,43.16496],[-94.83944,43.16311],[-94.84207,43.16126],[-94.84113,43.15779],[-94.84222,43.15628],[-94.84047,43.1534],[-94.84221,43.15239],[-94.85197,43.15337],[-94.86232,43.14747],[-94.85713,43.14383],[-94.86282,43.13673],[-94.85689,43.13457],[-94.85598,43.12661],[-94.85118,43.12642],[-94.85011,43.12345],[-94.85704,43.12276],[-94.85705,43.12017],[-94.86111,43.11632],[-94.86004,43.11111],[-94.86336,43.10654],[-94.86277,43.10414],[-94.8661,43.1042],[-94.86983,43.10054],[-94.87748,43.09895],[-94.88186,43.09611],[-94.8797,43.09268],[-94.8843,43.0834],[-94.88139,43.0812],[-94.88679,43.07745],[-94.89003,43.07783],[-94.89714,43.0692],[-94.90633,43.05371],[-94.90999,43.05129],[-94.91875,43.05348],[-94.92183,43.05323],[-94.92205,43.05073],[-94.93094,43.05],[-94.92954,43.04783],[-94.93191,43.04649],[-94.93014,43.0432],[-94.93142,43.04035],[-94.93058,43.03618],[-94.93401,43.03076],[-94.92963,43.02833],[-94.93233,43.02433],[-94.9308,43.01913],[-94.92648,43.01722],[-94.92904,43.01605],[-94.92747,43.01183],[-94.93561,43.0119],[-94.93691,43.00413],[-94.93991,43.00334],[-94.94294,43.00675],[-94.95067,43.00601],[-94.95236,43.00446],[-94.96246,43.0066],[-94.96385,43.00395],[-94.97037,43.00593],[-94.97212,43.00952],[-94.97524,43.00953],[-94.97464,43.00547],[-94.97608,43.00229],[-94.97399,42.99988],[-94.97624,42.99865],[-94.9769,42.99403],[-94.97532,42.99312],[-94.97622,42.99092],[-94.97394,42.98791],[-94.97519,42.98671],[-94.97456,42.98284],[-94.97185,42.98201],[-94.96989,42.97922],[-94.97071,42.97293],[-94.97365,42.97115],[-94.9734,42.96488],[-94.97768,42.9563],[-94.97744,42.95284],[-94.98052,42.95138],[-94.98523,42.94419],[-94.99086,42.94003],[-94.98982,42.93652],[-94.99149,42.92985],[-94.98707,42.92821],[-94.98917,42.92419],[-94.99276,42.92427],[-94.99209,42.91943],[-94.99495,42.91585],[-94.99909,42.91499],[-94.99986,42.90932],[-95.005,42.90153],[-95.00321,42.90035],[-95.00344,42.89799],[-95.00752,42.895],[-95.00558,42.89281],[-95.00667,42.8864],[-95.00463,42.88389],[-95.00736,42.883],[-95.01116,42.87822],[-95.01404,42.87791],[-95.0216,42.88245],[-95.02014,42.88457],[-95.02388,42.88667],[-95.02713,42.88624],[-95.03929,42.88961],[-95.04691,42.88534],[-95.05217,42.88635],[-95.05463,42.89093],[-95.05824,42.89226],[-95.06266,42.88795],[-95.06571,42.88948],[-95.0694,42.88807],[-95.06777,42.88592],[-95.07128,42.88457],[-95.07094,42.88242],[-95.07821,42.87675],[-95.09127,42.87611],[-95.09767,42.87232],[-95.10875,42.87559],[-95.1174,42.87245],[-95.11667,42.87132],[-95.1192,42.86908],[-95.12579,42.86935],[-95.12648,42.87152],[-95.13367,42.87411],[-95.1438,42.87071],[-95.15859,42.87281],[-95.16102,42.86422],[-95.16339,42.86323],[-95.16343,42.85509],[-95.16472,42.85346],[-95.17263,42.8536],[-95.17442,42.85052],[-95.18492,42.84571],[-95.19147,42.84551],[-95.1974,42.8474],[-95.19806,42.84545],[-95.20496,42.84475],[-95.21092,42.8417],[-95.21611,42.84349],[-95.21875,42.84257],[-95.21757,42.84056],[-95.22172,42.83794],[-95.22088,42.83569],[-95.22401,42.83045],[-95.23429,42.82925],[-95.2396,42.82699],[-95.24112,42.82446],[-95.23903,42.82175],[-95.24094,42.81497],[-95.22797,42.80777],[-95.22383,42.80225],[-95.22611,42.79824],[-95.22384,42.78434],[-95.22532,42.78226],[-95.22338,42.77765],[-95.22641,42.77043],[-95.23593,42.76648],[-95.23575,42.76298],[-95.24738,42.75996],[-95.25044,42.75593],[-95.25513,42.75526],[-95.25067,42.75033],[-95.2514,42.74355],[-95.24354,42.73667],[-95.24709,42.73113],[-95.24425,42.72648],[-95.22945,42.71839],[-95.2329,42.7133],[-95.23003,42.70929],[-95.23207,42.70734],[-95.2301,42.70423],[-95.22328,42.70246],[-95.2236,42.69458],[-95.21695,42.684],[-95.20985,42.68051],[-95.20475,42.68034],[-95.20507,42.67874],[-95.20975,42.67716],[-95.20797,42.6732],[-95.20889,42.6726],[-95.20655,42.67047],[-95.20707,42.66764],[-95.22089,42.65964],[-95.22568,42.661],[-95.23739,42.65933],[-95.26618,42.68687],[-95.26514,42.6888],[-95.26612,42.69224],[-95.27567,42.69471],[-95.2756,42.70196],[-95.27869,42.70522],[-95.28262,42.71396],[-95.28867,42.72031],[-95.28864,42.7235],[-95.29907,42.72292],[-95.30599,42.72011],[-95.30623,42.71786],[-95.30257,42.71667],[-95.30055,42.71335],[-95.30175,42.70927],[-95.30511,42.70895],[-95.31259,42.70378],[-95.31009,42.70001],[-95.31121,42.69719],[-95.30996,42.6899],[-95.31225,42.68888],[-95.30982,42.68384],[-95.31448,42.68123],[-95.31196,42.67558],[-95.30352,42.67285],[-95.30148,42.66949],[-95.30182,42.66632],[-95.2981,42.66262],[-95.29765,42.65868],[-95.29341,42.65293],[-95.28827,42.65129],[-95.28511,42.64787],[-95.28442,42.64462],[-95.28829,42.63923],[-95.2872,42.63661],[-95.28809,42.63331],[-95.28334,42.63006],[-95.28011,42.62477],[-95.2814,42.62078],[-95.28407,42.61949],[-95.28328,42.61677],[-95.28614,42.61412],[-95.28484,42.61048],[-95.29334,42.60825],[-95.29608,42.60393],[-95.29603,42.59661],[-95.29953,42.59418],[-95.29607,42.5914],[-95.30292,42.58588],[-95.30387,42.58106],[-95.29925,42.5766],[-95.30342,42.57246],[-95.30987,42.57204],[-95.31266,42.56795],[-95.30962,42.56571],[-95.31061,42.55264],[-95.30593,42.54439],[-95.30887,42.5427],[-95.30852,42.54055],[-95.30158,42.53622],[-95.30184,42.53393],[-95.29799,42.52761],[-95.29542,42.5276],[-95.29052,42.52356],[-95.28336,42.5219],[-95.27928,42.52315],[-95.26617,42.51375],[-95.26786,42.50828],[-95.26477,42.50063],[-95.27002,42.49767],[-95.27319,42.4908],[-95.2727,42.48695],[-95.27897,42.48457],[-95.27208,42.47292],[-95.27327,42.46763],[-95.27167,42.46742],[-95.2711,42.46338],[-95.26806,42.46095],[-95.2705,42.45178],[-95.25845,42.44554],[-95.2527,42.44398],[-95.24461,42.44445],[-95.23688,42.43817],[-95.23461,42.43422],[-95.24042,42.43165],[-95.23827,42.42909],[-95.23887,42.42423],[-95.23599,42.42221],[-95.23508,42.41682],[-95.23672,42.41539],[-95.23549,42.41227],[-95.24035,42.40984],[-95.24562,42.41032],[-95.2437,42.4048],[-95.24141,42.40342],[-95.24247,42.40014],[-95.23798,42.39604],[-95.23997,42.39503],[-95.23593,42.39094],[-95.23924,42.38962],[-95.24113,42.3848],[-95.23914,42.38368],[-95.2399,42.38224],[-95.23248,42.36652],[-95.22309,42.35813],[-95.22317,42.35142],[-95.21397,42.34571],[-95.21434,42.34314],[-95.21027,42.33334],[-95.21276,42.33231],[-95.2133,42.32978],[-95.20808,42.32504],[-95.20738,42.32181],[-95.21454,42.32063],[-95.22227,42.31228],[-95.22348,42.3081],[-95.22925,42.30845],[-95.23159,42.30559],[-95.24207,42.3011],[-95.24273,42.2986],[-95.24829,42.29801],[-95.24941,42.29711],[-95.24837,42.29147],[-95.25491,42.28578],[-95.2696,42.29294],[-95.27167,42.28923],[-95.27757,42.28534],[-95.27576,42.28307],[-95.28075,42.27663],[-95.28521,42.28],[-95.29721,42.27887],[-95.31087,42.28224],[-95.31878,42.28193],[-95.3206,42.2808],[-95.32033,42.27487],[-95.32345,42.27267],[-95.33417,42.28041],[-95.34404,42.2826],[-95.34658,42.28169],[-95.3497,42.2843],[-95.35243,42.2827],[-95.35735,42.28357],[-95.36066,42.28528],[-95.37884,42.2809],[-95.38217,42.27715],[-95.39143,42.27299],[-95.39485,42.27395],[-95.399,42.27804],[-95.39788,42.28045],[-95.39999,42.28431],[-95.39824,42.28532],[-95.40144,42.28977],[-95.40033,42.29414],[-95.40315,42.29741],[-95.40502,42.29777],[-95.40615,42.29519],[-95.41351,42.29447],[-95.42848,42.29937],[-95.43729,42.29672],[-95.43601,42.29337],[-95.43765,42.29106],[-95.44687,42.28925],[-95.44708,42.28615],[-95.45244,42.28428],[-95.45335,42.28056],[-95.45552,42.27896],[-95.46268,42.28127],[-95.47164,42.28173],[-95.47658,42.28592],[-95.4846,42.2886],[-95.48568,42.29169],[-95.49297,42.28979],[-95.50304,42.29311],[-95.50948,42.29319],[-95.51384,42.29623],[-95.52411,42.29305],[-95.52631,42.2952],[-95.53142,42.29576],[-95.53181,42.29281],[-95.52851,42.28843],[-95.53311,42.28559],[-95.53407,42.28316],[-95.54323,42.28158],[-95.54816,42.28448],[-95.55457,42.28323],[-95.55231,42.28113],[-95.55261,42.27861],[-95.55401,42.27818],[-95.55208,42.27222],[-95.55759,42.26929],[-95.5563,42.26699],[-95.56129,42.2634],[-95.56604,42.26245],[-95.56937,42.25806],[-95.57559,42.25996],[-95.57713,42.25733],[-95.58514,42.25435],[-95.58429,42.25255],[-95.58758,42.24997],[-95.59216,42.24204],[-95.60165,42.24609],[-95.60483,42.24547],[-95.60684,42.24305],[-95.61143,42.24272],[-95.61703,42.23376],[-95.61584,42.23214],[-95.61873,42.23175],[-95.61949,42.2299],[-95.62336,42.23026],[-95.62676,42.22647],[-95.63026,42.22549],[-95.63145,42.21999],[-95.63745,42.21387],[-95.63733,42.21132],[-95.63971,42.21064],[-95.64658,42.21316],[-95.64919,42.21164],[-95.65554,42.21174],[-95.66154,42.2075],[-95.66429,42.20938],[-95.67081,42.2051],[-95.67953,42.2047],[-95.68258,42.20192],[-95.68201,42.1991],[-95.68532,42.19481],[-95.68803,42.19557],[-95.69594,42.19296],[-95.69523,42.18733],[-95.69796,42.18679],[-95.69745,42.18359],[-95.7044,42.18037],[-95.70375,42.17851],[-95.70824,42.17549],[-95.7059,42.17233],[-95.71359,42.16859],[-95.72337,42.16783],[-95.72306,42.16536],[-95.72537,42.16402],[-95.72675,42.15835],[-95.72923,42.15504],[-95.73332,42.15331],[-95.73038,42.1484],[-95.73556,42.14667],[-95.73452,42.14503],[-95.73584,42.14248],[-95.74559,42.1371],[-95.7426,42.13432],[-95.74331,42.13211],[-95.74809,42.13057],[-95.74555,42.12574],[-95.75036,42.12412],[-95.74988,42.12253],[-95.75431,42.12152],[-95.75326,42.11395],[-95.76095,42.10807],[-95.75987,42.10458],[-95.76113,42.10175],[-95.7639,42.10029],[-95.76225,42.09532],[-95.76357,42.08957],[-95.76611,42.09023],[-95.76734,42.08756],[-95.77154,42.08484],[-95.77773,42.0852],[-95.78106,42.08784],[-95.78914,42.08827],[-95.79196,42.08359],[-95.79426,42.08318],[-95.80667,42.08669],[-95.80777,42.08293],[-95.81419,42.08095],[-95.81326,42.07731],[-95.81698,42.07533],[-95.82056,42.07812],[-95.82162,42.07409],[-95.82642,42.07277],[-95.82627,42.07014],[-95.82935,42.06848],[-95.8299,42.06242],[-95.83284,42.06255],[-95.83474,42.0592],[-95.83506,42.05735],[-95.83157,42.054],[-95.83385,42.054],[-95.83596,42.05079],[-95.83471,42.04485],[-95.83842,42.04203],[-95.83561,42.03772],[-95.844,42.03102],[-95.84367,42.02902],[-95.8501,42.02251],[-95.84754,42.01952],[-95.85005,42.01892],[-95.84999,42.01558],[-95.8519,42.01437],[-95.84809,42.0103],[-95.84883,42.00789],[-95.85325,42.00649],[-95.85285,42.00226],[-95.85942,41.99771],[-95.85781,41.99539],[-95.85837,41.99222],[-95.86236,41.98994],[-95.86736,41.9901],[-95.86674,41.98646],[-95.86419,41.98377],[-95.86821,41.98002],[-95.87276,41.97849],[-95.87368,41.97627],[-95.87994,41.97925],[-95.8824,41.97881],[-95.88469,41.97688],[-95.88411,41.97507],[-95.88841,41.97254],[-95.88788,41.96935],[-95.88937,41.96797],[-95.89661,41.96768],[-95.90504,41.97254],[-95.90686,41.97147],[-95.90676,41.96689],[-95.90841,41.96494],[-95.91464,41.96448],[-95.91407,41.96034],[-95.91044,41.9561],[-95.9119,41.95363],[-95.91018,41.94814],[-95.9115,41.94647],[-95.90873,41.94144],[-95.91012,41.93878],[-95.91172,41.93942],[-95.91085,41.93437],[-95.91712,41.93233],[-95.91525,41.92654],[-95.91312,41.92535],[-95.92024,41.92342],[-95.9237,41.91436],[-95.93185,41.9169],[-95.93681,41.91571],[-95.93577,41.91361],[-95.93749,41.91214],[-95.94302,41.91239],[-95.94373,41.90526],[-95.94556,41.90526],[-95.94936,41.89579],[-95.95254,41.89467],[-95.95382,41.88919],[-95.95242,41.88523],[-95.95388,41.88332],[-95.95237,41.88179],[-95.95392,41.87887],[-95.95149,41.87491],[-95.95376,41.87079],[-95.95618,41.86864],[-95.95968,41.86999],[-95.96332,41.86661],[-95.97225,41.86257],[-95.97252,41.86102],[-95.97687,41.86328],[-95.98493,41.86192],[-95.98662,41.85802],[-95.99095,41.85756],[-95.99318,41.85266],[-95.99223,41.85009],[-95.99472,41.84842],[-96.00237,41.85298],[-96.00492,41.85178],[-96.00538,41.84935],[-96.00928,41.84869],[-96.00952,41.85432],[-96.01494,41.85312]]]}}]}