{"type":"FeatureCollection","features":[{"type":"Feature","properties":{},"geometry":{"type":"Polygon","coordinates":[[[-91.97459,41.77096],[-91.97459,41.76263],[-91.98292,41.76263],[-91.98292,41.75846],[-91.98709,41.75846],[-91.98709,41.76263],[-91.99542,41.76263],[-91.99542,41.75846],[-91.99125,41.75846],[-91.99125,41.75429],[-91.99542,41.75429],[-91.99542,41.74179],[-91.99125,41.74179],[-91.99125,41.73763],[-91.97875,41.73763],[-91.97875,41.73346],[-91.95792,41.73346],[-91.95792,41.72929],[-91.91208,41.72929],[-91.91208,41.72512],[-91.90375,41.72512],[-91.90375,41.73346],[-91.89541,41.73346],[-91.89541,41.73763],[-91.89125,41.73763],[-91.89125,41.75429],[-91.89541,41.75429],[-91.89541,41.75846],[-91.92041,41.75846],[-91.92041,41.76263],[-91.93708,41.76263],[-91.93708,41.76679],[-91.97042,41.76679],[-91.97042,41.77096],[-91.97459,41.77096]]]}}]}