{"type":"FeatureCollection","features":[{"type":"Feature","properties":{},"geometry":{"type":"Polygon","coordinates":[[[-92.15823,42.07001],[-92.16335,42.07661],[-92.17581,42.07678],[-92.17771,42.07967],[-92.18528,42.08316],[-92.1871,42.08993],[-92.1983,42.09749],[-92.19882,42.10339],[-92.19652,42.10625],[-92.19689,42.11082],[-92.19539,42.11218],[-92.1916,42.11115],[-92.18768,42.11276],[-92.18954,42.11718],[-92.18762,42.1195],[-92.18104,42.12062],[-92.17886,42.12446],[-92.17124,42.12454],[-92.1624,42.12103],[-92.16043,42.12175],[-92.15488,42.11823],[-92.15585,42.11577],[-92.1378,42.10656],[-92.13199,42.10842],[-92.12497,42.10583],[-92.12072,42.10101],[-92.11675,42.09991],[-92.11854,42.09809],[-92.11828,42.09579],[-92.11486,42.09075],[-92.11117,42.08847],[-92.10979,42.08455],[-92.11022,42.08183],[-92.11316,42.07914],[-92.1257,42.07821],[-92.12736,42.07634],[-92.12648,42.07242],[-92.13094,42.06787],[-92.13041,42.06618],[-92.13317,42.06361],[-92.13515,42.05805],[-92.13837,42.05671],[-92.14395,42.05687],[-92.15823,42.07001]]]}}]}