{"type":"FeatureCollection","features":[{"type":"Feature","properties":{},"geometry":{"type":"Polygon","coordinates":[[[-93.69556,41.98348],[-93.69556,41.97931],[-93.70389,41.97931],[-93.70389,41.97514],[-93.70806,41.97514],[-93.70806,41.97931],[-93.71223,41.97931],[-93.71223,41.97514],[-93.71639,41.97514],[-93.71639,41.96681],[-93.71223,41.96681],[-93.71223,41.97098],[-93.70806,41.97098],[-93.70806,41.96681],[-93.68722,41.96681],[-93.68722,41.97098],[-93.68306,41.97098],[-93.68306,41.97514],[-93.67889,41.97514],[-93.67889,41.97931],[-93.67472,41.97931],[-93.67472,41.98348],[-93.69556,41.98348]]]}}]}