{"type":"FeatureCollection","features":[{"type":"Feature","properties":{},"geometry":{"type":"Polygon","coordinates":[[[-95.61654,42.04182],[-95.61654,42.03765],[-95.62071,42.03765],[-95.62071,42.02932],[-95.62904,42.02932],[-95.62904,42.02098],[-95.63738,42.02098],[-95.63738,42.01681],[-95.64155,42.01681],[-95.64155,42.02098],[-95.64988,42.02098],[-95.64988,42.01681],[-95.66238,42.01681],[-95.66238,42.01265],[-95.67072,42.01265],[-95.67072,42.00848],[-95.67905,42.00848],[-95.67905,42.00015],[-95.68322,42.00015],[-95.68322,41.99598],[-95.68738,41.99598],[-95.68738,41.98765],[-95.69155,41.98765],[-95.69155,41.98348],[-95.69572,41.98348],[-95.69572,41.96681],[-95.70405,41.96681],[-95.70405,41.95014],[-95.70822,41.95014],[-95.70822,41.94181],[-95.71238,41.94181],[-95.71238,41.93764],[-95.72489,41.93764],[-95.72489,41.93347],[-95.73322,41.93347],[-95.73322,41.92931],[-95.74155,41.92931],[-95.74155,41.92097],[-95.74572,41.92097],[-95.74572,41.91681],[-95.75405,41.91681],[-95.75405,41.91264],[-95.74989,41.91264],[-95.74989,41.88764],[-95.75405,41.88764],[-95.75405,41.87514],[-95.75822,41.87514],[-95.75822,41.87097],[-95.76239,41.87097],[-95.76239,41.8668],[-95.77072,41.8668],[-95.77072,41.86264],[-95.77489,41.86264],[-95.77489,41.85847],[-95.78322,41.85847],[-95.78322,41.85013],[-95.79156,41.85013],[-95.79156,41.8418],[-95.78739,41.8418],[-95.78739,41.83763],[-95.79156,41.83763],[-95.79156,41.83347],[-95.79989,41.83347],[-95.79989,41.8293],[-95.80823,41.8293],[-95.80823,41.82097],[-95.81239,41.82097],[-95.81239,41.8168],[-95.80823,41.8168],[-95.80823,41.80846],[-95.82489,41.80846],[-95.82489,41.8043],[-95.82906,41.8043],[-95.82906,41.80013],[-95.83323,41.80013],[-95.83323,41.7918],[-95.8374,41.7918],[-95.8374,41.78763],[-95.83323,41.78763],[-95.83323,41.78346],[-95.8374,41.78346],[-95.8374,41.7793],[-95.84156,41.7793],[-95.84156,41.77096],[-95.85406,41.77096],[-95.85406,41.76679],[-95.85823,41.76679],[-95.85823,41.76263],[-95.8624,41.76263],[-95.8624,41.75846],[-95.86656,41.75846],[-95.86656,41.74596],[-95.87073,41.74596],[-95.87073,41.74179],[-95.87906,41.74179],[-95.87906,41.69596],[-95.8749,41.69596],[-95.8749,41.69179],[-95.86656,41.69179],[-95.86656,41.68762],[-95.8624,41.68762],[-95.8624,41.67929],[-95.85823,41.67929],[-95.85823,41.67095],[-95.85406,41.67095],[-95.85406,41.66679],[-95.8499,41.66679],[-95.8499,41.66262],[-95.84156,41.66262],[-95.84156,41.65845],[-95.8374,41.65845],[-95.8374,41.65429],[-95.83323,41.65429],[-95.83323,41.66262],[-95.82906,41.66262],[-95.82906,41.67929],[-95.81239,41.67929],[-95.81239,41.69179],[-95.79989,41.69179],[-95.79989,41.70846],[-95.78739,41.70846],[-95.78739,41.72512],[-95.78322,41.72512],[-95.78322,41.72929],[-95.76656,41.72929],[-95.76656,41.73346],[-95.76239,41.73346],[-95.76239,41.73763],[-95.75822,41.73763],[-95.75822,41.75013],[-95.75405,41.75013],[-95.75405,41.75429],[-95.74572,41.75429],[-95.74572,41.75846],[-95.73739,41.75846],[-95.73739,41.77513],[-95.74155,41.77513],[-95.74155,41.7793],[-95.74572,41.7793],[-95.74572,41.78763],[-95.74155,41.78763],[-95.74155,41.7918],[-95.73739,41.7918],[-95.73739,41.8043],[-95.72489,41.8043],[-95.72489,41.80846],[-95.71238,41.80846],[-95.71238,41.8168],[-95.70822,41.8168],[-95.70822,41.82513],[-95.71238,41.82513],[-95.71238,41.83763],[-95.70822,41.83763],[-95.70822,41.8418],[-95.70405,41.8418],[-95.70405,41.85013],[-95.70822,41.85013],[-95.70822,41.87097],[-95.69988,41.87097],[-95.69988,41.87514],[-95.67905,41.87514],[-95.67905,41.8793],[-95.67488,41.8793],[-95.67488,41.88347],[-95.66655,41.88347],[-95.66655,41.88764],[-95.65821,41.88764],[-95.65821,41.8918],[-95.66238,41.8918],[-95.66238,41.90431],[-95.65821,41.90431],[-95.65821,41.90847],[-95.65405,41.90847],[-95.65405,41.92097],[-95.64988,41.92097],[-95.64988,41.92514],[-95.63738,41.92514],[-95.63738,41.93347],[-95.63321,41.93347],[-95.63321,41.94181],[-95.62488,41.94181],[-95.62488,41.95848],[-95.62071,41.95848],[-95.62071,41.96264],[-95.61238,41.96264],[-95.61238,41.97098],[-95.59988,41.97098],[-95.59988,41.97514],[-95.59571,41.97514],[-95.59571,41.97931],[-95.59154,41.97931],[-95.59154,41.99181],[-95.58737,41.99181],[-95.58737,41.99598],[-95.58321,41.99598],[-95.58321,42.00431],[-95.58737,42.00431],[-95.58737,42.00848],[-95.58321,42.00848],[-95.58321,42.01265],[-95.57071,42.01265],[-95.57071,42.02098],[-95.56237,42.02098],[-95.56237,42.03348],[-95.58737,42.03348],[-95.58737,42.03765],[-95.59988,42.03765],[-95.59988,42.04182],[-95.61654,42.04182]]]}}]}