{"type":"FeatureCollection","features":[{"type":"Feature","properties":{},"geometry":{"type":"Polygon","coordinates":[[[-92.5913,43.18774],[-92.5913,43.18357],[-92.59547,43.18357],[-92.59547,43.17524],[-92.59964,43.17524],[-92.59964,43.16274],[-92.59547,43.16274],[-92.59547,43.15857],[-92.58714,43.15857],[-92.58714,43.1419],[-92.5788,43.1419],[-92.5788,43.13357],[-92.57463,43.13357],[-92.57463,43.13774],[-92.57047,43.13774],[-92.57047,43.13357],[-92.5663,43.13357],[-92.5663,43.13774],[-92.5538,43.13774],[-92.5538,43.14607],[-92.54546,43.14607],[-92.54546,43.15441],[-92.5413,43.15441],[-92.5413,43.15857],[-92.54546,43.15857],[-92.54546,43.16691],[-92.5538,43.16691],[-92.5538,43.17107],[-92.55797,43.17107],[-92.55797,43.17524],[-92.56213,43.17524],[-92.56213,43.17941],[-92.57463,43.17941],[-92.57463,43.18357],[-92.5788,43.18357],[-92.5788,43.18774],[-92.5913,43.18774]]]}}]}