{"type":"FeatureCollection","features":[{"type":"Feature","properties":{},"geometry":{"type":"Polygon","coordinates":[[[-94.89149,42.93355],[-94.89149,42.92939],[-94.89982,42.92939],[-94.89982,42.92522],[-94.90815,42.92522],[-94.90815,42.92939],[-94.91649,42.92939],[-94.91649,42.92522],[-94.93316,42.92522],[-94.93316,42.92105],[-94.93732,42.92105],[-94.93732,42.91689],[-94.94566,42.91689],[-94.94566,42.91272],[-94.94982,42.91272],[-94.94982,42.90855],[-94.95399,42.90855],[-94.95399,42.90439],[-94.95816,42.90439],[-94.95816,42.90022],[-94.96649,42.90022],[-94.96649,42.89188],[-94.96232,42.89188],[-94.96232,42.88772],[-94.95816,42.88772],[-94.95816,42.88355],[-94.94982,42.88355],[-94.94982,42.88772],[-94.94566,42.88772],[-94.94566,42.88355],[-94.94149,42.88355],[-94.94149,42.87938],[-94.94566,42.87938],[-94.94566,42.86272],[-94.92899,42.86272],[-94.92899,42.85855],[-94.90399,42.85855],[-94.90399,42.85438],[-94.89565,42.85438],[-94.89565,42.84605],[-94.89149,42.84605],[-94.89149,42.83355],[-94.88732,42.83355],[-94.88732,42.82938],[-94.88315,42.82938],[-94.88315,42.82521],[-94.87899,42.82521],[-94.87899,42.80438],[-94.87482,42.80438],[-94.87482,42.80021],[-94.88315,42.80021],[-94.88315,42.79188],[-94.88732,42.79188],[-94.88732,42.78354],[-94.88315,42.78354],[-94.88315,42.77521],[-94.88732,42.77521],[-94.88732,42.77104],[-94.88315,42.77104],[-94.88315,42.76687],[-94.87065,42.76687],[-94.87065,42.75854],[-94.87482,42.75854],[-94.87482,42.75021],[-94.87065,42.75021],[-94.87065,42.74187],[-94.87482,42.74187],[-94.87482,42.73771],[-94.87065,42.73771],[-94.87065,42.73354],[-94.85398,42.73354],[-94.85398,42.74187],[-94.84982,42.74187],[-94.84982,42.73771],[-94.84565,42.73771],[-94.84565,42.74187],[-94.82898,42.74187],[-94.82898,42.73771],[-94.82481,42.73771],[-94.82481,42.73354],[-94.82065,42.73354],[-94.82065,42.7252],[-94.81648,42.7252],[-94.81648,42.70854],[-94.79981,42.70854],[-94.79981,42.71687],[-94.79564,42.71687],[-94.79564,42.72104],[-94.79981,42.72104],[-94.79981,42.7252],[-94.79564,42.7252],[-94.79564,42.72937],[-94.79148,42.72937],[-94.79148,42.73354],[-94.79981,42.73354],[-94.79981,42.74187],[-94.79564,42.74187],[-94.79564,42.74604],[-94.80815,42.74604],[-94.80815,42.75437],[-94.81231,42.75437],[-94.81231,42.76271],[-94.80815,42.76271],[-94.80815,42.76687],[-94.80398,42.76687],[-94.80398,42.78771],[-94.81648,42.78771],[-94.81648,42.80438],[-94.82481,42.80438],[-94.82481,42.81271],[-94.82898,42.81271],[-94.82898,42.81688],[-94.83315,42.81688],[-94.83315,42.82938],[-94.83731,42.82938],[-94.83731,42.83355],[-94.83315,42.83355],[-94.83315,42.84188],[-94.81231,42.84188],[-94.81231,42.85438],[-94.81648,42.85438],[-94.81648,42.86272],[-94.81231,42.86272],[-94.81231,42.86688],[-94.80815,42.86688],[-94.80815,42.87105],[-94.81648,42.87105],[-94.81648,42.87522],[-94.82065,42.87522],[-94.82065,42.87938],[-94.82481,42.87938],[-94.82481,42.88355],[-94.82898,42.88355],[-94.82898,42.89605],[-94.83315,42.89605],[-94.83315,42.91272],[-94.83731,42.91272],[-94.83731,42.91689],[-94.84148,42.91689],[-94.84148,42.92105],[-94.84565,42.92105],[-94.84565,42.92522],[-94.84982,42.92522],[-94.84982,42.92939],[-94.86648,42.92939],[-94.86648,42.93355],[-94.89149,42.93355]]]}}]}