{"type":"FeatureCollection","features":[{"type":"Feature","properties":{},"geometry":{"type":"Polygon","coordinates":[[[-91.82457,43.00439],[-91.82457,43.00023],[-91.82874,43.00023],[-91.82874,42.99606],[-91.85791,42.99606],[-91.85791,42.98773],[-91.86624,42.98773],[-91.86624,42.97939],[-91.86208,42.97939],[-91.86208,42.97522],[-91.85791,42.97522],[-91.85791,42.96689],[-91.86624,42.96689],[-91.86624,42.96272],[-91.87041,42.96272],[-91.87041,42.95856],[-91.87458,42.95856],[-91.87458,42.95439],[-91.87874,42.95439],[-91.87874,42.95856],[-91.88708,42.95856],[-91.88708,42.95439],[-91.89125,42.95439],[-91.89125,42.95022],[-91.88708,42.95022],[-91.88708,42.94606],[-91.88291,42.94606],[-91.88291,42.94189],[-91.86624,42.94189],[-91.86624,42.93772],[-91.86208,42.93772],[-91.86208,42.93355],[-91.85791,42.93355],[-91.85791,42.92939],[-91.85374,42.92939],[-91.85374,42.92522],[-91.84958,42.92522],[-91.84958,42.92105],[-91.82041,42.92105],[-91.82041,42.91689],[-91.81624,42.91689],[-91.81624,42.92105],[-91.81207,42.92105],[-91.81207,42.92939],[-91.80791,42.92939],[-91.80791,42.93355],[-91.80374,42.93355],[-91.80374,42.93772],[-91.79124,42.93772],[-91.79124,42.92939],[-91.76207,42.92939],[-91.76207,42.92522],[-91.7454,42.92522],[-91.7454,42.90439],[-91.7329,42.90439],[-91.7329,42.90022],[-91.7204,42.90022],[-91.7204,42.90439],[-91.71623,42.90439],[-91.71623,42.91272],[-91.70373,42.91272],[-91.70373,42.90855],[-91.67873,42.90855],[-91.67873,42.91272],[-91.6829,42.91272],[-91.6829,42.92522],[-91.67873,42.92522],[-91.67873,42.93355],[-91.65373,42.93355],[-91.65373,42.93772],[-91.64539,42.93772],[-91.64539,42.94189],[-91.64123,42.94189],[-91.64123,42.94606],[-91.63706,42.94606],[-91.63706,42.95022],[-91.64539,42.95022],[-91.64539,42.95439],[-91.64123,42.95439],[-91.64123,42.95856],[-91.64956,42.95856],[-91.64956,42.96272],[-91.67456,42.96272],[-91.67456,42.96689],[-91.69123,42.96689],[-91.69123,42.96272],[-91.6954,42.96272],[-91.6954,42.95856],[-91.7204,42.95856],[-91.7204,42.96272],[-91.72457,42.96272],[-91.72457,42.96689],[-91.7329,42.96689],[-91.7329,42.97106],[-91.73707,42.97106],[-91.73707,42.97522],[-91.74957,42.97522],[-91.74957,42.97106],[-91.7579,42.97106],[-91.7579,42.97939],[-91.76624,42.97939],[-91.76624,42.99189],[-91.7829,42.99189],[-91.7829,43.00023],[-91.79541,43.00023],[-91.79541,42.99606],[-91.80374,42.99606],[-91.80374,43.00439],[-91.82457,43.00439]]]}}]}