{"type":"FeatureCollection","features":[{"type":"Feature","properties":{},"geometry":{"type":"Polygon","coordinates":[[[-91.32885,42.98912],[-91.333,42.99079],[-91.32832,43.00271],[-91.33202,43.00475],[-91.33536,43.00964],[-91.34368,43.01181],[-91.34328,43.01401],[-91.34576,43.01542],[-91.35039,43.01659],[-91.35319,43.01543],[-91.36087,43.02008],[-91.36437,43.01959],[-91.37931,43.02291],[-91.38157,43.02493],[-91.38077,43.02748],[-91.38316,43.03519],[-91.39141,43.03977],[-91.39005,43.04363],[-91.39118,43.04759],[-91.38886,43.04844],[-91.38787,43.05081],[-91.37808,43.05547],[-91.37349,43.05514],[-91.36511,43.05861],[-91.36313,43.05735],[-91.35883,43.05893],[-91.35396,43.05782],[-91.35071,43.06321],[-91.34374,43.06688],[-91.34006,43.07402],[-91.3324,43.07627],[-91.32583,43.07469],[-91.31649,43.0757],[-91.31203,43.07775],[-91.29954,43.07198],[-91.29455,43.07172],[-91.29061,43.06823],[-91.28312,43.06674],[-91.27876,43.06767],[-91.27515,43.06212],[-91.27026,43.05975],[-91.26254,43.0622],[-91.25476,43.05927],[-91.25004,43.06059],[-91.24605,43.05892],[-91.23832,43.06041],[-91.23639,43.05951],[-91.2248,43.0643],[-91.21706,43.06285],[-91.21581,43.06238],[-91.21711,43.05655],[-91.20622,43.04559],[-91.20774,43.03977],[-91.21205,43.03643],[-91.21205,43.03313],[-91.20851,43.02819],[-91.21193,43.02536],[-91.20822,43.02231],[-91.21229,43.01986],[-91.21881,43.0192],[-91.21839,43.0172],[-91.22142,43.01487],[-91.23467,43.01651],[-91.24052,43.01072],[-91.25224,43.01262],[-91.25393,43.011],[-91.25888,43.01056],[-91.26553,43.01337],[-91.27008,43.00965],[-91.282,43.00536],[-91.29634,43.00576],[-91.30302,43.00438],[-91.30776,42.99939],[-91.3077,42.99486],[-91.31228,42.98727],[-91.31194,42.98465],[-91.31527,42.98276],[-91.31764,42.98556],[-91.32612,42.98562],[-91.32885,42.98912]]]}}]}