{"type":"FeatureCollection","features":[{"type":"Feature","properties":{},"geometry":{"type":"Polygon","coordinates":[[[-91.46205,41.78346],[-91.46205,41.77513],[-91.45788,41.77513],[-91.45788,41.77096],[-91.46205,41.77096],[-91.46205,41.73763],[-91.46621,41.73763],[-91.46621,41.73346],[-91.46205,41.73346],[-91.46205,41.72929],[-91.45371,41.72929],[-91.45371,41.72096],[-91.44954,41.72096],[-91.44954,41.71679],[-91.42871,41.71679],[-91.42871,41.70846],[-91.42454,41.70846],[-91.42454,41.70429],[-91.41621,41.70429],[-91.41621,41.70846],[-91.39537,41.70846],[-91.39537,41.71679],[-91.38704,41.71679],[-91.38704,41.73346],[-91.39121,41.73346],[-91.39121,41.74179],[-91.39954,41.74179],[-91.39954,41.76263],[-91.39121,41.76263],[-91.39121,41.76679],[-91.38704,41.76679],[-91.38704,41.77096],[-91.42037,41.77096],[-91.42037,41.7793],[-91.44121,41.7793],[-91.44121,41.78346],[-91.46205,41.78346]]]}}]}