{"type":"FeatureCollection","features":[{"type":"Feature","properties":{},"geometry":{"type":"Polygon","coordinates":[[[-92.67047,43.5586],[-92.67047,43.55444],[-92.67464,43.55444],[-92.67464,43.55027],[-92.67881,43.55027],[-92.67881,43.5461],[-92.68298,43.5461],[-92.68298,43.54194],[-92.69964,43.54194],[-92.69964,43.53777],[-92.70798,43.53777],[-92.70798,43.5336],[-92.71214,43.5336],[-92.71214,43.52944],[-92.70798,43.52944],[-92.70798,43.52527],[-92.70381,43.52527],[-92.70381,43.5211],[-92.69964,43.5211],[-92.69964,43.51277],[-92.69548,43.51277],[-92.69548,43.50443],[-92.68714,43.50443],[-92.68714,43.50027],[-92.68298,43.50027],[-92.68298,43.4961],[-92.67881,43.4961],[-92.67881,43.49193],[-92.67464,43.49193],[-92.67464,43.48777],[-92.67047,43.48777],[-92.67047,43.4836],[-92.66631,43.4836],[-92.66631,43.47943],[-92.65797,43.47943],[-92.65797,43.46276],[-92.65381,43.46276],[-92.65381,43.4586],[-92.64964,43.4586],[-92.64964,43.45443],[-92.65381,43.45443],[-92.65381,43.45026],[-92.65797,43.45026],[-92.65797,43.44193],[-92.66214,43.44193],[-92.66214,43.43776],[-92.64964,43.43776],[-92.64964,43.43359],[-92.64547,43.43359],[-92.64547,43.42943],[-92.64131,43.42943],[-92.64131,43.42526],[-92.63714,43.42526],[-92.63714,43.42109],[-92.6288,43.42109],[-92.6288,43.40443],[-92.62047,43.40443],[-92.62047,43.40026],[-92.6163,43.40026],[-92.6163,43.39192],[-92.61214,43.39192],[-92.61214,43.38359],[-92.60797,43.38359],[-92.60797,43.37942],[-92.6038,43.37942],[-92.6038,43.35859],[-92.59964,43.35859],[-92.59964,43.32109],[-92.59547,43.32109],[-92.59547,43.31275],[-92.5913,43.31275],[-92.5913,43.30858],[-92.58714,43.30858],[-92.58714,43.30442],[-92.58297,43.30442],[-92.58297,43.29608],[-92.5788,43.29608],[-92.5788,43.29192],[-92.57463,43.29192],[-92.57463,43.28775],[-92.5788,43.28775],[-92.5788,43.28358],[-92.58297,43.28358],[-92.58297,43.27108],[-92.5788,43.27108],[-92.5788,43.26275],[-92.57463,43.26275],[-92.57463,43.24191],[-92.57047,43.24191],[-92.57047,43.23775],[-92.57463,43.23775],[-92.57463,43.22108],[-92.57047,43.22108],[-92.57047,43.21274],[-92.57463,43.21274],[-92.57463,43.20441],[-92.58714,43.20441],[-92.58714,43.19608],[-92.5913,43.19608],[-92.5913,43.19191],[-92.58714,43.19191],[-92.58714,43.18774],[-92.5788,43.18774],[-92.5788,43.18357],[-92.57463,43.18357],[-92.57463,43.17941],[-92.56213,43.17941],[-92.56213,43.17524],[-92.55797,43.17524],[-92.55797,43.17107],[-92.5538,43.17107],[-92.5538,43.16691],[-92.54546,43.16691],[-92.54546,43.15857],[-92.5413,43.15857],[-92.5413,43.15441],[-92.54546,43.15441],[-92.54546,43.14607],[-92.53713,43.14607],[-92.53713,43.1419],[-92.53296,43.1419],[-92.53296,43.13357],[-92.5288,43.13357],[-92.5288,43.1294],[-92.52463,43.1294],[-92.52463,43.1169],[-92.52046,43.1169],[-92.52046,43.10857],[-92.5163,43.10857],[-92.5163,43.1044],[-92.51213,43.1044],[-92.51213,43.10023],[-92.50796,43.10023],[-92.50796,43.09607],[-92.50379,43.09607],[-92.50379,43.0919],[-92.49963,43.0919],[-92.49963,43.0794],[-92.49546,43.0794],[-92.49546,43.07523],[-92.49129,43.07523],[-92.49129,43.07107],[-92.48713,43.07107],[-92.48713,43.0669],[-92.48296,43.0669],[-92.48296,43.06273],[-92.47879,43.06273],[-92.47879,43.05856],[-92.47463,43.05856],[-92.47463,43.03773],[-92.46629,43.03773],[-92.46629,43.03356],[-92.45796,43.03356],[-92.45796,43.0294],[-92.44962,43.0294],[-92.44962,43.02523],[-92.44129,43.02523],[-92.44129,43.00856],[-92.43712,43.00856],[-92.43712,43.00439],[-92.43296,43.00439],[-92.43296,42.99606],[-92.42879,42.99606],[-92.42879,42.99189],[-92.42462,42.99189],[-92.42462,42.98356],[-92.42045,42.98356],[-92.42045,42.97522],[-92.41629,42.97522],[-92.41629,42.97106],[-92.41212,42.97106],[-92.41212,42.95439],[-92.40795,42.95439],[-92.40795,42.95022],[-92.40379,42.95022],[-92.40379,42.94189],[-92.40795,42.94189],[-92.40795,42.92105],[-92.40379,42.92105],[-92.40379,42.90855],[-92.39962,42.90855],[-92.39962,42.90022],[-92.39545,42.90022],[-92.39545,42.87522],[-92.39962,42.87522],[-92.39962,42.85855],[-92.39545,42.85855],[-92.39545,42.85438],[-92.38712,42.85438],[-92.38712,42.85021],[-92.38295,42.85021],[-92.38295,42.84605],[-92.37878,42.84605],[-92.37878,42.82521],[-92.37462,42.82521],[-92.37462,42.82105],[-92.36212,42.82105],[-92.36212,42.81688],[-92.35795,42.81688],[-92.35795,42.81271],[-92.35378,42.81271],[-92.35378,42.80854],[-92.34962,42.80854],[-92.34962,42.80021],[-92.34545,42.80021],[-92.34545,42.79188],[-92.34128,42.79188],[-92.34128,42.78771],[-92.33295,42.78771],[-92.33295,42.77521],[-92.32878,42.77521],[-92.32878,42.77104],[-92.32461,42.77104],[-92.32461,42.76271],[-92.32045,42.76271],[-92.32045,42.75021],[-92.31628,42.75021],[-92.31628,42.74187],[-92.30795,42.74187],[-92.30795,42.73771],[-92.30378,42.73771],[-92.30378,42.7252],[-92.29961,42.7252],[-92.29961,42.72104],[-92.29545,42.72104],[-92.29545,42.70854],[-92.29128,42.70854],[-92.29128,42.70437],[-92.29545,42.70437],[-92.29545,42.7002],[-92.29961,42.7002],[-92.29961,42.69187],[-92.29545,42.69187],[-92.29545,42.67937],[-92.29128,42.67937],[-92.29128,42.67103],[-92.29545,42.67103],[-92.29545,42.6627],[-92.30795,42.6627],[-92.30795,42.6502],[-92.31211,42.6502],[-92.31211,42.64186],[-92.30795,42.64186],[-92.30795,42.6377],[-92.30378,42.6377],[-92.30378,42.62103],[-92.29961,42.62103],[-92.29961,42.60019],[-92.29128,42.60019],[-92.29128,42.59603],[-92.28711,42.59603],[-92.28711,42.58769],[-92.28294,42.58769],[-92.28294,42.59186],[-92.27878,42.59186],[-92.27878,42.59603],[-92.26628,42.59603],[-92.26628,42.60019],[-92.25377,42.60019],[-92.25377,42.59603],[-92.24127,42.59603],[-92.24127,42.59186],[-92.23294,42.59186],[-92.23294,42.58769],[-92.22877,42.58769],[-92.22877,42.58353],[-92.2121,42.58353],[-92.2121,42.57519],[-92.20377,42.57519],[-92.20377,42.57103],[-92.19127,42.57103],[-92.19127,42.56686],[-92.18294,42.56686],[-92.18294,42.56269],[-92.17043,42.56269],[-92.17043,42.55436],[-92.15377,42.55436],[-92.15377,42.55019],[-92.1371,42.55019],[-92.1371,42.54186],[-92.13293,42.54186],[-92.13293,42.53352],[-92.1371,42.53352],[-92.1371,42.52519],[-92.14543,42.52519],[-92.14543,42.52102],[-92.1496,42.52102],[-92.1496,42.50435],[-92.14127,42.50435],[-92.14127,42.50019],[-92.1371,42.50019],[-92.1371,42.49602],[-92.12043,42.49602],[-92.12043,42.49185],[-92.1121,42.49185],[-92.1121,42.49602],[-92.10793,42.49602],[-92.10793,42.50019],[-92.10376,42.50019],[-92.10376,42.51269],[-92.09543,42.51269],[-92.09543,42.51685],[-92.07876,42.51685],[-92.07876,42.50852],[-92.07459,42.50852],[-92.07459,42.50435],[-92.06209,42.50435],[-92.06209,42.50852],[-92.04959,42.50852],[-92.04959,42.50435],[-92.04542,42.50435],[-92.04542,42.50019],[-92.03709,42.50019],[-92.03709,42.49185],[-92.03292,42.49185],[-92.03292,42.48352],[-92.02042,42.48352],[-92.02042,42.47935],[-92.01209,42.47935],[-92.01209,42.48352],[-91.99542,42.48352],[-91.99542,42.48769],[-91.98292,42.48769],[-91.98292,42.47935],[-91.97875,42.47935],[-91.97875,42.47102],[-91.94125,42.47102],[-91.94125,42.46685],[-91.94542,42.46685],[-91.94542,42.46268],[-91.94125,42.46268],[-91.94125,42.45852],[-91.93292,42.45852],[-91.93292,42.45435],[-91.92875,42.45435],[-91.92875,42.45018],[-91.91208,42.45018],[-91.91208,42.44602],[-91.89125,42.44602],[-91.89125,42.43768],[-91.87874,42.43768],[-91.87874,42.43351],[-91.87458,42.43351],[-91.87458,42.42935],[-91.87041,42.42935],[-91.87041,42.41268],[-91.85791,42.41268],[-91.85791,42.40851],[-91.85374,42.40851],[-91.85374,42.40435],[-91.84541,42.40435],[-91.84541,42.37101],[-91.84958,42.37101],[-91.84958,42.36268],[-91.85374,42.36268],[-91.85374,42.35851],[-91.85791,42.35851],[-91.85791,42.35017],[-91.86208,42.35017],[-91.86208,42.34601],[-91.85791,42.34601],[-91.85791,42.32101],[-91.85374,42.32101],[-91.85374,42.31684],[-91.84958,42.31684],[-91.84958,42.31267],[-91.84541,42.31267],[-91.84541,42.31684],[-91.81624,42.31684],[-91.81624,42.31267],[-91.81207,42.31267],[-91.81207,42.31684],[-91.79541,42.31684],[-91.79541,42.32101],[-91.78707,42.32101],[-91.78707,42.32517],[-91.7829,42.32517],[-91.7829,42.32101],[-91.77874,42.32101],[-91.77874,42.31684],[-91.77457,42.31684],[-91.77457,42.31267],[-91.7704,42.31267],[-91.7704,42.30434],[-91.76207,42.30434],[-91.76207,42.30017],[-91.76624,42.30017],[-91.76624,42.29184],[-91.76207,42.29184],[-91.76207,42.28767],[-91.7579,42.28767],[-91.7579,42.27517],[-91.74957,42.27517],[-91.74957,42.271],[-91.7454,42.271],[-91.7454,42.27517],[-91.7329,42.27517],[-91.7329,42.27934],[-91.72873,42.27934],[-91.72873,42.27517],[-91.7204,42.27517],[-91.7204,42.271],[-91.70373,42.271],[-91.70373,42.26267],[-91.69956,42.26267],[-91.69956,42.25433],[-91.6954,42.25433],[-91.6954,42.25017],[-91.67873,42.25017],[-91.67873,42.25433],[-91.67456,42.25433],[-91.67456,42.25017],[-91.67039,42.25017],[-91.67039,42.25433],[-91.66206,42.25433],[-91.66206,42.2585],[-91.64956,42.2585],[-91.64956,42.23767],[-91.63706,42.23767],[-91.63706,42.22516],[-91.63289,42.22516],[-91.63289,42.221],[-91.62873,42.221],[-91.62873,42.21266],[-91.62456,42.21266],[-91.62456,42.20433],[-91.61622,42.20433],[-91.61622,42.20016],[-91.59956,42.20016],[-91.59956,42.2085],[-91.59122,42.2085],[-91.59122,42.21266],[-91.58289,42.21266],[-91.58289,42.2085],[-91.57872,42.2085],[-91.57872,42.18766],[-91.57455,42.18766],[-91.57455,42.17516],[-91.56622,42.17516],[-91.56622,42.17099],[-91.56205,42.17099],[-91.56205,42.16683],[-91.55372,42.16683],[-91.55372,42.16266],[-91.54955,42.16266],[-91.54955,42.16683],[-91.52872,42.16683],[-91.52872,42.16266],[-91.52038,42.16266],[-91.52038,42.15433],[-91.50788,42.15433],[-91.50788,42.15849],[-91.49955,42.15849],[-91.49955,42.17516],[-91.49538,42.17516],[-91.49538,42.17933],[-91.49955,42.17933],[-91.49955,42.18349],[-91.50788,42.18349],[-91.50788,42.2085],[-91.50371,42.2085],[-91.50371,42.22933],[-91.50788,42.22933],[-91.50788,42.2335],[-91.50371,42.2335],[-91.50371,42.25433],[-91.51622,42.25433],[-91.51622,42.2585],[-91.52038,42.2585],[-91.52038,42.26267],[-91.52872,42.26267],[-91.52872,42.26683],[-91.53705,42.26683],[-91.53705,42.271],[-91.54955,42.271],[-91.54955,42.27517],[-91.55789,42.27517],[-91.55789,42.2835],[-91.56205,42.2835],[-91.56205,42.29184],[-91.57039,42.29184],[-91.57039,42.296],[-91.57455,42.296],[-91.57455,42.30017],[-91.57872,42.30017],[-91.57872,42.30434],[-91.58705,42.30434],[-91.58705,42.3085],[-91.59122,42.3085],[-91.59122,42.31267],[-91.59539,42.31267],[-91.59539,42.31684],[-91.59956,42.31684],[-91.59956,42.32101],[-91.60789,42.32101],[-91.60789,42.32934],[-91.61206,42.32934],[-91.61206,42.34184],[-91.61622,42.34184],[-91.61622,42.34601],[-91.62039,42.34601],[-91.62039,42.35434],[-91.62456,42.35434],[-91.62456,42.35851],[-91.63289,42.35851],[-91.63289,42.36268],[-91.63706,42.36268],[-91.63706,42.36684],[-91.64539,42.36684],[-91.64539,42.37934],[-91.64956,42.37934],[-91.64956,42.38351],[-91.65789,42.38351],[-91.65789,42.38768],[-91.66206,42.38768],[-91.66206,42.39184],[-91.66623,42.39184],[-91.66623,42.39601],[-91.67039,42.39601],[-91.67039,42.40018],[-91.67456,42.40018],[-91.67456,42.40435],[-91.67873,42.40435],[-91.67873,42.41268],[-91.6829,42.41268],[-91.6829,42.41685],[-91.68706,42.41685],[-91.68706,42.42101],[-91.69123,42.42101],[-91.69123,42.42935],[-91.69956,42.42935],[-91.69956,42.43768],[-91.70373,42.43768],[-91.70373,42.44185],[-91.7079,42.44185],[-91.7079,42.45018],[-91.7204,42.45018],[-91.7204,42.45435],[-91.72457,42.45435],[-91.72457,42.45852],[-91.72873,42.45852],[-91.72873,42.46685],[-91.7329,42.46685],[-91.7329,42.47102],[-91.73707,42.47102],[-91.73707,42.47935],[-91.74123,42.47935],[-91.74123,42.48352],[-91.7454,42.48352],[-91.7454,42.50435],[-91.74957,42.50435],[-91.74957,42.50852],[-91.75373,42.50852],[-91.75373,42.51269],[-91.7579,42.51269],[-91.7579,42.52102],[-91.76207,42.52102],[-91.76207,42.53352],[-91.76624,42.53352],[-91.76624,42.53769],[-91.7704,42.53769],[-91.7704,42.54602],[-91.77457,42.54602],[-91.77457,42.55436],[-91.77874,42.55436],[-91.77874,42.55852],[-91.7829,42.55852],[-91.7829,42.56686],[-91.78707,42.56686],[-91.78707,42.57519],[-91.79124,42.57519],[-91.79124,42.57936],[-91.79541,42.57936],[-91.79541,42.58353],[-91.79957,42.58353],[-91.79957,42.59186],[-91.80374,42.59186],[-91.80374,42.60436],[-91.80791,42.60436],[-91.80791,42.60853],[-91.81624,42.60853],[-91.81624,42.6127],[-91.82041,42.6127],[-91.82041,42.61686],[-91.82457,42.61686],[-91.82457,42.6252],[-91.83291,42.6252],[-91.83291,42.64186],[-91.84124,42.64186],[-91.84124,42.65437],[-91.84541,42.65437],[-91.84541,42.6627],[-91.85791,42.6627],[-91.85791,42.67103],[-91.86624,42.67103],[-91.86624,42.68353],[-91.87041,42.68353],[-91.87041,42.7002],[-91.86624,42.7002],[-91.86624,42.70437],[-91.87041,42.70437],[-91.87041,42.70854],[-91.86624,42.70854],[-91.86624,42.71687],[-91.85791,42.71687],[-91.85791,42.72104],[-91.86208,42.72104],[-91.86208,42.72937],[-91.86624,42.72937],[-91.86624,42.73771],[-91.87458,42.73771],[-91.87458,42.74604],[-91.87874,42.74604],[-91.87874,42.75021],[-91.88708,42.75021],[-91.88708,42.75854],[-91.89125,42.75854],[-91.89125,42.76687],[-91.89541,42.76687],[-91.89541,42.77104],[-91.89958,42.77104],[-91.89958,42.77521],[-91.91625,42.77521],[-91.91625,42.77938],[-91.92458,42.77938],[-91.92458,42.77521],[-91.94125,42.77521],[-91.94125,42.77938],[-91.94542,42.77938],[-91.94542,42.79188],[-91.95375,42.79188],[-91.95375,42.79604],[-91.95792,42.79604],[-91.95792,42.80438],[-91.96209,42.80438],[-91.96209,42.81688],[-91.96625,42.81688],[-91.96625,42.82521],[-91.97459,42.82521],[-91.97459,42.82938],[-91.97875,42.82938],[-91.97875,42.83771],[-91.99125,42.83771],[-91.99125,42.84188],[-92.00375,42.84188],[-92.00375,42.84605],[-92.00792,42.84605],[-92.00792,42.85438],[-92.01209,42.85438],[-92.01209,42.85855],[-92.01626,42.85855],[-92.01626,42.87522],[-92.02459,42.87522],[-92.02459,42.87938],[-92.02876,42.87938],[-92.02876,42.89188],[-92.02459,42.89188],[-92.02459,42.89605],[-92.02876,42.89605],[-92.02876,42.92105],[-92.04126,42.92105],[-92.04126,42.93355],[-92.05376,42.93355],[-92.05376,42.94189],[-92.05793,42.94189],[-92.05793,42.94606],[-92.06626,42.94606],[-92.06626,42.95022],[-92.07043,42.95022],[-92.07043,42.95439],[-92.08709,42.95439],[-92.08709,42.95856],[-92.09126,42.95856],[-92.09126,42.97106],[-92.0996,42.97106],[-92.0996,42.97522],[-92.10376,42.97522],[-92.10376,42.97939],[-92.11626,42.97939],[-92.11626,42.97522],[-92.12043,42.97522],[-92.12043,42.97939],[-92.1246,42.97939],[-92.1246,42.98356],[-92.12877,42.98356],[-92.12877,42.99189],[-92.13293,42.99189],[-92.13293,42.99606],[-92.14127,42.99606],[-92.14127,43.00439],[-92.14543,43.00439],[-92.14543,43.01273],[-92.15377,43.01273],[-92.15377,43.01689],[-92.15793,43.01689],[-92.15793,43.02106],[-92.17043,43.02106],[-92.17043,43.0294],[-92.17877,43.0294],[-92.17877,43.03356],[-92.1871,43.03356],[-92.1871,43.05023],[-92.19544,43.05023],[-92.19544,43.05856],[-92.20377,43.05856],[-92.20377,43.0669],[-92.20794,43.0669],[-92.20794,43.07523],[-92.2121,43.07523],[-92.2121,43.0794],[-92.21627,43.0794],[-92.21627,43.09607],[-92.22044,43.09607],[-92.22044,43.10023],[-92.22877,43.10023],[-92.22877,43.1044],[-92.23294,43.1044],[-92.23294,43.10857],[-92.23711,43.10857],[-92.23711,43.1169],[-92.24544,43.1169],[-92.24544,43.12107],[-92.24961,43.12107],[-92.24961,43.12524],[-92.25377,43.12524],[-92.25377,43.13357],[-92.25794,43.13357],[-92.25794,43.13774],[-92.26211,43.13774],[-92.26211,43.1419],[-92.27461,43.1419],[-92.27461,43.13774],[-92.27878,43.13774],[-92.27878,43.1419],[-92.28711,43.1419],[-92.28711,43.14607],[-92.29128,43.14607],[-92.29128,43.15024],[-92.29545,43.15024],[-92.29545,43.15441],[-92.29961,43.15441],[-92.29961,43.15857],[-92.30378,43.15857],[-92.30378,43.16274],[-92.31628,43.16274],[-92.31628,43.17941],[-92.32045,43.17941],[-92.32045,43.18357],[-92.32461,43.18357],[-92.32461,43.18774],[-92.33711,43.18774],[-92.33711,43.19191],[-92.34128,43.19191],[-92.34128,43.20024],[-92.34545,43.20024],[-92.34545,43.22524],[-92.34962,43.22524],[-92.34962,43.22941],[-92.35378,43.22941],[-92.35378,43.23358],[-92.35795,43.23358],[-92.35795,43.23775],[-92.37045,43.23775],[-92.37045,43.25441],[-92.37462,43.25441],[-92.37462,43.25858],[-92.37878,43.25858],[-92.37878,43.26691],[-92.38295,43.26691],[-92.38295,43.27942],[-92.38712,43.27942],[-92.38712,43.28358],[-92.39545,43.28358],[-92.39545,43.28775],[-92.41629,43.28775],[-92.41629,43.29192],[-92.42045,43.29192],[-92.42045,43.29608],[-92.42879,43.29608],[-92.42879,43.31275],[-92.43712,43.31275],[-92.43712,43.32109],[-92.44546,43.32109],[-92.44546,43.32942],[-92.44962,43.32942],[-92.44962,43.34192],[-92.45379,43.34192],[-92.45379,43.34609],[-92.45796,43.34609],[-92.45796,43.35025],[-92.47046,43.35025],[-92.47046,43.37526],[-92.47463,43.37526],[-92.47463,43.37942],[-92.47879,43.37942],[-92.47879,43.38359],[-92.48713,43.38359],[-92.48713,43.39192],[-92.49129,43.39192],[-92.49129,43.39609],[-92.49546,43.39609],[-92.49546,43.40443],[-92.50379,43.40443],[-92.50379,43.41693],[-92.50796,43.41693],[-92.50796,43.42109],[-92.51213,43.42109],[-92.51213,43.42526],[-92.52046,43.42526],[-92.52046,43.42943],[-92.52463,43.42943],[-92.52463,43.43359],[-92.53296,43.43359],[-92.53296,43.43776],[-92.53713,43.43776],[-92.53713,43.45026],[-92.5413,43.45026],[-92.5413,43.45443],[-92.54546,43.45443],[-92.54546,43.4586],[-92.5538,43.4586],[-92.5538,43.46276],[-92.54963,43.46276],[-92.54963,43.46693],[-92.5538,43.46693],[-92.5538,43.4711],[-92.55797,43.4711],[-92.55797,43.47943],[-92.56213,43.47943],[-92.56213,43.4836],[-92.57047,43.4836],[-92.57047,43.48777],[-92.57463,43.48777],[-92.57463,43.4961],[-92.5788,43.4961],[-92.5788,43.50027],[-92.58714,43.50027],[-92.58714,43.50443],[-92.59547,43.50443],[-92.59547,43.5086],[-92.60797,43.5086],[-92.60797,43.51277],[-92.61214,43.51277],[-92.61214,43.51693],[-92.62047,43.51693],[-92.62047,43.5211],[-92.62464,43.5211],[-92.62464,43.52527],[-92.6288,43.52527],[-92.6288,43.52944],[-92.63297,43.52944],[-92.63297,43.54194],[-92.6288,43.54194],[-92.6288,43.5461],[-92.64131,43.5461],[-92.64131,43.55027],[-92.64964,43.55027],[-92.64964,43.55444],[-92.65797,43.55444],[-92.65797,43.5586],[-92.67047,43.5586]]]}}]}