{"type":"FeatureCollection","features":[{"type":"Feature","properties":{},"geometry":{"type":"Polygon","coordinates":[[[-91.69367,41.67636],[-91.69882,41.67557],[-91.70144,41.67366],[-91.70117,41.67172],[-91.70318,41.67146],[-91.70645,41.67254],[-91.71221,41.67096],[-91.71561,41.6734],[-91.72039,41.67166],[-91.7315,41.67298],[-91.73534,41.67515],[-91.73846,41.67968],[-91.74416,41.6798],[-91.74789,41.68253],[-91.74963,41.68555],[-91.75521,41.68927],[-91.7553,41.6939],[-91.7597,41.69457],[-91.76042,41.69602],[-91.77131,41.69789],[-91.7791,41.69409],[-91.78154,41.69711],[-91.78494,41.69521],[-91.7892,41.69601],[-91.79,41.69377],[-91.79354,41.69323],[-91.8007,41.69708],[-91.8016,41.70032],[-91.80652,41.70114],[-91.80939,41.69831],[-91.81273,41.69765],[-91.81657,41.69974],[-91.82416,41.7001],[-91.83071,41.69864],[-91.83599,41.69937],[-91.83822,41.69755],[-91.8427,41.69856],[-91.85191,41.69419],[-91.85134,41.69228],[-91.85407,41.68954],[-91.85439,41.68647],[-91.86462,41.68504],[-91.8683,41.68226],[-91.86783,41.68115],[-91.87471,41.6785],[-91.88804,41.68241],[-91.89782,41.67916],[-91.90736,41.68173],[-91.91126,41.67929],[-91.92389,41.68092],[-91.92437,41.67814],[-91.93161,41.67615],[-91.94481,41.67762],[-91.95012,41.67333],[-91.95539,41.67286],[-91.96961,41.67967],[-91.97096,41.68159],[-91.96784,41.69608],[-91.96297,41.69588],[-91.95986,41.69761],[-91.96635,41.70362],[-91.97951,41.70728],[-91.98297,41.70644],[-91.98516,41.70365],[-91.98929,41.70584],[-91.99382,41.70583],[-92.00354,41.70273],[-92.00883,41.70507],[-92.01145,41.70447],[-92.01846,41.70883],[-92.01125,41.71262],[-92.01181,41.72141],[-92.00829,41.72348],[-92.00687,41.72725],[-92.00067,41.7276],[-91.98802,41.73744],[-91.98839,41.74074],[-91.99275,41.74491],[-91.98961,41.75026],[-91.99225,41.75161],[-91.99065,41.7529],[-91.99067,41.75627],[-91.98914,41.75756],[-91.98516,41.75717],[-91.97895,41.76395],[-91.97438,41.76289],[-91.96867,41.76477],[-91.96636,41.76785],[-91.95633,41.76464],[-91.9432,41.76578],[-91.9389,41.76174],[-91.9308,41.7617],[-91.92364,41.75792],[-91.92021,41.75954],[-91.91542,41.75763],[-91.91344,41.75906],[-91.89269,41.75237],[-91.88809,41.75521],[-91.86497,41.75698],[-91.85721,41.7591],[-91.85204,41.76285],[-91.84699,41.76245],[-91.84589,41.76011],[-91.84388,41.75966],[-91.8332,41.75938],[-91.83055,41.75726],[-91.82548,41.7566],[-91.82001,41.75728],[-91.81817,41.75427],[-91.80882,41.75101],[-91.80432,41.74604],[-91.78854,41.74839],[-91.78355,41.74756],[-91.78115,41.74495],[-91.77411,41.7482],[-91.7687,41.74765],[-91.76481,41.74984],[-91.76019,41.74742],[-91.75213,41.74889],[-91.74309,41.7451],[-91.72679,41.74413],[-91.72251,41.74162],[-91.71889,41.74206],[-91.71134,41.73957],[-91.70941,41.73969],[-91.70845,41.74236],[-91.70668,41.74282],[-91.69676,41.73846],[-91.69092,41.7419],[-91.67677,41.74216],[-91.6746,41.74535],[-91.64844,41.74261],[-91.64089,41.74537],[-91.64363,41.7483],[-91.64292,41.75033],[-91.62286,41.74897],[-91.619,41.74631],[-91.62335,41.74255],[-91.6222,41.73302],[-91.6205,41.73079],[-91.61684,41.73085],[-91.60476,41.72086],[-91.60641,41.71984],[-91.60493,41.71877],[-91.6078,41.71737],[-91.6073,41.71385],[-91.61039,41.71401],[-91.61045,41.71185],[-91.60053,41.70489],[-91.59174,41.70284],[-91.58873,41.70394],[-91.58818,41.70116],[-91.58131,41.69482],[-91.58329,41.69221],[-91.58156,41.68738],[-91.58217,41.68385],[-91.57833,41.67862],[-91.57979,41.6755],[-91.57829,41.66943],[-91.57863,41.66816],[-91.58359,41.66873],[-91.58886,41.67133],[-91.59617,41.66885],[-91.60229,41.67097],[-91.60359,41.66917],[-91.60574,41.67043],[-91.61335,41.67016],[-91.62143,41.66345],[-91.63417,41.66899],[-91.63563,41.66567],[-91.63827,41.66551],[-91.64055,41.66107],[-91.648,41.65965],[-91.65485,41.66234],[-91.65586,41.66644],[-91.66019,41.66678],[-91.66172,41.67063],[-91.66945,41.66925],[-91.67484,41.67239],[-91.68689,41.66835],[-91.69367,41.67636]]]}}]}