{"type":"FeatureCollection","features":[{"type":"Feature","properties":{},"geometry":{"type":"Polygon","coordinates":[[[-91.91467,41.72743],[-91.92177,41.72416],[-91.92844,41.72636],[-91.94921,41.72479],[-91.95454,41.72826],[-91.955,41.73028],[-91.96425,41.73177],[-91.96887,41.73478],[-91.97981,41.7306],[-91.98766,41.72999],[-91.99039,41.73358],[-91.9875,41.73879],[-91.99275,41.74491],[-91.98961,41.75026],[-91.99225,41.75161],[-91.99065,41.7529],[-91.99067,41.75627],[-91.98914,41.75756],[-91.98516,41.75717],[-91.97895,41.76395],[-91.97438,41.76289],[-91.96867,41.76477],[-91.96636,41.76785],[-91.95633,41.76464],[-91.9432,41.76578],[-91.9389,41.76174],[-91.9308,41.7617],[-91.92364,41.75792],[-91.92021,41.75954],[-91.91542,41.75763],[-91.91344,41.75906],[-91.90209,41.75606],[-91.90181,41.75466],[-91.9061,41.75307],[-91.90631,41.74907],[-91.90329,41.74519],[-91.90536,41.74239],[-91.90339,41.73917],[-91.90601,41.73841],[-91.90649,41.73403],[-91.90343,41.72815],[-91.90174,41.72824],[-91.90805,41.72603],[-91.91467,41.72743]]]}}]}