{"type":"FeatureCollection","features":[{"type":"Feature","properties":{},"geometry":{"type":"Polygon","coordinates":[[[-91.34537,43.0794],[-91.34537,43.0669],[-91.35787,43.0669],[-91.35787,43.06273],[-91.36204,43.06273],[-91.36204,43.05856],[-91.38704,43.05856],[-91.38704,43.0544],[-91.39537,43.0544],[-91.39537,43.0419],[-91.38704,43.0419],[-91.38704,43.03773],[-91.38287,43.03773],[-91.38287,43.0294],[-91.37454,43.0294],[-91.37454,43.02523],[-91.36204,43.02523],[-91.36204,43.02106],[-91.34537,43.02106],[-91.34537,43.01689],[-91.33704,43.01689],[-91.33704,43.01273],[-91.33287,43.01273],[-91.33287,43.00439],[-91.32453,43.00439],[-91.32453,43.00023],[-91.32037,43.00023],[-91.32037,42.99606],[-91.3162,42.99606],[-91.3162,43.00023],[-91.31203,43.00023],[-91.31203,43.00856],[-91.28703,43.00856],[-91.28703,43.01273],[-91.27453,43.01273],[-91.27453,43.01689],[-91.26203,43.01689],[-91.26203,43.01273],[-91.25786,43.01273],[-91.25786,43.01689],[-91.25369,43.01689],[-91.25369,43.01273],[-91.24536,43.01273],[-91.24536,43.01689],[-91.23703,43.01689],[-91.23703,43.02106],[-91.21619,43.02106],[-91.21619,43.02523],[-91.20369,43.02523],[-91.20369,43.03773],[-91.20786,43.03773],[-91.20786,43.04606],[-91.21202,43.04606],[-91.21202,43.05856],[-91.20786,43.05856],[-91.20786,43.06273],[-91.21202,43.06273],[-91.21202,43.0669],[-91.23703,43.0669],[-91.23703,43.06273],[-91.2787,43.06273],[-91.2787,43.07107],[-91.29537,43.07107],[-91.29537,43.07523],[-91.3037,43.07523],[-91.3037,43.0794],[-91.34537,43.0794]]]}}]}