{"type":"FeatureCollection","features":[{"type":"Feature","properties":{},"geometry":{"type":"Polygon","coordinates":[[[-91.6082,41.6834],[-91.6119,41.68511],[-91.61204,41.68854],[-91.61008,41.69132],[-91.61292,41.69275],[-91.61121,41.69486],[-91.61407,41.6979],[-91.61236,41.69998],[-91.60221,41.70243],[-91.60209,41.70547],[-91.59174,41.70284],[-91.58873,41.70394],[-91.58818,41.70116],[-91.58131,41.69482],[-91.5878,41.68995],[-91.59177,41.69032],[-91.60701,41.68638],[-91.60616,41.68449],[-91.6082,41.6834]]]}}]}