{"type":"FeatureCollection","features":[{"type":"Feature","properties":{},"geometry":{"type":"Polygon","coordinates":[[[-92.34209,42.27414],[-92.34464,42.27368],[-92.34728,42.27491],[-92.34692,42.27628],[-92.35279,42.27803],[-92.35339,42.281],[-92.35815,42.28545],[-92.36457,42.28536],[-92.37077,42.28232],[-92.37536,42.28567],[-92.38101,42.28604],[-92.38944,42.28955],[-92.39698,42.28971],[-92.40017,42.29714],[-92.41532,42.30881],[-92.41569,42.3108],[-92.41247,42.31423],[-92.41401,42.31528],[-92.41043,42.32088],[-92.4033,42.32645],[-92.40963,42.32945],[-92.41535,42.33457],[-92.41544,42.33854],[-92.41203,42.34484],[-92.4122,42.34792],[-92.40551,42.35683],[-92.4023,42.35683],[-92.40226,42.36266],[-92.40029,42.36342],[-92.40037,42.36529],[-92.40534,42.36834],[-92.40141,42.37395],[-92.40574,42.37524],[-92.40653,42.37755],[-92.39417,42.38309],[-92.39443,42.38524],[-92.38912,42.38822],[-92.38679,42.39407],[-92.38232,42.39581],[-92.37628,42.40168],[-92.37718,42.40521],[-92.38233,42.40854],[-92.37557,42.41017],[-92.37625,42.41243],[-92.37342,42.41492],[-92.36662,42.41806],[-92.34743,42.41358],[-92.34363,42.41539],[-92.33914,42.415],[-92.33643,42.41265],[-92.33231,42.41414],[-92.32882,42.41172],[-92.32647,42.40693],[-92.31569,42.40213],[-92.31416,42.39927],[-92.31426,42.39418],[-92.30925,42.39353],[-92.30379,42.38691],[-92.29993,42.38798],[-92.29363,42.37545],[-92.26649,42.37591],[-92.26283,42.37834],[-92.26035,42.37817],[-92.25408,42.38747],[-92.2465,42.3829],[-92.2466,42.37973],[-92.24295,42.37614],[-92.25556,42.37048],[-92.25703,42.36688],[-92.26,42.36616],[-92.26204,42.36338],[-92.2617,42.36192],[-92.26552,42.36098],[-92.26686,42.35269],[-92.27777,42.34949],[-92.28124,42.34637],[-92.27722,42.33927],[-92.28309,42.33766],[-92.2861,42.33424],[-92.28529,42.33225],[-92.28756,42.33098],[-92.28536,42.32809],[-92.28603,42.32178],[-92.28378,42.31932],[-92.28666,42.31497],[-92.29177,42.31363],[-92.29381,42.30948],[-92.29982,42.30743],[-92.29959,42.30474],[-92.29587,42.30034],[-92.2975,42.29784],[-92.30554,42.29553],[-92.31294,42.28794],[-92.31356,42.28336],[-92.32302,42.28069],[-92.32225,42.27827],[-92.32935,42.27586],[-92.33812,42.27603],[-92.34209,42.27414]]]}}]}