{"type":"FeatureCollection","features":[{"type":"Feature","properties":{},"geometry":{"type":"Polygon","coordinates":[[[-90.56824,41.66584],[-90.56836,41.65306],[-90.57706,41.65515],[-90.58543,41.66027],[-90.5899,41.66122],[-90.58363,41.65086],[-90.57484,41.64711],[-90.57431,41.64401],[-90.575,41.64049],[-90.57869,41.63916],[-90.57804,41.63323],[-90.58446,41.62921],[-90.58526,41.62493],[-90.58314,41.62251],[-90.58597,41.6185],[-90.591,41.62026],[-90.59652,41.61773],[-90.60833,41.61782],[-90.62026,41.62088],[-90.62422,41.615],[-90.62934,41.61548],[-90.6411,41.60775],[-90.65407,41.60371],[-90.65958,41.59948],[-90.66063,41.59639],[-90.67304,41.59263],[-90.67521,41.58789],[-90.68353,41.58706],[-90.68681,41.58997],[-90.68965,41.59036],[-90.7004,41.58904],[-90.70259,41.5914],[-90.7214,41.59957],[-90.72999,41.59791],[-90.74157,41.59945],[-90.74416,41.60104],[-90.74435,41.60346],[-90.77148,41.61335],[-90.77165,41.61719],[-90.78737,41.62562],[-90.78992,41.62313],[-90.7932,41.62351],[-90.79604,41.62141],[-90.81502,41.62635],[-90.82704,41.63218],[-90.83019,41.63453],[-90.82951,41.63835],[-90.84165,41.6452],[-90.85307,41.63999],[-90.86297,41.63994],[-90.8671,41.63312],[-90.8762,41.63295],[-90.87897,41.6352],[-90.88858,41.63671],[-90.89795,41.64348],[-90.91209,41.64692],[-90.92724,41.66458],[-90.92619,41.66633],[-90.92786,41.67011],[-90.92412,41.67351],[-90.92744,41.67544],[-90.92654,41.67788],[-90.94839,41.68773],[-90.94831,41.6908],[-90.95156,41.69124],[-90.95299,41.70176],[-90.94295,41.70026],[-90.93406,41.70604],[-90.93192,41.71078],[-90.92692,41.71524],[-90.91412,41.71472],[-90.90667,41.71661],[-90.90713,41.72207],[-90.90938,41.72432],[-90.90633,41.72527],[-90.90268,41.72341],[-90.90128,41.72628],[-90.90513,41.72857],[-90.90178,41.73087],[-90.90185,41.73267],[-90.92053,41.74054],[-90.92637,41.73985],[-90.93858,41.74267],[-90.94325,41.75244],[-90.94134,41.75492],[-90.94204,41.75604],[-90.9543,41.76408],[-90.95823,41.76872],[-90.96491,41.7704],[-90.97099,41.77523],[-90.99766,41.77665],[-90.99945,41.77929],[-91.00654,41.78198],[-91.00777,41.78525],[-91.0109,41.78611],[-91.01076,41.78811],[-91.01261,41.78933],[-91.01695,41.79016],[-91.02241,41.79514],[-91.02781,41.79516],[-91.03145,41.79761],[-91.03578,41.79795],[-91.03769,41.79931],[-91.03531,41.80186],[-91.04071,41.80638],[-91.05398,41.81248],[-91.0542,41.82093],[-91.05321,41.82249],[-91.04731,41.82266],[-91.04528,41.82434],[-91.04646,41.82635],[-91.04043,41.83202],[-91.03758,41.84225],[-91.03873,41.84621],[-91.04475,41.8492],[-91.04522,41.8514],[-91.05121,41.85337],[-91.04953,41.85573],[-91.0514,41.86116],[-91.04921,41.86376],[-91.05698,41.86693],[-91.05815,41.86929],[-91.07844,41.87513],[-91.08625,41.87043],[-91.10978,41.87402],[-91.10933,41.87724],[-91.11653,41.88112],[-91.12564,41.89099],[-91.1251,41.8952],[-91.12252,41.89754],[-91.12371,41.90173],[-91.11734,41.90544],[-91.11753,41.91077],[-91.12533,41.91535],[-91.13224,41.92185],[-91.14722,41.92143],[-91.1554,41.92417],[-91.16707,41.92528],[-91.17257,41.92356],[-91.17734,41.91741],[-91.19032,41.92054],[-91.19124,41.91777],[-91.19388,41.91745],[-91.19607,41.91448],[-91.19954,41.91572],[-91.20862,41.91016],[-91.22264,41.91107],[-91.22663,41.90689],[-91.2246,41.90525],[-91.2257,41.90355],[-91.21968,41.89959],[-91.21887,41.8977],[-91.22075,41.89697],[-91.23437,41.89915],[-91.23651,41.89694],[-91.24611,41.89925],[-91.25528,41.90213],[-91.25497,41.90435],[-91.25636,41.90526],[-91.2839,41.91262],[-91.30324,41.92025],[-91.30322,41.92987],[-91.30531,41.93338],[-91.30357,41.93948],[-91.31266,41.94346],[-91.3171,41.94179],[-91.32418,41.94467],[-91.32983,41.945],[-91.35654,41.95522],[-91.36339,41.96503],[-91.36822,41.9656],[-91.37231,41.96988],[-91.37752,41.97115],[-91.37696,41.97539],[-91.38098,41.9778],[-91.38033,41.97974],[-91.37833,41.97965],[-91.37844,41.98219],[-91.36993,41.9869],[-91.37571,41.98989],[-91.37847,41.99407],[-91.37683,41.99555],[-91.38824,41.99972],[-91.37669,42.00649],[-91.37456,42.00924],[-91.3698,42.00792],[-91.36777,42.01386],[-91.35834,42.01718],[-91.35587,42.02009],[-91.34798,42.0239],[-91.34651,42.0262],[-91.34767,42.0278],[-91.33947,42.03019],[-91.34059,42.03533],[-91.34705,42.03684],[-91.35172,42.0407],[-91.35286,42.04551],[-91.34964,42.04748],[-91.35015,42.0521],[-91.35434,42.05265],[-91.361,42.06004],[-91.36017,42.06504],[-91.36211,42.06697],[-91.36148,42.06891],[-91.36313,42.06998],[-91.37138,42.0691],[-91.37679,42.07162],[-91.3824,42.06958],[-91.38636,42.0699],[-91.39366,42.07352],[-91.39453,42.076],[-91.40679,42.07852],[-91.40652,42.08429],[-91.40504,42.08584],[-91.40826,42.09724],[-91.41757,42.10096],[-91.43133,42.11091],[-91.43663,42.10926],[-91.44193,42.11118],[-91.44446,42.11511],[-91.44095,42.12004],[-91.44162,42.12164],[-91.44933,42.12515],[-91.45287,42.12491],[-91.45668,42.12948],[-91.46077,42.12997],[-91.46394,42.13263],[-91.4691,42.13201],[-91.47649,42.13483],[-91.4792,42.13728],[-91.47761,42.13924],[-91.47841,42.14045],[-91.48336,42.14345],[-91.48313,42.14813],[-91.4862,42.15448],[-91.49576,42.156],[-91.51175,42.15077],[-91.51759,42.15539],[-91.5179,42.1574],[-91.51546,42.15938],[-91.51738,42.16054],[-91.52371,42.16013],[-91.52728,42.16276],[-91.53361,42.16279],[-91.53487,42.16426],[-91.54178,42.1646],[-91.54783,42.16256],[-91.55529,42.16338],[-91.55909,42.16859],[-91.56759,42.17197],[-91.57261,42.18747],[-91.57536,42.18794],[-91.57615,42.18971],[-91.57328,42.19815],[-91.56735,42.20203],[-91.56527,42.20764],[-91.58298,42.21203],[-91.59264,42.20133],[-91.59693,42.19872],[-91.60719,42.19775],[-91.61141,42.19545],[-91.62009,42.203],[-91.61988,42.20989],[-91.62422,42.21134],[-91.62743,42.21944],[-91.6339,42.22534],[-91.63371,42.22947],[-91.63892,42.23559],[-91.64442,42.23739],[-91.6452,42.24593],[-91.64175,42.24867],[-91.64195,42.25009],[-91.64358,42.25481],[-91.65028,42.25817],[-91.65757,42.25496],[-91.66064,42.25051],[-91.66412,42.24852],[-91.6721,42.24986],[-91.67329,42.24541],[-91.67896,42.24552],[-91.68737,42.24804],[-91.69927,42.25612],[-91.70078,42.26612],[-91.71618,42.26583],[-91.71756,42.26721],[-91.72568,42.26614],[-91.75393,42.27163],[-91.75466,42.28374],[-91.75989,42.28803],[-91.76133,42.29219],[-91.75993,42.29653],[-91.76525,42.30235],[-91.76527,42.30877],[-91.7781,42.31273],[-91.77856,42.31501],[-91.78072,42.3159],[-91.80602,42.31302],[-91.80798,42.31002],[-91.81367,42.30823],[-91.81762,42.31104],[-91.83288,42.31179],[-91.84014,42.30976],[-91.8398,42.30638],[-91.8503,42.31175],[-91.85104,42.31402],[-91.85749,42.31593],[-91.85501,42.31726],[-91.85455,42.32167],[-91.85153,42.32637],[-91.85203,42.33039],[-91.85051,42.33131],[-91.85162,42.33576],[-91.85596,42.33957],[-91.8562,42.3484],[-91.8533,42.35014],[-91.85572,42.35308],[-91.84467,42.35997],[-91.84567,42.36392],[-91.84284,42.36609],[-91.84457,42.36776],[-91.84414,42.37125],[-91.8385,42.37723],[-91.84169,42.38167],[-91.83874,42.38891],[-91.84002,42.39117],[-91.83882,42.3937],[-91.84161,42.39625],[-91.84182,42.40041],[-91.85583,42.40483],[-91.86229,42.41319],[-91.86595,42.41544],[-91.86671,42.41777],[-91.86519,42.42004],[-91.86967,42.42352],[-91.87033,42.43141],[-91.88315,42.43506],[-91.88773,42.44202],[-91.89551,42.44164],[-91.92298,42.44825],[-91.92421,42.44897],[-91.92366,42.45191],[-91.93792,42.45934],[-91.93651,42.46203],[-91.93876,42.47011],[-91.95451,42.46834],[-91.96105,42.46572],[-91.97076,42.46693],[-91.97081,42.46982],[-91.97896,42.48667],[-91.98344,42.48604],[-91.98537,42.48392],[-91.9846,42.48192],[-91.99111,42.48128],[-91.99377,42.47853],[-92.00222,42.47748],[-92.00552,42.47863],[-92.01579,42.47507],[-92.01816,42.4777],[-92.03135,42.48318],[-92.03639,42.49888],[-92.04914,42.50294],[-92.05316,42.50331],[-92.06023,42.49883],[-92.06644,42.49956],[-92.07151,42.50415],[-92.08573,42.50189],[-92.08942,42.50398],[-92.09651,42.50302],[-92.09958,42.50408],[-92.09768,42.49962],[-92.09874,42.49637],[-92.10444,42.49331],[-92.10683,42.48734],[-92.11513,42.49001],[-92.12105,42.48881],[-92.12282,42.49108],[-92.12566,42.49152],[-92.1291,42.4897],[-92.13679,42.49081],[-92.14458,42.48927],[-92.14748,42.50094],[-92.15044,42.50296],[-92.1478,42.50764],[-92.14887,42.51266],[-92.14333,42.51679],[-92.14323,42.52117],[-92.13696,42.52287],[-92.13468,42.52702],[-92.1264,42.53144],[-92.12578,42.53332],[-92.12818,42.53737],[-92.13657,42.54166],[-92.13775,42.54601],[-92.14097,42.54757],[-92.16331,42.5501],[-92.16927,42.55532],[-92.17361,42.55593],[-92.18421,42.56203],[-92.18748,42.56562],[-92.19952,42.56663],[-92.20511,42.56906],[-92.20723,42.57053],[-92.21082,42.57883],[-92.23734,42.58841],[-92.24613,42.59375],[-92.25718,42.59526],[-92.26225,42.59047],[-92.28048,42.58994],[-92.29474,42.5951],[-92.29813,42.60338],[-92.29815,42.61151],[-92.30064,42.61381],[-92.29797,42.61807],[-92.29853,42.6216],[-92.30406,42.63194],[-92.30375,42.63379],[-92.30604,42.6359],[-92.30813,42.64609],[-92.30061,42.65791],[-92.29729,42.65874],[-92.28609,42.65431],[-92.28372,42.65464],[-92.28304,42.65789],[-92.28782,42.66654],[-92.28603,42.67251],[-92.28701,42.67592],[-92.29316,42.68287],[-92.29415,42.6867],[-92.29821,42.68901],[-92.29793,42.69437],[-92.28784,42.70376],[-92.29211,42.70743],[-92.2929,42.71107],[-92.29774,42.71441],[-92.2985,42.72501],[-92.3004,42.7291],[-92.30662,42.73737],[-92.31483,42.7421],[-92.31637,42.74807],[-92.31522,42.75572],[-92.31937,42.75819],[-92.32134,42.76418],[-92.32549,42.76854],[-92.3293,42.78135],[-92.33228,42.78346],[-92.33813,42.78443],[-92.34108,42.78864],[-92.34162,42.7943],[-92.34641,42.79914],[-92.35805,42.80567],[-92.35868,42.81203],[-92.36496,42.81459],[-92.3755,42.8287],[-92.3771,42.84091],[-92.38222,42.84283],[-92.38462,42.84587],[-92.38518,42.84788],[-92.38184,42.84871],[-92.39319,42.85235],[-92.39755,42.8554],[-92.39378,42.86587],[-92.39377,42.88359],[-92.38969,42.89253],[-92.39387,42.895],[-92.39417,42.89761],[-92.39855,42.90067],[-92.40105,42.90559],[-92.39983,42.91081],[-92.40542,42.92518],[-92.40243,42.93008],[-92.40278,42.93379],[-92.39898,42.93821],[-92.40249,42.94501],[-92.40745,42.94918],[-92.40874,42.96695],[-92.41658,42.97281],[-92.41665,42.97603],[-92.41987,42.97955],[-92.4195,42.98181],[-92.42991,42.99414],[-92.42967,42.9987],[-92.4352,43.00363],[-92.43628,43.00859],[-92.43938,43.0108],[-92.4404,43.01747],[-92.43852,43.02098],[-92.44568,43.02237],[-92.44846,43.02535],[-92.45338,43.02686],[-92.4608,43.02692],[-92.46269,43.02942],[-92.46166,43.03182],[-92.4663,43.03283],[-92.47365,43.03952],[-92.47178,43.04561],[-92.47662,43.05802],[-92.49145,43.06772],[-92.49247,43.07],[-92.49075,43.07157],[-92.49604,43.07682],[-92.49596,43.08568],[-92.50164,43.09012],[-92.50535,43.0905],[-92.50604,43.09829],[-92.51431,43.10391],[-92.51987,43.11132],[-92.52213,43.11504],[-92.52194,43.12186],[-92.52346,43.12543],[-92.52762,43.1278],[-92.52868,43.13255],[-92.53301,43.135],[-92.54018,43.14693],[-92.53867,43.14992],[-92.54095,43.15676],[-92.54399,43.15995],[-92.54308,43.16272],[-92.55416,43.16706],[-92.55653,43.17169],[-92.56108,43.17491],[-92.57544,43.17914],[-92.58432,43.18747],[-92.58131,43.19572],[-92.56633,43.20537],[-92.56393,43.21453],[-92.56494,43.21635],[-92.56873,43.21717],[-92.57238,43.22191],[-92.56992,43.22905],[-92.5673,43.23111],[-92.56895,43.23519],[-92.56798,43.23744],[-92.56904,43.24253],[-92.57129,43.24451],[-92.57087,43.25408],[-92.57511,43.26062],[-92.57254,43.26338],[-92.57513,43.26679],[-92.58459,43.26825],[-92.5899,43.27344],[-92.58982,43.27818],[-92.58352,43.28243],[-92.58482,43.28561],[-92.57605,43.29398],[-92.58331,43.29798],[-92.5846,43.29956],[-92.58369,43.30129],[-92.59411,43.31201],[-92.59501,43.31524],[-92.59356,43.31905],[-92.59774,43.3279],[-92.59685,43.33511],[-92.59451,43.33713],[-92.59655,43.34531],[-92.59444,43.34728],[-92.6004,43.35779],[-92.59926,43.36258],[-92.60074,43.36594],[-92.60068,43.37474],[-92.60277,43.37775],[-92.60899,43.37979],[-92.61172,43.38299],[-92.61348,43.38585],[-92.61402,43.39516],[-92.62363,43.40007],[-92.62557,43.40687],[-92.62382,43.41137],[-92.62745,43.41672],[-92.64238,43.42771],[-92.65211,43.43193],[-92.66329,43.43442],[-92.65903,43.43995],[-92.6623,43.44294],[-92.66076,43.44495],[-92.64828,43.45114],[-92.6506,43.45858],[-92.65584,43.46152],[-92.65606,43.46377],[-92.65302,43.46533],[-92.65222,43.47045],[-92.6662,43.47932],[-92.68111,43.49389],[-92.6826,43.4973],[-92.68916,43.50042],[-92.70167,43.51999],[-92.70812,43.52484],[-92.71227,43.53166],[-92.71022,43.53565],[-92.70303,43.53555],[-92.69542,43.5388],[-92.68557,43.54043],[-92.67684,43.53911],[-92.67214,43.54581],[-92.6677,43.54787],[-92.66494,43.5536],[-92.66046,43.55376],[-92.6519,43.54804],[-92.6428,43.55028],[-92.64002,43.54436],[-92.62742,43.54326],[-92.6249,43.54075],[-92.6286,43.53734],[-92.62844,43.53265],[-92.62988,43.53066],[-92.62812,43.5297],[-92.62845,43.52716],[-92.62504,43.52273],[-92.61936,43.51694],[-92.6088,43.51183],[-92.60639,43.50652],[-92.59293,43.50354],[-92.58644,43.50399],[-92.57972,43.49655],[-92.57412,43.49434],[-92.57228,43.48883],[-92.55969,43.47963],[-92.55543,43.46795],[-92.54803,43.46326],[-92.54781,43.46014],[-92.54558,43.45781],[-92.54796,43.4535],[-92.53774,43.4492],[-92.53833,43.44491],[-92.53614,43.44458],[-92.52973,43.43823],[-92.53273,43.4337],[-92.52865,43.43013],[-92.5185,43.42743],[-92.51422,43.42088],[-92.50642,43.41818],[-92.50334,43.41494],[-92.49953,43.40808],[-92.50048,43.40545],[-92.49654,43.40239],[-92.4976,43.40046],[-92.48746,43.39246],[-92.49044,43.38646],[-92.48059,43.38011],[-92.4803,43.37776],[-92.47538,43.37652],[-92.47505,43.37285],[-92.46938,43.36935],[-92.46592,43.36157],[-92.46938,43.35837],[-92.46594,43.35072],[-92.45996,43.34629],[-92.45705,43.34647],[-92.45082,43.34308],[-92.45287,43.34085],[-92.45227,43.33667],[-92.44588,43.33308],[-92.44678,43.32651],[-92.43428,43.31444],[-92.43529,43.31202],[-92.429,43.30822],[-92.42427,43.3007],[-92.42512,43.29691],[-92.42227,43.29122],[-92.41112,43.28697],[-92.4075,43.28222],[-92.39621,43.28486],[-92.38937,43.27866],[-92.38431,43.27778],[-92.37928,43.27445],[-92.38083,43.2696],[-92.37915,43.26671],[-92.38138,43.26295],[-92.37569,43.25986],[-92.36745,43.24751],[-92.36474,43.24569],[-92.36504,43.24153],[-92.36737,43.23971],[-92.36573,43.23563],[-92.35754,43.23455],[-92.35559,43.23176],[-92.34677,43.22688],[-92.34599,43.22245],[-92.34306,43.22183],[-92.34164,43.21119],[-92.33884,43.20915],[-92.34005,43.20158],[-92.33639,43.19853],[-92.33617,43.19072],[-92.33228,43.18711],[-92.32822,43.1876],[-92.31052,43.17772],[-92.31155,43.17539],[-92.31036,43.16661],[-92.30687,43.16558],[-92.29495,43.15562],[-92.29156,43.15048],[-92.27606,43.14897],[-92.26954,43.1461],[-92.26407,43.14096],[-92.25837,43.13986],[-92.25647,43.13622],[-92.25344,43.13662],[-92.24512,43.12622],[-92.24137,43.12513],[-92.23979,43.11326],[-92.22986,43.10491],[-92.22939,43.10179],[-92.22645,43.0991],[-92.21628,43.09565],[-92.21665,43.0921],[-92.21261,43.08559],[-92.2108,43.0776],[-92.20166,43.06616],[-92.20256,43.06219],[-92.19929,43.0543],[-92.193,43.05352],[-92.1855,43.04757],[-92.18204,43.04184],[-92.18338,43.03368],[-92.17714,43.03094],[-92.17179,43.02593],[-92.16859,43.02541],[-92.16151,43.01894],[-92.15793,43.01842],[-92.14843,43.01253],[-92.14359,43.01189],[-92.14277,43.00792],[-92.13701,43.00478],[-92.13575,43.00166],[-92.13776,42.99734],[-92.13561,42.99384],[-92.12928,42.99446],[-92.12569,42.99046],[-92.11752,42.98631],[-92.11533,42.97884],[-92.11621,42.9766],[-92.10511,42.97474],[-92.10078,42.97591],[-92.09304,42.96834],[-92.08423,42.96501],[-92.08332,42.95627],[-92.08112,42.95394],[-92.06911,42.95235],[-92.06436,42.9481],[-92.0582,42.94565],[-92.05714,42.9428],[-92.04996,42.9378],[-92.04273,42.92844],[-92.03617,42.9248],[-92.03302,42.91713],[-92.02762,42.91034],[-92.02406,42.8968],[-92.01968,42.892],[-92.02602,42.88748],[-92.02439,42.88433],[-92.0257,42.88013],[-92.02226,42.87422],[-92.01663,42.86991],[-92.01315,42.86194],[-92.00861,42.85757],[-92.00285,42.84418],[-91.99477,42.83695],[-91.97803,42.83267],[-91.9727,42.82286],[-91.96347,42.81998],[-91.95964,42.81648],[-91.95719,42.80834],[-91.95847,42.80708],[-91.9575,42.80266],[-91.95463,42.79702],[-91.95115,42.79342],[-91.94899,42.78763],[-91.94237,42.78562],[-91.93509,42.77142],[-91.93244,42.76958],[-91.92707,42.7698],[-91.92153,42.77325],[-91.91798,42.77357],[-91.91313,42.77115],[-91.89789,42.77251],[-91.894,42.77001],[-91.89018,42.76535],[-91.89266,42.76365],[-91.89198,42.76219],[-91.882,42.75522],[-91.88325,42.75233],[-91.87258,42.74401],[-91.85607,42.72272],[-91.85708,42.72075],[-91.85533,42.71719],[-91.84389,42.71051],[-91.8334,42.71677],[-91.82523,42.71516],[-91.82117,42.71627],[-91.81138,42.71192],[-91.8064,42.71248],[-91.80249,42.71626],[-91.79595,42.71645],[-91.79365,42.71493],[-91.78597,42.71698],[-91.78196,42.71355],[-91.77473,42.70217],[-91.77079,42.69983],[-91.76928,42.69114],[-91.76568,42.68703],[-91.76594,42.68274],[-91.75583,42.67919],[-91.75337,42.67131],[-91.75486,42.66477],[-91.75252,42.66108],[-91.74908,42.6572],[-91.73747,42.65414],[-91.73346,42.65157],[-91.7283,42.64401],[-91.72859,42.64144],[-91.72145,42.63602],[-91.72511,42.63248],[-91.72514,42.62713],[-91.72926,42.62593],[-91.72934,42.62102],[-91.72607,42.6131],[-91.71505,42.60558],[-91.70995,42.5946],[-91.70551,42.59175],[-91.70563,42.58956],[-91.69547,42.58881],[-91.69208,42.58612],[-91.68756,42.58586],[-91.68071,42.57757],[-91.68419,42.57625],[-91.6847,42.57286],[-91.68705,42.57026],[-91.68784,42.56356],[-91.6965,42.55865],[-91.7081,42.55726],[-91.71212,42.55175],[-91.70576,42.54751],[-91.70639,42.54587],[-91.70294,42.5438],[-91.69446,42.53253],[-91.69596,42.52985],[-91.69,42.52276],[-91.68823,42.51707],[-91.69127,42.51426],[-91.6884,42.51042],[-91.68963,42.50779],[-91.67976,42.49829],[-91.67748,42.49365],[-91.67491,42.49356],[-91.67073,42.48402],[-91.66626,42.47904],[-91.65984,42.47587],[-91.65111,42.46268],[-91.63657,42.45341],[-91.63675,42.45146],[-91.62956,42.44763],[-91.628,42.44445],[-91.61646,42.44464],[-91.61392,42.44639],[-91.61397,42.4516],[-91.60786,42.45505],[-91.59782,42.45122],[-91.58616,42.45228],[-91.57643,42.44926],[-91.56959,42.45026],[-91.56712,42.44856],[-91.56633,42.44444],[-91.56823,42.44203],[-91.56862,42.43653],[-91.56084,42.43231],[-91.56065,42.42974],[-91.55793,42.42671],[-91.54953,42.42207],[-91.54874,42.42],[-91.53927,42.41351],[-91.53458,42.41262],[-91.53262,42.4138],[-91.52443,42.40976],[-91.52067,42.41065],[-91.51337,42.40737],[-91.51252,42.40552],[-91.51416,42.40323],[-91.51151,42.39937],[-91.50489,42.39646],[-91.50334,42.39394],[-91.50614,42.39014],[-91.50439,42.38462],[-91.50861,42.37874],[-91.50707,42.37155],[-91.5113,42.37045],[-91.51376,42.36729],[-91.51277,42.36576],[-91.51646,42.36248],[-91.51229,42.3579],[-91.51293,42.35149],[-91.5004,42.34697],[-91.49879,42.34309],[-91.49269,42.34086],[-91.49092,42.33769],[-91.47969,42.33541],[-91.47667,42.3325],[-91.4704,42.3316],[-91.46897,42.32915],[-91.45806,42.32391],[-91.45156,42.32327],[-91.44765,42.32059],[-91.44716,42.3185],[-91.43571,42.31239],[-91.43774,42.3095],[-91.43655,42.30516],[-91.42974,42.30214],[-91.42348,42.30306],[-91.41146,42.29649],[-91.41744,42.28833],[-91.41463,42.28413],[-91.4139,42.27616],[-91.40813,42.26804],[-91.40781,42.25983],[-91.40263,42.25582],[-91.40241,42.25283],[-91.39953,42.2496],[-91.39969,42.24485],[-91.38777,42.23897],[-91.38651,42.23678],[-91.38828,42.23428],[-91.38628,42.23137],[-91.38818,42.22986],[-91.38787,42.22741],[-91.38104,42.2245],[-91.36935,42.22482],[-91.36123,42.21949],[-91.35388,42.22054],[-91.35025,42.22424],[-91.34584,42.22512],[-91.33715,42.21809],[-91.33015,42.21598],[-91.32808,42.21132],[-91.31945,42.21078],[-91.31542,42.20898],[-91.31583,42.20583],[-91.31031,42.20211],[-91.30422,42.20133],[-91.30427,42.19938],[-91.30078,42.19798],[-91.30212,42.19643],[-91.29988,42.19259],[-91.30217,42.19052],[-91.29882,42.18367],[-91.28303,42.17318],[-91.28275,42.16979],[-91.27777,42.16426],[-91.26584,42.16259],[-91.26146,42.15635],[-91.25452,42.15225],[-91.25339,42.1472],[-91.24635,42.14254],[-91.24919,42.1368],[-91.25165,42.13585],[-91.24674,42.13265],[-91.24093,42.12542],[-91.22842,42.11896],[-91.22906,42.11665],[-91.22385,42.11205],[-91.20212,42.10202],[-91.1985,42.09693],[-91.18852,42.09221],[-91.18501,42.08764],[-91.18103,42.0861],[-91.17952,42.0829],[-91.16896,42.08123],[-91.16236,42.07685],[-91.15926,42.07719],[-91.15306,42.07432],[-91.15015,42.07141],[-91.14514,42.07075],[-91.13446,42.06602],[-91.12777,42.06173],[-91.12607,42.0583],[-91.1162,42.05229],[-91.11688,42.04659],[-91.10792,42.04313],[-91.09718,42.04727],[-91.08818,42.04532],[-91.0865,42.04101],[-91.08253,42.04067],[-91.07948,42.03808],[-91.07968,42.0364],[-91.07485,42.03328],[-91.06481,42.03254],[-91.0619,42.03413],[-91.05616,42.03309],[-91.05434,42.03531],[-91.0564,42.03827],[-91.04586,42.0419],[-91.04026,42.04189],[-91.03663,42.04066],[-91.03623,42.03887],[-91.0303,42.0372],[-91.01641,42.0423],[-91.01275,42.04243],[-91.01033,42.04045],[-91.00337,42.04072],[-90.99737,42.03795],[-90.99537,42.03998],[-90.99166,42.04017],[-90.98756,42.03644],[-90.9766,42.0398],[-90.96973,42.03974],[-90.96095,42.03612],[-90.96181,42.03274],[-90.96025,42.03057],[-90.96347,42.02655],[-90.96169,42.0253],[-90.96281,42.0226],[-90.95918,42.02021],[-90.95908,42.01823],[-90.94127,42.01341],[-90.936,42.01489],[-90.93297,42.01403],[-90.93079,42.01656],[-90.92371,42.01843],[-90.91363,42.01869],[-90.9114,42.01633],[-90.90874,42.008],[-90.90406,42.00461],[-90.90068,42.00455],[-90.89445,41.99618],[-90.88033,41.99206],[-90.87833,41.9942],[-90.87018,41.9936],[-90.86593,41.99629],[-90.85601,41.99503],[-90.84703,41.99802],[-90.84426,42.00349],[-90.84469,42.00736],[-90.84059,42.00854],[-90.83995,42.01227],[-90.83127,42.01112],[-90.82421,42.01272],[-90.81502,42.00889],[-90.81248,42.00635],[-90.81274,42.00416],[-90.81469,42.0032],[-90.81253,41.99828],[-90.81338,41.99617],[-90.80747,41.99393],[-90.80604,41.99184],[-90.80144,41.99207],[-90.79015,41.98742],[-90.78693,41.98914],[-90.7822,41.98899],[-90.77616,41.98607],[-90.7755,41.98375],[-90.77735,41.98217],[-90.77379,41.97856],[-90.77433,41.97418],[-90.76501,41.96924],[-90.76266,41.96646],[-90.75177,41.96695],[-90.74826,41.96491],[-90.74747,41.96247],[-90.74226,41.96106],[-90.73328,41.96392],[-90.73127,41.96086],[-90.71573,41.95721],[-90.70854,41.95234],[-90.70994,41.94975],[-90.70371,41.94652],[-90.69199,41.9463],[-90.68543,41.94349],[-90.68494,41.94197],[-90.68003,41.94084],[-90.67296,41.93163],[-90.66991,41.93403],[-90.64888,41.93343],[-90.6448,41.93718],[-90.64629,41.94034],[-90.64522,41.94244],[-90.64758,41.94451],[-90.64338,41.94529],[-90.64182,41.94753],[-90.63716,41.94767],[-90.63433,41.9499],[-90.62179,41.94696],[-90.61421,41.95161],[-90.61161,41.9511],[-90.61049,41.94868],[-90.59765,41.94787],[-90.58691,41.9487],[-90.57904,41.95216],[-90.57137,41.94754],[-90.57194,41.94487],[-90.56472,41.93658],[-90.55731,41.93593],[-90.55315,41.93028],[-90.55316,41.92667],[-90.5504,41.92167],[-90.55689,41.91792],[-90.55917,41.91114],[-90.55547,41.90629],[-90.55534,41.90218],[-90.55329,41.89977],[-90.55435,41.89816],[-90.54759,41.88532],[-90.55188,41.87626],[-90.55665,41.87413],[-90.55771,41.86987],[-90.56362,41.87018],[-90.56482,41.86493],[-90.55931,41.86169],[-90.56151,41.85944],[-90.55828,41.8573],[-90.56141,41.85252],[-90.55958,41.85061],[-90.53554,41.84392],[-90.53664,41.83916],[-90.53523,41.83562],[-90.54118,41.83587],[-90.54279,41.83187],[-90.53684,41.8269],[-90.54295,41.82294],[-90.54123,41.81949],[-90.53664,41.81626],[-90.53483,41.81145],[-90.5281,41.80722],[-90.52783,41.80442],[-90.53106,41.80067],[-90.54305,41.80308],[-90.54516,41.80129],[-90.5486,41.80175],[-90.55558,41.79431],[-90.55013,41.78597],[-90.5377,41.78033],[-90.53654,41.77844],[-90.53251,41.77925],[-90.51764,41.77175],[-90.51815,41.7699],[-90.52144,41.76977],[-90.51725,41.76744],[-90.517,41.75923],[-90.51346,41.75546],[-90.51597,41.75127],[-90.51989,41.74947],[-90.52331,41.73655],[-90.51507,41.72773],[-90.51955,41.72676],[-90.52031,41.7213],[-90.50959,41.71663],[-90.5196,41.70719],[-90.51511,41.70433],[-90.51733,41.70138],[-90.5092,41.69835],[-90.50977,41.69569],[-90.51298,41.69568],[-90.51297,41.68971],[-90.51534,41.68823],[-90.52166,41.68904],[-90.52235,41.6857],[-90.52858,41.68306],[-90.53157,41.67913],[-90.53111,41.67766],[-90.53797,41.67513],[-90.53876,41.67263],[-90.54642,41.67341],[-90.54845,41.67075],[-90.55477,41.67145],[-90.55757,41.67033],[-90.55995,41.66683],[-90.56685,41.66777],[-90.56824,41.66584]]]}}]}