{"type":"FeatureCollection","features":[{"type":"Feature","properties":{},"geometry":{"type":"Polygon","coordinates":[[[-94.42334,41.6646],[-94.42857,41.66748],[-94.43091,41.67319],[-94.43279,41.67345],[-94.43659,41.68234],[-94.43524,41.68387],[-94.43701,41.68731],[-94.43603,41.69119],[-94.44323,41.69395],[-94.44299,41.69933],[-94.44524,41.69983],[-94.44594,41.70284],[-94.45285,41.70482],[-94.45419,41.70749],[-94.45321,41.7121],[-94.45579,41.71285],[-94.4557,41.71484],[-94.46055,41.71561],[-94.45977,41.71763],[-94.4616,41.7241],[-94.47128,41.72588],[-94.47154,41.72781],[-94.47645,41.73189],[-94.4896,41.73258],[-94.49192,41.73429],[-94.48963,41.73644],[-94.49096,41.74006],[-94.49779,41.74045],[-94.499,41.74524],[-94.50981,41.74832],[-94.51581,41.74763],[-94.51721,41.75191],[-94.52257,41.75387],[-94.52263,41.75641],[-94.52466,41.75846],[-94.52783,41.75953],[-94.53266,41.75855],[-94.53413,41.76052],[-94.54252,41.7623],[-94.5449,41.76432],[-94.54928,41.76303],[-94.55468,41.7737],[-94.56095,41.77898],[-94.56569,41.77823],[-94.57014,41.77426],[-94.58685,41.77471],[-94.59181,41.78176],[-94.60613,41.7899],[-94.60679,41.79178],[-94.60832,41.79211],[-94.61313,41.78787],[-94.62809,41.79294],[-94.63559,41.79022],[-94.6396,41.79164],[-94.64186,41.7966],[-94.6478,41.79644],[-94.64799,41.79999],[-94.64976,41.80106],[-94.64736,41.80405],[-94.64841,41.80621],[-94.66221,41.80743],[-94.66703,41.8127],[-94.66732,41.81714],[-94.67656,41.8175],[-94.68037,41.82006],[-94.6817,41.82406],[-94.68759,41.8284],[-94.69016,41.82792],[-94.69436,41.83212],[-94.70246,41.83512],[-94.70632,41.84113],[-94.70235,41.84529],[-94.70463,41.8484],[-94.70172,41.85342],[-94.71245,41.85934],[-94.71709,41.86508],[-94.72406,41.86571],[-94.7284,41.86989],[-94.73177,41.86946],[-94.73772,41.87395],[-94.74139,41.87366],[-94.74674,41.88014],[-94.7511,41.88072],[-94.75456,41.88375],[-94.75484,41.88791],[-94.75691,41.89058],[-94.76281,41.89094],[-94.77006,41.89875],[-94.77522,41.89966],[-94.7762,41.90123],[-94.77925,41.90044],[-94.78359,41.90504],[-94.78672,41.9052],[-94.79227,41.90989],[-94.79302,41.9123],[-94.79572,41.91333],[-94.79744,41.91681],[-94.8007,41.91831],[-94.80029,41.92088],[-94.80463,41.9228],[-94.80638,41.92657],[-94.81043,41.92934],[-94.81352,41.92865],[-94.82388,41.93599],[-94.82806,41.93723],[-94.82753,41.93954],[-94.84144,41.94705],[-94.84281,41.94945],[-94.85543,41.95208],[-94.85915,41.95551],[-94.86542,41.95804],[-94.86764,41.96202],[-94.86693,41.96707],[-94.87241,41.96915],[-94.87736,41.97695],[-94.88061,41.97729],[-94.88349,41.98009],[-94.89384,41.9846],[-94.89594,41.9874],[-94.89584,41.99011],[-94.90245,41.99383],[-94.9024,41.99618],[-94.90662,41.99891],[-94.90465,42.0028],[-94.9075,42.00685],[-94.91296,42.0077],[-94.91744,42.01132],[-94.92124,42.01122],[-94.9303,42.01561],[-94.93223,42.01781],[-94.93092,42.02091],[-94.93441,42.02648],[-94.94288,42.03026],[-94.9432,42.03423],[-94.95433,42.04156],[-94.95633,42.0464],[-94.9614,42.04849],[-94.96299,42.0529],[-94.96187,42.0545],[-94.96812,42.06066],[-94.96758,42.06286],[-94.97246,42.06334],[-94.97468,42.06545],[-94.98315,42.06773],[-94.98623,42.0744],[-95.00116,42.07607],[-95.00422,42.07871],[-95.00574,42.07852],[-95.00536,42.07603],[-95.00732,42.07427],[-95.01362,42.0718],[-95.02514,42.07082],[-95.0279,42.07395],[-95.02835,42.07998],[-95.03434,42.08375],[-95.03477,42.08725],[-95.03905,42.08859],[-95.04023,42.09125],[-95.04274,42.09214],[-95.04175,42.09479],[-95.03979,42.09532],[-95.03862,42.09962],[-95.04083,42.10235],[-95.03703,42.10357],[-95.03839,42.10484],[-95.03708,42.10657],[-95.03851,42.1074],[-95.03666,42.10966],[-95.0372,42.11156],[-95.03448,42.11443],[-95.02796,42.11556],[-95.02698,42.12233],[-95.03182,42.12439],[-95.03423,42.1266],[-95.03382,42.13016],[-95.04013,42.13414],[-95.04112,42.13633],[-95.03871,42.13944],[-95.03951,42.14382],[-95.04268,42.14618],[-95.05561,42.14752],[-95.06487,42.15748],[-95.05971,42.1604],[-95.05382,42.16098],[-95.05132,42.16663],[-95.04571,42.16637],[-95.0492,42.16957],[-95.04501,42.16983],[-95.042,42.17253],[-95.04162,42.17648],[-95.03908,42.17868],[-95.04088,42.18213],[-95.03447,42.18865],[-95.02113,42.18817],[-95.01767,42.18691],[-95.01813,42.18525],[-95.01481,42.18233],[-95.0107,42.18481],[-95.00468,42.18374],[-95.00343,42.18519],[-94.99528,42.18235],[-94.98868,42.18682],[-94.98301,42.18182],[-94.98142,42.18311],[-94.97483,42.18081],[-94.97447,42.17892],[-94.97231,42.1783],[-94.97233,42.17431],[-94.96608,42.17477],[-94.96011,42.17251],[-94.95884,42.18053],[-94.96398,42.18445],[-94.96264,42.19011],[-94.96091,42.19154],[-94.9662,42.20291],[-94.9632,42.20537],[-94.96508,42.20716],[-94.96457,42.20912],[-94.94651,42.21231],[-94.93774,42.21165],[-94.93507,42.20854],[-94.93015,42.20695],[-94.92165,42.20101],[-94.92154,42.19727],[-94.91276,42.18977],[-94.9031,42.18765],[-94.89626,42.18379],[-94.88861,42.18372],[-94.88081,42.17952],[-94.87437,42.17912],[-94.87034,42.17456],[-94.86522,42.17267],[-94.85899,42.16725],[-94.85466,42.16812],[-94.84943,42.16417],[-94.85022,42.163],[-94.84446,42.16071],[-94.83754,42.15839],[-94.83022,42.16077],[-94.82688,42.16011],[-94.824,42.1574],[-94.81695,42.15643],[-94.80734,42.14865],[-94.80087,42.14635],[-94.8011,42.14452],[-94.7983,42.14126],[-94.79302,42.1409],[-94.791,42.13665],[-94.7862,42.13616],[-94.78367,42.13369],[-94.78513,42.13153],[-94.77904,42.12712],[-94.77357,42.12814],[-94.76922,42.1259],[-94.76787,42.12306],[-94.76343,42.12282],[-94.76172,42.12133],[-94.76457,42.11676],[-94.76388,42.1137],[-94.756,42.11238],[-94.73484,42.11552],[-94.73342,42.10683],[-94.72547,42.10506],[-94.72194,42.10048],[-94.71927,42.09958],[-94.71983,42.09798],[-94.71696,42.09468],[-94.71845,42.09092],[-94.71669,42.08932],[-94.71819,42.08789],[-94.71747,42.08637],[-94.72133,42.08465],[-94.72992,42.08742],[-94.73329,42.07993],[-94.73955,42.07693],[-94.73887,42.07425],[-94.73329,42.07029],[-94.72165,42.07269],[-94.71701,42.07003],[-94.71238,42.06968],[-94.7086,42.06606],[-94.71008,42.06019],[-94.70436,42.05579],[-94.69259,42.05098],[-94.68808,42.0473],[-94.68094,42.04872],[-94.68124,42.04348],[-94.67582,42.03836],[-94.66518,42.03303],[-94.66294,42.03044],[-94.65722,42.03114],[-94.65474,42.02565],[-94.64951,42.02145],[-94.64942,42.02022],[-94.65457,42.01869],[-94.65229,42.01562],[-94.6466,42.01401],[-94.64263,42.01077],[-94.63382,42.01091],[-94.62912,42.01473],[-94.61582,42.01857],[-94.61094,42.02611],[-94.6127,42.02977],[-94.60999,42.03466],[-94.5952,42.03394],[-94.5917,42.03154],[-94.58008,42.02857],[-94.57659,42.02938],[-94.57246,42.02688],[-94.57676,42.02381],[-94.5737,42.02024],[-94.5766,42.01808],[-94.57707,42.01549],[-94.58035,42.01408],[-94.5724,42.00764],[-94.56017,42.00335],[-94.56011,42.00148],[-94.56274,42.00124],[-94.56316,41.99959],[-94.56112,41.99268],[-94.56435,41.9916],[-94.56692,41.98501],[-94.55153,41.98147],[-94.54711,41.97326],[-94.54323,41.97107],[-94.53935,41.97276],[-94.53451,41.97088],[-94.53463,41.96933],[-94.52996,41.9653],[-94.53189,41.96061],[-94.53004,41.95705],[-94.5327,41.95583],[-94.53242,41.95257],[-94.5215,41.95069],[-94.52006,41.94655],[-94.51576,41.94703],[-94.50809,41.94357],[-94.50839,41.93955],[-94.50364,41.93734],[-94.49807,41.93086],[-94.49802,41.9278],[-94.50359,41.92618],[-94.50205,41.92218],[-94.50428,41.91938],[-94.50335,41.91637],[-94.5078,41.91331],[-94.50935,41.90953],[-94.51352,41.90822],[-94.51574,41.89891],[-94.51328,41.89705],[-94.51634,41.89406],[-94.50668,41.88616],[-94.49927,41.88376],[-94.49076,41.87591],[-94.48656,41.86356],[-94.48995,41.85914],[-94.48678,41.85442],[-94.48779,41.85055],[-94.50155,41.84781],[-94.50322,41.84245],[-94.50196,41.83754],[-94.51202,41.83084],[-94.51551,41.83022],[-94.51674,41.82846],[-94.51489,41.82539],[-94.51695,41.82287],[-94.51671,41.81793],[-94.52289,41.81485],[-94.52538,41.81076],[-94.52468,41.80941],[-94.51854,41.80746],[-94.51502,41.80206],[-94.50841,41.80275],[-94.50587,41.80723],[-94.49554,41.80588],[-94.48943,41.8082],[-94.48643,41.80504],[-94.48849,41.80122],[-94.47643,41.80107],[-94.46968,41.79726],[-94.46454,41.79945],[-94.46194,41.79837],[-94.46071,41.80152],[-94.45752,41.80353],[-94.45632,41.80861],[-94.45141,41.80707],[-94.44008,41.81385],[-94.43757,41.81248],[-94.4362,41.80885],[-94.43056,41.8085],[-94.42883,41.80621],[-94.41867,41.80393],[-94.41495,41.79944],[-94.4186,41.79649],[-94.41804,41.7914],[-94.41477,41.79137],[-94.4073,41.78455],[-94.40259,41.78274],[-94.40026,41.7787],[-94.39109,41.78234],[-94.38748,41.78184],[-94.38014,41.77645],[-94.37435,41.77654],[-94.37007,41.77245],[-94.37224,41.77055],[-94.36761,41.75775],[-94.36877,41.75512],[-94.36671,41.75173],[-94.36701,41.74598],[-94.36031,41.7452],[-94.35499,41.73934],[-94.35248,41.73868],[-94.36114,41.73341],[-94.35555,41.72384],[-94.35479,41.71055],[-94.35893,41.70623],[-94.36517,41.70434],[-94.36755,41.70065],[-94.37446,41.69981],[-94.3713,41.69794],[-94.36804,41.69243],[-94.36256,41.68925],[-94.36397,41.6867],[-94.35785,41.68213],[-94.35872,41.68015],[-94.36128,41.6798],[-94.35801,41.67332],[-94.36136,41.6677],[-94.369,41.66917],[-94.36839,41.67289],[-94.37152,41.67495],[-94.36965,41.67682],[-94.36984,41.679],[-94.37295,41.68221],[-94.3854,41.67574],[-94.38898,41.66862],[-94.40201,41.6701],[-94.40507,41.66904],[-94.40698,41.66613],[-94.406,41.66409],[-94.41127,41.66099],[-94.41749,41.65986],[-94.42397,41.66208],[-94.42479,41.66303],[-94.42334,41.6646]]]}}]}