{"type":"FeatureCollection","features":[{"type":"Feature","properties":{},"geometry":{"type":"Polygon","coordinates":[[[-91.97459,41.77096],[-91.97459,41.76263],[-91.98292,41.76263],[-91.98292,41.75846],[-91.98709,41.75846],[-91.98709,41.76263],[-91.99542,41.76263],[-91.99542,41.75846],[-91.99125,41.75846],[-91.99125,41.75429],[-91.99542,41.75429],[-91.99542,41.74179],[-91.99125,41.74179],[-91.99125,41.73763],[-91.99542,41.73763],[-91.99542,41.73346],[-92.01209,41.73346],[-92.01209,41.72512],[-92.01626,41.72512],[-92.01626,41.71679],[-92.02042,41.71679],[-92.02042,41.71262],[-92.01626,41.71262],[-92.01626,41.70846],[-92.00375,41.70846],[-92.00375,41.71262],[-91.99542,41.71262],[-91.99542,41.70846],[-91.97459,41.70846],[-91.97459,41.70429],[-91.97042,41.70429],[-91.97042,41.70012],[-91.97459,41.70012],[-91.97459,41.68762],[-91.97042,41.68762],[-91.97042,41.68345],[-91.96625,41.68345],[-91.96625,41.67929],[-91.96209,41.67929],[-91.96209,41.67512],[-91.94958,41.67512],[-91.94958,41.68345],[-91.94125,41.68345],[-91.94125,41.67929],[-91.93292,41.67929],[-91.93292,41.68345],[-91.87041,41.68345],[-91.87041,41.68762],[-91.86208,41.68762],[-91.86208,41.69179],[-91.85374,41.69179],[-91.85374,41.70012],[-91.84124,41.70012],[-91.84124,41.70429],[-91.80791,41.70429],[-91.80791,41.70012],[-91.80374,41.70012],[-91.80374,41.69596],[-91.79124,41.69596],[-91.79124,41.70012],[-91.76207,41.70012],[-91.76207,41.69596],[-91.7579,41.69596],[-91.7579,41.70012],[-91.74957,41.70012],[-91.74957,41.70846],[-91.75373,41.70846],[-91.75373,41.71262],[-91.74957,41.71262],[-91.74957,41.71679],[-91.7454,41.71679],[-91.7454,41.72096],[-91.74123,41.72096],[-91.74123,41.72512],[-91.73707,41.72512],[-91.73707,41.72929],[-91.74123,41.72929],[-91.74123,41.74179],[-91.7454,41.74179],[-91.7454,41.75013],[-91.75373,41.75013],[-91.75373,41.75429],[-91.77874,41.75429],[-91.77874,41.75013],[-91.81207,41.75013],[-91.81207,41.75429],[-91.82041,41.75429],[-91.82041,41.75846],[-91.82874,41.75846],[-91.82874,41.76263],[-91.87874,41.76263],[-91.87874,41.75846],[-91.89125,41.75846],[-91.89125,41.75429],[-91.89541,41.75429],[-91.89541,41.75846],[-91.92041,41.75846],[-91.92041,41.76263],[-91.93708,41.76263],[-91.93708,41.76679],[-91.97042,41.76679],[-91.97042,41.77096],[-91.97459,41.77096]]]}}]}