{"type":"FeatureCollection","features":[{"type":"Feature","properties":{},"geometry":{"type":"Polygon","coordinates":[[[-95.29426,42.65419],[-95.29765,42.65868],[-95.2981,42.66262],[-95.30182,42.66632],[-95.30148,42.66949],[-95.30352,42.67285],[-95.31196,42.67558],[-95.31448,42.68123],[-95.30982,42.68384],[-95.31225,42.68888],[-95.30996,42.6899],[-95.31121,42.69719],[-95.31009,42.70001],[-95.31259,42.70378],[-95.30511,42.70895],[-95.30175,42.70927],[-95.30055,42.71335],[-95.30257,42.71667],[-95.30623,42.71786],[-95.30599,42.72011],[-95.29907,42.72292],[-95.28974,42.72378],[-95.2756,42.70196],[-95.27567,42.69471],[-95.26612,42.69224],[-95.26514,42.6888],[-95.26618,42.68687],[-95.2405,42.66162],[-95.2331,42.65773],[-95.23082,42.65392],[-95.23901,42.64538],[-95.24584,42.64231],[-95.24947,42.63859],[-95.26792,42.63208],[-95.27496,42.63288],[-95.28334,42.63006],[-95.28809,42.63331],[-95.2872,42.63661],[-95.28829,42.63923],[-95.28442,42.64462],[-95.28511,42.64787],[-95.28827,42.65129],[-95.29426,42.65419]]]}}]}