{"type":"FeatureCollection","features":[{"type":"Feature","properties":{},"geometry":{"type":"Polygon","coordinates":[[[-91.46205,41.78346],[-91.46205,41.77513],[-91.45788,41.77513],[-91.45788,41.77096],[-91.46205,41.77096],[-91.46205,41.74596],[-91.48288,41.74596],[-91.48288,41.74179],[-91.48705,41.74179],[-91.48705,41.73763],[-91.48288,41.73763],[-91.48288,41.72512],[-91.49121,41.72512],[-91.49121,41.71679],[-91.49955,41.71679],[-91.49955,41.71262],[-91.50371,41.71262],[-91.50371,41.70846],[-91.51205,41.70846],[-91.51205,41.71262],[-91.51622,41.71262],[-91.51622,41.70846],[-91.52038,41.70846],[-91.52038,41.70429],[-91.52455,41.70429],[-91.52455,41.69596],[-91.52872,41.69596],[-91.52872,41.68762],[-91.52455,41.68762],[-91.52455,41.68345],[-91.52038,41.68345],[-91.52038,41.68762],[-91.50371,41.68762],[-91.50371,41.68345],[-91.49955,41.68345],[-91.49955,41.67095],[-91.49121,41.67095],[-91.49121,41.66679],[-91.48705,41.66679],[-91.48705,41.67095],[-91.47871,41.67095],[-91.47871,41.67512],[-91.47038,41.67512],[-91.47038,41.67929],[-91.46621,41.67929],[-91.46621,41.68345],[-91.43704,41.68345],[-91.43704,41.68762],[-91.43288,41.68762],[-91.43288,41.69596],[-91.42871,41.69596],[-91.42871,41.70012],[-91.42454,41.70012],[-91.42454,41.70429],[-91.41621,41.70429],[-91.41621,41.70846],[-91.39537,41.70846],[-91.39537,41.71679],[-91.38704,41.71679],[-91.38704,41.73346],[-91.39121,41.73346],[-91.39121,41.74179],[-91.39954,41.74179],[-91.39954,41.76263],[-91.39121,41.76263],[-91.39121,41.76679],[-91.38704,41.76679],[-91.38704,41.77096],[-91.42037,41.77096],[-91.42037,41.7793],[-91.44121,41.7793],[-91.44121,41.78346],[-91.46205,41.78346]]]}}]}