{"type":"FeatureCollection","features":[{"type":"Feature","properties":{},"geometry":{"type":"Polygon","coordinates":[[[-91.73804,41.45516],[-91.74248,41.45222],[-91.74252,41.44615],[-91.74742,41.4459],[-91.7493,41.44367],[-91.75279,41.44351],[-91.75713,41.44078],[-91.76142,41.44205],[-91.76918,41.43987],[-91.77469,41.42981],[-91.77493,41.42481],[-91.77933,41.42108],[-91.77463,41.41455],[-91.77542,41.41102],[-91.77912,41.40907],[-91.78612,41.40985],[-91.79282,41.40767],[-91.81294,41.41482],[-91.82022,41.42174],[-91.82012,41.42799],[-91.82746,41.43089],[-91.83361,41.4281],[-91.83495,41.42302],[-91.8378,41.42111],[-91.85411,41.42701],[-91.86066,41.42693],[-91.86809,41.42934],[-91.88482,41.43071],[-91.89171,41.42795],[-91.89532,41.43423],[-91.90345,41.43285],[-91.91339,41.43481],[-91.92911,41.42852],[-91.95042,41.42687],[-91.96796,41.43037],[-91.9723,41.43255],[-91.97614,41.43837],[-91.98482,41.44362],[-91.99795,41.44617],[-92.01466,41.4431],[-92.02532,41.43404],[-92.03544,41.43072],[-92.05448,41.43038],[-92.06125,41.43283],[-92.06086,41.43943],[-92.08082,41.44863],[-92.08205,41.45444],[-92.08385,41.45569],[-92.08974,41.4536],[-92.09759,41.45611],[-92.09968,41.45337],[-92.10362,41.45286],[-92.1052,41.44937],[-92.11308,41.4524],[-92.11558,41.45156],[-92.12071,41.45708],[-92.12424,41.45417],[-92.12995,41.45498],[-92.12845,41.45251],[-92.13515,41.45155],[-92.14035,41.44806],[-92.14648,41.45019],[-92.15929,41.44697],[-92.16119,41.4437],[-92.16911,41.4377],[-92.17591,41.43793],[-92.18886,41.44166],[-92.19303,41.43913],[-92.19624,41.43955],[-92.20677,41.44567],[-92.2088,41.44872],[-92.21793,41.44956],[-92.21982,41.45253],[-92.22627,41.45045],[-92.23417,41.4551],[-92.2413,41.45439],[-92.24379,41.45136],[-92.24578,41.45154],[-92.24858,41.45556],[-92.25363,41.4575],[-92.2574,41.45646],[-92.26112,41.4591],[-92.26783,41.45554],[-92.27597,41.45637],[-92.28032,41.45889],[-92.28379,41.45601],[-92.287,41.45566],[-92.30344,41.46153],[-92.30526,41.46682],[-92.30721,41.46729],[-92.31958,41.46792],[-92.32505,41.46485],[-92.33001,41.46902],[-92.33956,41.46888],[-92.34429,41.47157],[-92.35559,41.47401],[-92.36399,41.47232],[-92.37059,41.47373],[-92.37389,41.47736],[-92.38697,41.47666],[-92.3946,41.47994],[-92.3945,41.48904],[-92.39746,41.4909],[-92.4055,41.49318],[-92.4088,41.49266],[-92.41962,41.49701],[-92.42476,41.49569],[-92.42753,41.49818],[-92.4318,41.49677],[-92.43861,41.49758],[-92.44906,41.50227],[-92.45356,41.50806],[-92.46817,41.50947],[-92.48364,41.50644],[-92.4906,41.50826],[-92.49114,41.523],[-92.50065,41.52916],[-92.50343,41.53533],[-92.51328,41.53702],[-92.51428,41.54115],[-92.51884,41.54409],[-92.51948,41.55087],[-92.51056,41.55545],[-92.5102,41.56269],[-92.52199,41.57543],[-92.52525,41.5763],[-92.5266,41.57916],[-92.52373,41.5824],[-92.52213,41.58829],[-92.51893,41.59136],[-92.51856,41.59886],[-92.52487,41.60554],[-92.53294,41.6089],[-92.5342,41.61269],[-92.53897,41.61546],[-92.53996,41.61811],[-92.5507,41.62285],[-92.55865,41.62196],[-92.56363,41.61938],[-92.57489,41.61915],[-92.58845,41.6249],[-92.59258,41.62483],[-92.59932,41.62922],[-92.59916,41.63236],[-92.60967,41.63626],[-92.61579,41.64307],[-92.62002,41.64411],[-92.62098,41.64528],[-92.61967,41.6474],[-92.62236,41.64998],[-92.62612,41.65176],[-92.63258,41.65197],[-92.63493,41.65373],[-92.64378,41.65217],[-92.64654,41.65736],[-92.66014,41.66363],[-92.66487,41.66299],[-92.6709,41.66861],[-92.68901,41.66962],[-92.69381,41.67177],[-92.70051,41.68035],[-92.70787,41.68245],[-92.71466,41.68701],[-92.7252,41.68798],[-92.73323,41.69345],[-92.7402,41.69311],[-92.74127,41.69402],[-92.73945,41.69827],[-92.742,41.70213],[-92.7337,41.70832],[-92.7361,41.71133],[-92.73343,41.71447],[-92.72357,41.71635],[-92.72173,41.71863],[-92.72034,41.72193],[-92.72167,41.72721],[-92.71821,41.72998],[-92.7157,41.73576],[-92.6991,41.73073],[-92.68799,41.72948],[-92.68693,41.72795],[-92.6879,41.72567],[-92.68533,41.72452],[-92.67,41.7242],[-92.66782,41.71747],[-92.66608,41.71651],[-92.65742,41.71661],[-92.65565,41.71436],[-92.64991,41.71969],[-92.64018,41.71852],[-92.63022,41.71142],[-92.62937,41.70911],[-92.63275,41.7073],[-92.62924,41.70243],[-92.62069,41.70238],[-92.60377,41.69644],[-92.59098,41.69898],[-92.59063,41.69611],[-92.577,41.6959],[-92.56946,41.69331],[-92.56636,41.68974],[-92.56313,41.69016],[-92.55811,41.68764],[-92.53749,41.6915],[-92.53055,41.68864],[-92.52148,41.68921],[-92.51137,41.68504],[-92.50835,41.68738],[-92.49889,41.68765],[-92.4954,41.69212],[-92.47393,41.68563],[-92.4712,41.68931],[-92.45947,41.69215],[-92.45611,41.6952],[-92.45809,41.697],[-92.45821,41.69961],[-92.45387,41.70107],[-92.45156,41.70406],[-92.44042,41.69931],[-92.41183,41.69507],[-92.40628,41.69138],[-92.4026,41.69289],[-92.3908,41.69045],[-92.38385,41.69234],[-92.37782,41.6894],[-92.37895,41.68632],[-92.37501,41.68464],[-92.36866,41.68688],[-92.36181,41.68493],[-92.35866,41.68752],[-92.35343,41.68334],[-92.34919,41.68349],[-92.34629,41.68594],[-92.32696,41.68569],[-92.32251,41.68407],[-92.31767,41.67937],[-92.31477,41.67902],[-92.31305,41.67651],[-92.30322,41.67506],[-92.29957,41.67134],[-92.29161,41.67641],[-92.29207,41.68127],[-92.2847,41.68236],[-92.2852,41.68583],[-92.28273,41.68695],[-92.28209,41.68907],[-92.27697,41.69047],[-92.27441,41.69369],[-92.26452,41.69611],[-92.25558,41.69476],[-92.25356,41.69177],[-92.24726,41.69055],[-92.23958,41.6914],[-92.2385,41.6924],[-92.23966,41.694],[-92.23617,41.69526],[-92.23323,41.69317],[-92.22739,41.69237],[-92.22603,41.68966],[-92.22761,41.6827],[-92.22432,41.67951],[-92.22425,41.67733],[-92.21259,41.67444],[-92.20484,41.67455],[-92.19745,41.67191],[-92.19343,41.6741],[-92.1837,41.6735],[-92.18228,41.66356],[-92.17503,41.66465],[-92.1718,41.66295],[-92.16867,41.66363],[-92.16178,41.66033],[-92.15636,41.66478],[-92.15172,41.66486],[-92.14072,41.66067],[-92.13762,41.65877],[-92.1356,41.65466],[-92.12357,41.64912],[-92.1151,41.64922],[-92.10851,41.64504],[-92.10063,41.64816],[-92.0963,41.64716],[-92.09091,41.64182],[-92.09218,41.63735],[-92.08995,41.63267],[-92.08165,41.63069],[-92.07655,41.632],[-92.06781,41.6261],[-92.06915,41.62421],[-92.06827,41.62172],[-92.07273,41.61864],[-92.07071,41.61557],[-92.07152,41.61274],[-92.06222,41.60949],[-92.05885,41.60463],[-92.04533,41.60648],[-92.04272,41.60429],[-92.03786,41.60344],[-92.03536,41.59639],[-92.03053,41.59644],[-92.0281,41.59162],[-92.02211,41.58686],[-92.01744,41.58898],[-92.01581,41.58625],[-92.00376,41.58342],[-92.00019,41.58633],[-91.99479,41.5862],[-91.99444,41.58363],[-91.98701,41.57923],[-91.98374,41.57896],[-91.9788,41.58283],[-91.97262,41.58288],[-91.96753,41.58945],[-91.95993,41.5912],[-91.95772,41.58861],[-91.95277,41.58738],[-91.94149,41.58883],[-91.93649,41.58545],[-91.93005,41.58505],[-91.91634,41.58998],[-91.90836,41.58689],[-91.90382,41.5869],[-91.90254,41.59008],[-91.89679,41.59106],[-91.89453,41.59062],[-91.89277,41.58719],[-91.8898,41.5876],[-91.8833,41.58409],[-91.88056,41.58604],[-91.88092,41.59115],[-91.87659,41.59465],[-91.86617,41.59297],[-91.86235,41.58899],[-91.85138,41.59004],[-91.84207,41.58742],[-91.83472,41.5895],[-91.83234,41.58674],[-91.82554,41.58697],[-91.82168,41.59245],[-91.81767,41.59422],[-91.8099,41.5906],[-91.80963,41.58888],[-91.79427,41.58518],[-91.78953,41.58052],[-91.78289,41.58218],[-91.77299,41.58013],[-91.7647,41.5804],[-91.76482,41.57514],[-91.75951,41.57324],[-91.7547,41.57454],[-91.75392,41.57146],[-91.75023,41.57063],[-91.74801,41.5675],[-91.7483,41.56581],[-91.75626,41.56064],[-91.75474,41.55873],[-91.74497,41.55699],[-91.74252,41.55401],[-91.73296,41.55632],[-91.71911,41.5554],[-91.71656,41.55277],[-91.71212,41.55267],[-91.70748,41.54946],[-91.70255,41.54919],[-91.70794,41.54097],[-91.7103,41.53581],[-91.70933,41.53259],[-91.71167,41.53045],[-91.70909,41.52752],[-91.70869,41.52169],[-91.71428,41.5198],[-91.71612,41.5171],[-91.71595,41.51233],[-91.71347,41.51013],[-91.71471,41.50717],[-91.7134,41.50206],[-91.72153,41.49809],[-91.7224,41.4941],[-91.72108,41.49203],[-91.72137,41.48146],[-91.71292,41.47564],[-91.71013,41.47526],[-91.70913,41.46778],[-91.71588,41.46354],[-91.72073,41.45321],[-91.72803,41.45146],[-91.73199,41.45554],[-91.73804,41.45516]]]}}]}