{"type":"FeatureCollection","features":[{"type":"Feature","properties":{},"geometry":{"type":"Polygon","coordinates":[[[-91.99991,40.69795],[-92.00125,40.69823],[-92.00139,40.70172],[-92.0042,40.70145],[-92.00812,40.70492],[-92.01239,40.70394],[-92.0149,40.70541],[-92.01503,40.71087],[-92.0163,40.71195],[-92.0198,40.71103],[-92.02025,40.71451],[-92.02784,40.71828],[-92.02686,40.72075],[-92.04063,40.72351],[-92.04811,40.73186],[-92.05294,40.7288],[-92.05622,40.7287],[-92.06013,40.7318],[-92.06615,40.73346],[-92.06676,40.73587],[-92.07662,40.74133],[-92.07846,40.74027],[-92.07907,40.73582],[-92.08662,40.72904],[-92.09276,40.72815],[-92.09834,40.72962],[-92.10138,40.72788],[-92.10592,40.72888],[-92.11398,40.72462],[-92.12747,40.72741],[-92.13003,40.72179],[-92.13579,40.72264],[-92.13873,40.72531],[-92.15026,40.73009],[-92.15146,40.73277],[-92.15717,40.73515],[-92.15751,40.7371],[-92.16248,40.73943],[-92.16372,40.74199],[-92.16909,40.7435],[-92.17806,40.74923],[-92.17788,40.75165],[-92.19147,40.7485],[-92.20195,40.75634],[-92.21035,40.75599],[-92.21648,40.75256],[-92.22278,40.75465],[-92.22539,40.75288],[-92.22635,40.74988],[-92.23149,40.74811],[-92.2375,40.74968],[-92.23978,40.7475],[-92.24343,40.74835],[-92.25307,40.746],[-92.25553,40.74712],[-92.26088,40.74609],[-92.26358,40.74227],[-92.26715,40.74046],[-92.27171,40.74103],[-92.27398,40.74437],[-92.27743,40.74482],[-92.27993,40.74744],[-92.28436,40.74489],[-92.29167,40.74673],[-92.2955,40.74441],[-92.30024,40.74604],[-92.31198,40.74463],[-92.31792,40.74737],[-92.32312,40.75236],[-92.32401,40.75508],[-92.32266,40.75796],[-92.32506,40.76193],[-92.33614,40.76144],[-92.34609,40.76614],[-92.36413,40.76945],[-92.37412,40.77751],[-92.38204,40.77501],[-92.38752,40.77494],[-92.3899,40.77742],[-92.39213,40.77595],[-92.39651,40.77616],[-92.40231,40.77975],[-92.41149,40.78115],[-92.41187,40.78521],[-92.41349,40.78633],[-92.4309,40.78705],[-92.43217,40.78933],[-92.43802,40.79192],[-92.4394,40.79556],[-92.44528,40.7961],[-92.45188,40.79311],[-92.46057,40.79407],[-92.4636,40.79796],[-92.46725,40.79799],[-92.47469,40.80339],[-92.47892,40.80247],[-92.48292,40.79858],[-92.49728,40.80014],[-92.50434,40.79858],[-92.50612,40.80326],[-92.51205,40.80554],[-92.53291,40.80347],[-92.53442,40.80718],[-92.53774,40.80736],[-92.54105,40.81051],[-92.54632,40.81055],[-92.55476,40.80543],[-92.55216,40.80042],[-92.55388,40.79806],[-92.56021,40.79809],[-92.58592,40.78728],[-92.58835,40.78987],[-92.60391,40.78675],[-92.61322,40.78975],[-92.61653,40.78881],[-92.61717,40.78664],[-92.62045,40.78617],[-92.63078,40.79529],[-92.64328,40.80145],[-92.64821,40.80594],[-92.65267,40.80611],[-92.65718,40.80367],[-92.66153,40.80482],[-92.66355,40.80769],[-92.6724,40.80668],[-92.6851,40.81132],[-92.69335,40.81904],[-92.70821,40.82047],[-92.71984,40.81337],[-92.72683,40.81255],[-92.72889,40.80706],[-92.7277,40.79864],[-92.73822,40.78971],[-92.74013,40.78437],[-92.7462,40.78142],[-92.75199,40.788],[-92.75438,40.78893],[-92.75701,40.78706],[-92.7631,40.78828],[-92.76194,40.79115],[-92.76278,40.79524],[-92.76896,40.79724],[-92.77454,40.79688],[-92.7764,40.79913],[-92.77526,40.80026],[-92.77604,40.80335],[-92.78197,40.80504],[-92.78511,40.80921],[-92.79185,40.81072],[-92.79315,40.81926],[-92.79858,40.82325],[-92.80519,40.82526],[-92.80699,40.83245],[-92.80533,40.83515],[-92.80523,40.84027],[-92.81012,40.84924],[-92.81034,40.85284],[-92.817,40.85799],[-92.81652,40.86066],[-92.82111,40.8674],[-92.82641,40.87074],[-92.83801,40.87075],[-92.83614,40.87964],[-92.8396,40.88631],[-92.85451,40.89457],[-92.85855,40.90005],[-92.86455,40.90313],[-92.87409,40.90418],[-92.8806,40.90233],[-92.88638,40.905],[-92.89214,40.90461],[-92.89493,40.90321],[-92.89819,40.89609],[-92.90719,40.8972],[-92.91062,40.89273],[-92.91382,40.89361],[-92.91956,40.90116],[-92.92981,40.90579],[-92.93516,40.90182],[-92.94576,40.89777],[-92.94473,40.89302],[-92.94925,40.89198],[-92.95188,40.89372],[-92.9559,40.89084],[-92.96417,40.89187],[-92.97115,40.89747],[-92.97563,40.90637],[-92.98182,40.90757],[-92.98495,40.90393],[-92.99269,40.90542],[-92.99464,40.9081],[-92.99924,40.9081],[-93.00317,40.91236],[-93.00728,40.91339],[-93.00592,40.91538],[-93.01169,40.91969],[-93.01139,40.92194],[-93.01796,40.92466],[-93.01781,40.92621],[-93.02185,40.92969],[-93.02547,40.92897],[-93.03185,40.93048],[-93.03768,40.92863],[-93.03891,40.92553],[-93.04605,40.91887],[-93.05226,40.92064],[-93.05685,40.91914],[-93.05897,40.92008],[-93.06187,40.92633],[-93.06437,40.92672],[-93.06677,40.92338],[-93.07089,40.92339],[-93.07221,40.92057],[-93.07742,40.91987],[-93.08532,40.91534],[-93.09375,40.92009],[-93.09829,40.93199],[-93.10646,40.939],[-93.1076,40.94575],[-93.11329,40.95381],[-93.11242,40.95563],[-93.11834,40.96032],[-93.121,40.96574],[-93.13388,40.9671],[-93.13481,40.96896],[-93.1406,40.97098],[-93.14408,40.97647],[-93.1496,40.97779],[-93.15447,40.98141],[-93.1619,40.97879],[-93.16865,40.982],[-93.17302,40.98045],[-93.17901,40.98593],[-93.18455,40.98592],[-93.19097,40.98839],[-93.22526,40.97596],[-93.23159,40.97838],[-93.23584,40.974],[-93.23682,40.96983],[-93.24529,40.96822],[-93.25016,40.97138],[-93.25413,40.97769],[-93.26095,40.98169],[-93.26794,40.9825],[-93.27467,40.98554],[-93.27811,40.98476],[-93.29066,40.99283],[-93.29301,40.99899],[-93.30533,41.00595],[-93.30478,41.01039],[-93.31174,41.01926],[-93.32106,41.02511],[-93.3305,41.02758],[-93.3336,41.03184],[-93.33417,41.03714],[-93.33832,41.03829],[-93.34137,41.04236],[-93.36272,41.0378],[-93.36643,41.03618],[-93.37035,41.03023],[-93.3678,41.01878],[-93.36463,41.01684],[-93.36448,41.01415],[-93.37164,41.00036],[-93.3716,40.99628],[-93.37352,40.99337],[-93.37735,40.99191],[-93.38526,40.99207],[-93.40026,40.98179],[-93.40573,40.98168],[-93.40864,40.98424],[-93.41381,40.98083],[-93.41989,40.98125],[-93.4206,40.97878],[-93.42703,40.97282],[-93.43588,40.97648],[-93.4399,40.97296],[-93.44155,40.96883],[-93.44734,40.97002],[-93.45992,40.96785],[-93.46466,40.97078],[-93.46494,40.97333],[-93.46999,40.97797],[-93.47612,40.97476],[-93.48621,40.97302],[-93.49207,40.96865],[-93.50093,40.9703],[-93.50386,40.96709],[-93.51258,40.96793],[-93.51657,40.97047],[-93.52811,40.97264],[-93.53561,40.97256],[-93.54322,40.96505],[-93.5492,40.96424],[-93.54941,40.96166],[-93.55249,40.95833],[-93.5519,40.95649],[-93.55821,40.95316],[-93.5664,40.95359],[-93.57056,40.94955],[-93.5815,40.94855],[-93.59315,40.95122],[-93.60405,40.94441],[-93.60918,40.94448],[-93.61487,40.94127],[-93.61864,40.94182],[-93.6203,40.93877],[-93.63148,40.9331],[-93.63921,40.93834],[-93.64371,40.93557],[-93.65705,40.93403],[-93.65981,40.93966],[-93.66702,40.94015],[-93.67276,40.93448],[-93.67693,40.93279],[-93.67938,40.92878],[-93.68836,40.92959],[-93.6913,40.9254],[-93.69827,40.92396],[-93.69959,40.92059],[-93.70323,40.91926],[-93.70826,40.92025],[-93.71367,40.92469],[-93.72337,40.92063],[-93.73306,40.91938],[-93.73743,40.9172],[-93.7424,40.91753],[-93.74729,40.9131],[-93.75249,40.91278],[-93.75454,40.91109],[-93.76217,40.91342],[-93.76767,40.91034],[-93.77088,40.91021],[-93.77796,40.9135],[-93.78198,40.91143],[-93.78824,40.91507],[-93.79897,40.91775],[-93.80433,40.92129],[-93.80414,40.92655],[-93.79969,40.93103],[-93.79834,40.93985],[-93.79856,40.94254],[-93.80165,40.94496],[-93.80322,40.95688],[-93.80234,40.96135],[-93.80493,40.96362],[-93.80494,40.97024],[-93.81446,40.97427],[-93.81855,40.98018],[-93.82885,40.98391],[-93.83342,40.98289],[-93.85728,40.98599],[-93.86579,40.98544],[-93.87823,40.9891],[-93.88017,40.99658],[-93.88475,41.00385],[-93.89136,41.00669],[-93.89114,41.01738],[-93.89568,41.02564],[-93.89426,41.03203],[-93.89072,41.03494],[-93.88963,41.042],[-93.89582,41.0452],[-93.89503,41.0476],[-93.90583,41.0509],[-93.9081,41.05636],[-93.91219,41.05795],[-93.91767,41.05553],[-93.92341,41.05572],[-93.92531,41.05221],[-93.94479,41.04413],[-93.95378,41.04427],[-93.95748,41.05413],[-93.95621,41.05959],[-93.9592,41.06142],[-93.96038,41.06501],[-93.9786,41.06959],[-93.98126,41.07379],[-93.97964,41.07793],[-93.9808,41.08377],[-93.98396,41.08403],[-93.98909,41.0873],[-93.98963,41.09129],[-93.98494,41.10401],[-93.9871,41.10899],[-94.00018,41.10967],[-94.00839,41.11198],[-94.01345,41.11565],[-94.02322,41.11724],[-94.027,41.12443],[-94.03433,41.12762],[-94.03732,41.13295],[-94.04326,41.13247],[-94.0502,41.1361],[-94.0599,41.13238],[-94.07058,41.13363],[-94.07806,41.13169],[-94.07749,41.13517],[-94.0824,41.14436],[-94.08116,41.1517],[-94.08215,41.15346],[-94.09501,41.15794],[-94.10545,41.1581],[-94.10649,41.15972],[-94.10458,41.16677],[-94.1023,41.16824],[-94.10689,41.1698],[-94.10759,41.1726],[-94.11263,41.17315],[-94.11451,41.17743],[-94.12085,41.18013],[-94.12121,41.18206],[-94.12739,41.1871],[-94.13286,41.18687],[-94.14092,41.19346],[-94.14308,41.19376],[-94.15152,41.18799],[-94.16157,41.19001],[-94.16649,41.1949],[-94.17011,41.2018],[-94.18132,41.20638],[-94.18436,41.21376],[-94.19192,41.21563],[-94.19146,41.21965],[-94.19535,41.22265],[-94.19288,41.22805],[-94.19606,41.22995],[-94.19654,41.23232],[-94.19478,41.23364],[-94.1953,41.24119],[-94.19849,41.24288],[-94.20188,41.24248],[-94.20684,41.24626],[-94.20708,41.25184],[-94.21087,41.25767],[-94.21871,41.25986],[-94.22076,41.2617],[-94.2195,41.26614],[-94.22388,41.26715],[-94.22626,41.26999],[-94.23459,41.26773],[-94.23806,41.26416],[-94.24446,41.26407],[-94.2528,41.25492],[-94.2634,41.25683],[-94.2668,41.2638],[-94.27519,41.26523],[-94.27683,41.26853],[-94.28378,41.27356],[-94.28271,41.27907],[-94.28643,41.28116],[-94.28498,41.28777],[-94.28928,41.29098],[-94.28728,41.29321],[-94.28846,41.29523],[-94.29421,41.29637],[-94.2952,41.30014],[-94.30055,41.30262],[-94.30953,41.3019],[-94.31477,41.30534],[-94.31594,41.30872],[-94.31897,41.31076],[-94.31988,41.31296],[-94.31783,41.31503],[-94.31812,41.31852],[-94.32008,41.32209],[-94.31549,41.32748],[-94.31699,41.33399],[-94.32691,41.33326],[-94.33949,41.3361],[-94.33865,41.34118],[-94.34165,41.34286],[-94.34424,41.34137],[-94.35032,41.3503],[-94.35657,41.35144],[-94.35709,41.3559],[-94.36538,41.35452],[-94.3721,41.35996],[-94.37437,41.35638],[-94.38078,41.35746],[-94.38583,41.35639],[-94.39641,41.36031],[-94.39987,41.36609],[-94.40204,41.3669],[-94.40803,41.36416],[-94.41161,41.36457],[-94.41565,41.36114],[-94.43401,41.35874],[-94.43848,41.36237],[-94.43839,41.36766],[-94.44335,41.36919],[-94.4472,41.36947],[-94.451,41.36577],[-94.46477,41.36242],[-94.4695,41.36384],[-94.47965,41.36289],[-94.48212,41.36658],[-94.49193,41.37096],[-94.48994,41.37306],[-94.49024,41.3751],[-94.49794,41.38251],[-94.49954,41.38686],[-94.50135,41.38688],[-94.50468,41.3954],[-94.50338,41.40297],[-94.50586,41.40711],[-94.50485,41.41236],[-94.51945,41.42033],[-94.52045,41.42409],[-94.52354,41.42595],[-94.5236,41.42949],[-94.52571,41.43247],[-94.52982,41.43322],[-94.52918,41.43621],[-94.53149,41.43786],[-94.53067,41.44142],[-94.53681,41.44745],[-94.53618,41.45081],[-94.54005,41.45432],[-94.54337,41.45374],[-94.54525,41.46012],[-94.55042,41.46223],[-94.55397,41.46005],[-94.55504,41.45538],[-94.5532,41.44908],[-94.5549,41.44876],[-94.55573,41.44506],[-94.56871,41.43882],[-94.57872,41.44084],[-94.57964,41.44232],[-94.57789,41.44619],[-94.57916,41.44739],[-94.59122,41.44902],[-94.59401,41.45306],[-94.60079,41.45656],[-94.61251,41.4586],[-94.60837,41.46508],[-94.60782,41.46957],[-94.61811,41.47987],[-94.62171,41.48098],[-94.62538,41.47861],[-94.63123,41.47871],[-94.63757,41.48437],[-94.63518,41.48767],[-94.63563,41.49105],[-94.64381,41.49891],[-94.64252,41.50176],[-94.64577,41.50428],[-94.64617,41.50675],[-94.64448,41.50924],[-94.6481,41.51525],[-94.65126,41.51735],[-94.65089,41.51989],[-94.65378,41.52689],[-94.65784,41.53029],[-94.65818,41.5324],[-94.65499,41.53475],[-94.65354,41.53895],[-94.65928,41.54506],[-94.66356,41.54576],[-94.66429,41.55013],[-94.66618,41.55208],[-94.66376,41.55466],[-94.66526,41.56129],[-94.66773,41.56332],[-94.6669,41.56777],[-94.67612,41.57026],[-94.67712,41.57185],[-94.68697,41.57254],[-94.69512,41.58281],[-94.6941,41.58725],[-94.69606,41.59086],[-94.6921,41.59209],[-94.68825,41.59597],[-94.68608,41.60275],[-94.67874,41.6067],[-94.67497,41.6115],[-94.66521,41.61146],[-94.66123,41.61679],[-94.65837,41.61816],[-94.65784,41.62084],[-94.65414,41.62126],[-94.65532,41.625],[-94.65256,41.62788],[-94.65051,41.62755],[-94.65034,41.63061],[-94.65279,41.63193],[-94.6526,41.63408],[-94.65708,41.63845],[-94.66496,41.63762],[-94.66804,41.64083],[-94.66977,41.63992],[-94.67271,41.64191],[-94.68044,41.65268],[-94.67725,41.65739],[-94.67971,41.66013],[-94.67893,41.66413],[-94.68083,41.66792],[-94.68747,41.67057],[-94.68864,41.67417],[-94.69474,41.6793],[-94.69544,41.68282],[-94.71342,41.69238],[-94.71277,41.701],[-94.71686,41.70232],[-94.71736,41.70404],[-94.7153,41.70656],[-94.71668,41.70914],[-94.7155,41.71058],[-94.72138,41.71364],[-94.72028,41.71556],[-94.72237,41.72153],[-94.72799,41.7214],[-94.73042,41.72355],[-94.7304,41.72621],[-94.73373,41.72926],[-94.73237,41.73344],[-94.73527,41.73824],[-94.73446,41.74322],[-94.74063,41.74297],[-94.74708,41.74681],[-94.74394,41.75194],[-94.7469,41.75433],[-94.74787,41.75751],[-94.74526,41.75973],[-94.74855,41.76629],[-94.7514,41.76754],[-94.75493,41.77255],[-94.7596,41.771],[-94.77191,41.77498],[-94.77249,41.77646],[-94.7711,41.77957],[-94.76914,41.77999],[-94.76907,41.78216],[-94.7759,41.78515],[-94.78233,41.79041],[-94.78312,41.79278],[-94.78825,41.79499],[-94.78624,41.79705],[-94.78987,41.8006],[-94.78995,41.80252],[-94.79635,41.80657],[-94.79955,41.81085],[-94.8003,41.81434],[-94.7991,41.81675],[-94.79474,41.81973],[-94.79591,41.82298],[-94.80025,41.82471],[-94.80724,41.82059],[-94.81242,41.82249],[-94.81266,41.8271],[-94.81473,41.83025],[-94.82472,41.83858],[-94.8276,41.84529],[-94.83184,41.84768],[-94.83001,41.85459],[-94.83085,41.85787],[-94.829,41.85973],[-94.83528,41.86845],[-94.83501,41.87024],[-94.84167,41.87341],[-94.84256,41.87594],[-94.85464,41.88378],[-94.85683,41.8837],[-94.85927,41.88806],[-94.85724,41.89109],[-94.85943,41.89301],[-94.86551,41.89344],[-94.8811,41.90176],[-94.88616,41.90053],[-94.89444,41.90264],[-94.89503,41.90632],[-94.89702,41.90806],[-94.89431,41.9093],[-94.89585,41.91315],[-94.90304,41.9132],[-94.90634,41.91807],[-94.91312,41.91937],[-94.91382,41.91748],[-94.91708,41.91655],[-94.91463,41.91425],[-94.92403,41.91219],[-94.9407,41.91799],[-94.94326,41.9229],[-94.94692,41.92449],[-94.94798,41.92682],[-94.95498,41.92947],[-94.95398,41.93229],[-94.95808,41.93752],[-94.96335,41.94034],[-94.96192,41.94298],[-94.96778,41.95049],[-94.96724,41.95412],[-94.96906,41.95578],[-94.97377,41.95617],[-94.97589,41.96068],[-94.98309,41.96469],[-94.97709,41.96822],[-94.97819,41.97244],[-94.98208,41.97559],[-94.98151,41.97868],[-94.98317,41.98123],[-94.98059,41.98461],[-94.98749,41.98964],[-94.99499,41.9922],[-94.99878,41.99159],[-95.00647,41.99656],[-95.004,42.00031],[-95.00535,42.00438],[-95.0115,42.00887],[-95.01176,42.01287],[-95.01947,42.02012],[-95.02299,42.02812],[-95.02181,42.02978],[-95.02301,42.03225],[-95.05076,42.0456],[-95.05314,42.05392],[-95.05001,42.0554],[-95.0515,42.05698],[-95.05011,42.06054],[-95.03977,42.06065],[-95.04077,42.06464],[-95.0316,42.0699],[-95.02943,42.06919],[-95.02514,42.07082],[-95.0279,42.07395],[-95.02835,42.07998],[-95.03434,42.08375],[-95.03477,42.08725],[-95.03905,42.08859],[-95.04023,42.09125],[-95.04274,42.09214],[-95.04175,42.09479],[-95.03979,42.09532],[-95.03862,42.09962],[-95.04083,42.10235],[-95.03703,42.10357],[-95.03839,42.10484],[-95.03708,42.10657],[-95.03851,42.1074],[-95.03666,42.10966],[-95.0372,42.11156],[-95.03448,42.11443],[-95.02796,42.11556],[-95.02698,42.12233],[-95.03182,42.12439],[-95.03423,42.1266],[-95.03382,42.13016],[-95.04013,42.13414],[-95.04112,42.13633],[-95.03871,42.13944],[-95.03951,42.14382],[-95.04268,42.14618],[-95.05561,42.14752],[-95.06487,42.15748],[-95.05971,42.1604],[-95.05382,42.16098],[-95.05132,42.16663],[-95.04571,42.16637],[-95.0492,42.16957],[-95.04501,42.16983],[-95.042,42.17253],[-95.04162,42.17648],[-95.03908,42.17868],[-95.04088,42.18213],[-95.03447,42.18865],[-95.02531,42.18913],[-95.01767,42.18691],[-95.01654,42.18932],[-95.0101,42.1914],[-95.00862,42.19365],[-95.00968,42.19581],[-95.00443,42.19473],[-95.00222,42.19647],[-94.99394,42.1965],[-94.99683,42.19882],[-94.99426,42.20122],[-94.99974,42.20244],[-95.00315,42.20531],[-95.00832,42.20587],[-95.00949,42.20877],[-95.00744,42.21013],[-95.0115,42.21302],[-95.01746,42.21093],[-95.02567,42.21644],[-95.02403,42.21965],[-95.03035,42.22161],[-95.02901,42.22729],[-95.04536,42.22917],[-95.04851,42.23114],[-95.05049,42.23569],[-95.05778,42.23612],[-95.05967,42.23764],[-95.05917,42.24315],[-95.06248,42.24595],[-95.06514,42.25297],[-95.06818,42.25613],[-95.07174,42.25677],[-95.07255,42.27029],[-95.07186,42.27514],[-95.06287,42.27568],[-95.06191,42.27878],[-95.05835,42.27917],[-95.05735,42.2811],[-95.05691,42.287],[-95.05873,42.28872],[-95.05665,42.29418],[-95.06167,42.29866],[-95.05824,42.30432],[-95.05904,42.30974],[-95.07414,42.31261],[-95.08151,42.3125],[-95.08843,42.32657],[-95.08873,42.33004],[-95.09608,42.34101],[-95.09874,42.34996],[-95.10327,42.35494],[-95.11389,42.35981],[-95.11281,42.3631],[-95.11925,42.36659],[-95.11477,42.373],[-95.11798,42.37565],[-95.11834,42.38054],[-95.11666,42.38366],[-95.11968,42.39021],[-95.11614,42.39332],[-95.11452,42.39285],[-95.1136,42.39721],[-95.10967,42.39926],[-95.1109,42.40104],[-95.10981,42.40412],[-95.11637,42.41067],[-95.11426,42.41271],[-95.11688,42.4144],[-95.11791,42.41752],[-95.116,42.42077],[-95.12,42.42295],[-95.11864,42.42706],[-95.12008,42.42942],[-95.11519,42.43646],[-95.117,42.44026],[-95.12189,42.44312],[-95.12447,42.44739],[-95.12128,42.44953],[-95.11918,42.4589],[-95.12348,42.46428],[-95.12064,42.47273],[-95.1219,42.47582],[-95.12734,42.47795],[-95.12955,42.4807],[-95.13027,42.48824],[-95.13978,42.49611],[-95.14016,42.50322],[-95.14284,42.50495],[-95.13645,42.51502],[-95.13729,42.51732],[-95.13456,42.52126],[-95.13464,42.52402],[-95.14174,42.53389],[-95.13812,42.53715],[-95.13933,42.5408],[-95.14682,42.53986],[-95.14765,42.54107],[-95.14626,42.54349],[-95.14968,42.54605],[-95.14583,42.55148],[-95.15134,42.55622],[-95.15122,42.56451],[-95.15311,42.5662],[-95.14605,42.56798],[-95.14981,42.57925],[-95.14753,42.5809],[-95.1502,42.58428],[-95.14855,42.58615],[-95.1512,42.5883],[-95.15134,42.59062],[-95.16049,42.59053],[-95.16712,42.58988],[-95.16592,42.58802],[-95.17163,42.58592],[-95.17968,42.58946],[-95.18037,42.59322],[-95.18967,42.59719],[-95.20326,42.59541],[-95.2075,42.59716],[-95.22555,42.59859],[-95.23908,42.60619],[-95.24613,42.60455],[-95.25017,42.60089],[-95.25601,42.60494],[-95.26054,42.60453],[-95.26506,42.60811],[-95.27068,42.60932],[-95.2689,42.61628],[-95.26654,42.61843],[-95.26748,42.6208],[-95.26979,42.62354],[-95.28043,42.62655],[-95.28765,42.6322],[-95.28829,42.63923],[-95.28442,42.64462],[-95.28511,42.64787],[-95.28827,42.65129],[-95.29341,42.65293],[-95.29765,42.65868],[-95.2981,42.66262],[-95.30182,42.66632],[-95.30148,42.66949],[-95.30352,42.67285],[-95.31196,42.67558],[-95.31448,42.68123],[-95.30982,42.68384],[-95.31225,42.68888],[-95.30996,42.6899],[-95.31121,42.69719],[-95.31009,42.70001],[-95.31259,42.70378],[-95.30511,42.70895],[-95.30175,42.70927],[-95.30055,42.71335],[-95.30257,42.71667],[-95.30623,42.71786],[-95.30599,42.72011],[-95.29907,42.72292],[-95.28974,42.72378],[-95.2756,42.70196],[-95.27567,42.69471],[-95.26612,42.69224],[-95.26514,42.6888],[-95.26618,42.68687],[-95.23739,42.65933],[-95.22568,42.661],[-95.22089,42.65964],[-95.20707,42.66764],[-95.20655,42.67047],[-95.20889,42.6726],[-95.20797,42.6732],[-95.20975,42.67716],[-95.20507,42.67874],[-95.20475,42.68034],[-95.20985,42.68051],[-95.21695,42.684],[-95.2236,42.69458],[-95.22328,42.70246],[-95.2301,42.70423],[-95.23207,42.70734],[-95.23003,42.70929],[-95.2329,42.7133],[-95.22945,42.71839],[-95.24425,42.72648],[-95.24709,42.73113],[-95.24354,42.73667],[-95.2514,42.74355],[-95.25067,42.75033],[-95.25513,42.75526],[-95.25044,42.75593],[-95.24738,42.75996],[-95.23575,42.76298],[-95.23593,42.76648],[-95.22641,42.77043],[-95.22338,42.77765],[-95.22532,42.78226],[-95.22384,42.78434],[-95.22611,42.79824],[-95.22383,42.80225],[-95.22797,42.80777],[-95.24094,42.81497],[-95.23903,42.82175],[-95.24112,42.82446],[-95.2396,42.82699],[-95.23429,42.82925],[-95.22401,42.83045],[-95.22088,42.83569],[-95.22172,42.83794],[-95.21757,42.84056],[-95.21875,42.84257],[-95.21611,42.84349],[-95.21092,42.8417],[-95.20496,42.84475],[-95.19806,42.84545],[-95.1974,42.8474],[-95.19147,42.84551],[-95.18492,42.84571],[-95.17442,42.85052],[-95.17263,42.8536],[-95.16472,42.85346],[-95.16343,42.85509],[-95.16339,42.86323],[-95.16102,42.86422],[-95.15859,42.87281],[-95.1438,42.87071],[-95.13367,42.87411],[-95.12648,42.87152],[-95.12579,42.86935],[-95.1192,42.86908],[-95.11667,42.87132],[-95.1174,42.87245],[-95.10875,42.87559],[-95.09767,42.87232],[-95.09127,42.87611],[-95.07821,42.87675],[-95.07094,42.88242],[-95.07128,42.88457],[-95.06777,42.88592],[-95.0694,42.88807],[-95.06571,42.88948],[-95.06266,42.88795],[-95.05824,42.89226],[-95.05463,42.89093],[-95.05217,42.88635],[-95.04691,42.88534],[-95.03929,42.88961],[-95.02713,42.88624],[-95.02388,42.88667],[-95.02014,42.88457],[-95.0216,42.88245],[-95.0167,42.8791],[-95.01116,42.87822],[-95.00736,42.883],[-95.00463,42.88389],[-95.00667,42.8864],[-95.00558,42.89281],[-95.00752,42.895],[-95.00344,42.89799],[-95.00321,42.90035],[-95.005,42.90153],[-94.99986,42.90932],[-94.99909,42.91499],[-94.99495,42.91585],[-94.99209,42.91943],[-94.99276,42.92427],[-94.98917,42.92419],[-94.98707,42.92821],[-94.99149,42.92985],[-94.98982,42.93652],[-94.99086,42.94003],[-94.98523,42.94419],[-94.98052,42.95138],[-94.97744,42.95284],[-94.97768,42.9563],[-94.9734,42.96488],[-94.97365,42.97115],[-94.97071,42.97293],[-94.96989,42.97922],[-94.97185,42.98201],[-94.97456,42.98284],[-94.97519,42.98671],[-94.97394,42.98791],[-94.97622,42.99092],[-94.97532,42.99312],[-94.9769,42.99403],[-94.97624,42.99865],[-94.97399,42.99988],[-94.97608,43.00229],[-94.97464,43.00547],[-94.97524,43.00953],[-94.97212,43.00952],[-94.97037,43.00593],[-94.96385,43.00395],[-94.96246,43.0066],[-94.95236,43.00446],[-94.95067,43.00601],[-94.94294,43.00675],[-94.93991,43.00334],[-94.93691,43.00413],[-94.93561,43.0119],[-94.92747,43.01183],[-94.92904,43.01605],[-94.92648,43.01722],[-94.9308,43.01913],[-94.93233,43.02433],[-94.92963,43.02833],[-94.93401,43.03076],[-94.93058,43.03618],[-94.93142,43.04035],[-94.93014,43.0432],[-94.93191,43.04649],[-94.92954,43.04783],[-94.93094,43.05],[-94.92205,43.05073],[-94.92183,43.05323],[-94.91875,43.05348],[-94.90999,43.05129],[-94.90633,43.05371],[-94.89714,43.0692],[-94.89003,43.07783],[-94.88679,43.07745],[-94.88139,43.0812],[-94.8843,43.0834],[-94.8797,43.09268],[-94.88186,43.09611],[-94.87748,43.09895],[-94.86983,43.10054],[-94.8661,43.1042],[-94.86326,43.10357],[-94.86336,43.10654],[-94.86004,43.11111],[-94.86111,43.11632],[-94.85705,43.12017],[-94.85704,43.12276],[-94.85011,43.12345],[-94.85118,43.12642],[-94.85598,43.12661],[-94.85689,43.13457],[-94.86282,43.13673],[-94.85713,43.14383],[-94.86232,43.14747],[-94.85197,43.15337],[-94.84221,43.15239],[-94.84047,43.1534],[-94.84222,43.15628],[-94.84113,43.15779],[-94.84207,43.16126],[-94.83944,43.16311],[-94.84137,43.16496],[-94.8415,43.16832],[-94.83874,43.17221],[-94.84403,43.17659],[-94.83658,43.17894],[-94.83599,43.18143],[-94.83815,43.184],[-94.83589,43.18718],[-94.84616,43.19138],[-94.84643,43.1947],[-94.84966,43.1949],[-94.8418,43.19887],[-94.83916,43.20241],[-94.84449,43.20743],[-94.84348,43.20963],[-94.8463,43.21635],[-94.8484,43.21733],[-94.8472,43.22101],[-94.85248,43.22363],[-94.85456,43.22831],[-94.85186,43.23145],[-94.85236,43.23335],[-94.85945,43.24039],[-94.85702,43.24135],[-94.8561,43.25057],[-94.85249,43.25474],[-94.85491,43.25836],[-94.85382,43.261],[-94.85536,43.2637],[-94.85301,43.26796],[-94.85066,43.26734],[-94.8481,43.26947],[-94.84774,43.27457],[-94.85181,43.28108],[-94.85446,43.28095],[-94.86098,43.28567],[-94.86026,43.28939],[-94.86211,43.29469],[-94.86694,43.29828],[-94.86988,43.298],[-94.87431,43.30134],[-94.8765,43.301],[-94.87887,43.30606],[-94.88142,43.30787],[-94.87872,43.30921],[-94.87875,43.31199],[-94.87684,43.31287],[-94.87749,43.31958],[-94.87598,43.32219],[-94.8801,43.32412],[-94.87935,43.32574],[-94.88274,43.32796],[-94.88436,43.33277],[-94.8868,43.33387],[-94.88726,43.33512],[-94.88392,43.33743],[-94.88731,43.33946],[-94.8898,43.34814],[-94.90107,43.35509],[-94.90933,43.35761],[-94.91079,43.36034],[-94.90883,43.36173],[-94.91135,43.36378],[-94.91738,43.36091],[-94.9203,43.36173],[-94.92362,43.36984],[-94.92893,43.37241],[-94.92822,43.37544],[-94.93097,43.37858],[-94.93027,43.37964],[-94.93691,43.38346],[-94.93777,43.38668],[-94.9359,43.38885],[-94.93921,43.3914],[-94.94023,43.39866],[-94.93906,43.40104],[-94.94051,43.40348],[-94.93975,43.40539],[-94.93488,43.40726],[-94.93481,43.41466],[-94.938,43.4199],[-94.93544,43.42196],[-94.93583,43.42399],[-94.93141,43.42691],[-94.93018,43.43366],[-94.94075,43.43474],[-94.95575,43.43024],[-94.95567,43.4282],[-94.95876,43.42647],[-94.97111,43.4282],[-94.97911,43.43459],[-94.98578,43.43692],[-94.98899,43.4346],[-94.99778,43.43486],[-95.00735,43.43032],[-95.01359,43.43157],[-95.0141,43.4348],[-95.01111,43.43826],[-95.01437,43.44198],[-95.01722,43.44264],[-95.01612,43.446],[-95.01784,43.44778],[-95.01652,43.45066],[-95.01879,43.45404],[-95.01639,43.45615],[-95.00796,43.45637],[-95.00317,43.45872],[-95.00411,43.46784],[-95.00225,43.46945],[-95.00028,43.46892],[-94.99835,43.47162],[-94.99934,43.47873],[-94.9936,43.48589],[-95.00524,43.48594],[-95.01201,43.4877],[-95.01473,43.49059],[-95.02778,43.49007],[-95.03522,43.49184],[-95.03978,43.49],[-95.04629,43.49045],[-95.04838,43.49219],[-95.04645,43.49653],[-95.04284,43.49742],[-95.04138,43.50079],[-95.0418,43.5063],[-95.04508,43.50711],[-95.04817,43.50502],[-95.05731,43.50828],[-95.06333,43.50684],[-95.06966,43.511],[-95.07594,43.51091],[-95.08033,43.51305],[-95.07947,43.51585],[-95.08282,43.51786],[-95.0744,43.52282],[-95.07519,43.53098],[-95.06874,43.5293],[-95.06571,43.53035],[-95.06901,43.53138],[-95.06962,43.5353],[-95.06578,43.53971],[-95.07003,43.54555],[-95.06821,43.55028],[-95.07261,43.55569],[-95.06873,43.55879],[-95.06858,43.56383],[-95.06571,43.56669],[-95.06556,43.57519],[-95.06374,43.5774],[-95.06622,43.58509],[-95.06532,43.58932],[-95.06794,43.5891],[-95.06836,43.59383],[-95.07179,43.59503],[-95.07222,43.5973],[-95.06512,43.60115],[-95.06408,43.60231],[-95.06554,43.6043],[-95.06053,43.60817],[-95.06174,43.61449],[-95.06971,43.61734],[-95.06223,43.6214],[-95.06136,43.6251],[-95.06392,43.62627],[-95.06357,43.63224],[-95.06742,43.63603],[-95.07401,43.63297],[-95.08234,43.63413],[-95.08352,43.63628],[-95.08566,43.63524],[-95.0871,43.63638],[-95.08864,43.63913],[-95.08774,43.64118],[-95.10613,43.64571],[-95.10454,43.6475],[-95.10833,43.65163],[-95.10597,43.65754],[-95.10906,43.6587],[-95.11272,43.65813],[-95.1147,43.6556],[-95.14433,43.66302],[-95.14822,43.65881],[-95.15427,43.66072],[-95.15747,43.65741],[-95.16216,43.65886],[-95.16499,43.65795],[-95.16678,43.64997],[-95.16952,43.65103],[-95.16984,43.64737],[-95.17549,43.6465],[-95.18085,43.64297],[-95.18905,43.64436],[-95.18932,43.64604],[-95.20517,43.64595],[-95.20898,43.64895],[-95.20823,43.65241],[-95.21004,43.65175],[-95.21048,43.65378],[-95.21432,43.655],[-95.22019,43.65461],[-95.22172,43.65193],[-95.22913,43.64957],[-95.23973,43.64914],[-95.24758,43.65412],[-95.25161,43.65163],[-95.25944,43.65129],[-95.26546,43.64872],[-95.26966,43.64994],[-95.26871,43.65257],[-95.27139,43.65495],[-95.27821,43.65416],[-95.2844,43.6596],[-95.28885,43.65936],[-95.29671,43.67079],[-95.30075,43.66725],[-95.3111,43.66819],[-95.33036,43.66563],[-95.33004,43.66128],[-95.33509,43.65991],[-95.33549,43.65371],[-95.33031,43.64899],[-95.33265,43.64421],[-95.35078,43.64692],[-95.35715,43.64899],[-95.35908,43.65309],[-95.36895,43.65561],[-95.3753,43.65272],[-95.37841,43.64634],[-95.38497,43.64798],[-95.39031,43.65202],[-95.40037,43.64906],[-95.41018,43.6577],[-95.41107,43.66597],[-95.41457,43.66963],[-95.42838,43.66569],[-95.4301,43.66928],[-95.43609,43.66742],[-95.43466,43.6591],[-95.44057,43.65024],[-95.45189,43.64465],[-95.45529,43.64035],[-95.45409,43.63404],[-95.45559,43.63197],[-95.45431,43.63067],[-95.45768,43.62922],[-95.46525,43.63021],[-95.47253,43.62837],[-95.48007,43.62967],[-95.48281,43.62846],[-95.49051,43.63046],[-95.49,43.63544],[-95.4961,43.63886],[-95.49735,43.64284],[-95.50232,43.63962],[-95.51149,43.63879],[-95.51179,43.63478],[-95.52166,43.63065],[-95.52916,43.63048],[-95.52963,43.62683],[-95.54059,43.62507],[-95.55335,43.61707],[-95.56288,43.62081],[-95.56748,43.625],[-95.5668,43.62631],[-95.56907,43.62823],[-95.57084,43.63448],[-95.57775,43.63316],[-95.57753,43.63107],[-95.5796,43.63074],[-95.57998,43.62786],[-95.58557,43.62567],[-95.59391,43.61876],[-95.60079,43.62262],[-95.60612,43.62106],[-95.61304,43.62263],[-95.61489,43.62425],[-95.61282,43.63218],[-95.61079,43.63388],[-95.61324,43.64003],[-95.61585,43.63972],[-95.61604,43.64533],[-95.61813,43.64711],[-95.62563,43.64718],[-95.62724,43.65051],[-95.63258,43.65133],[-95.63639,43.65603],[-95.63467,43.65777],[-95.63553,43.6592],[-95.63988,43.65972],[-95.6412,43.66357],[-95.64761,43.66774],[-95.65292,43.6663],[-95.65241,43.66414],[-95.6537,43.6638],[-95.6611,43.6661],[-95.66011,43.67315],[-95.66339,43.67603],[-95.66357,43.68069],[-95.66539,43.68273],[-95.67737,43.68541],[-95.68517,43.69403],[-95.68833,43.69474],[-95.68999,43.69704],[-95.69674,43.69805],[-95.69919,43.7021],[-95.70394,43.70479],[-95.70505,43.71152],[-95.7032,43.7135],[-95.71233,43.71618],[-95.71067,43.72029],[-95.71155,43.7229],[-95.7152,43.7294],[-95.71728,43.73034],[-95.71428,43.73751],[-95.71224,43.73849],[-95.71556,43.74409],[-95.72155,43.74658],[-95.72343,43.74578],[-95.7239,43.74325],[-95.72888,43.74105],[-95.73834,43.74505],[-95.74048,43.74294],[-95.74728,43.74378],[-95.75061,43.74194],[-95.75206,43.74424],[-95.75483,43.74384],[-95.75456,43.74695],[-95.75743,43.74812],[-95.75811,43.74653],[-95.76116,43.74626],[-95.77598,43.74896],[-95.77968,43.75141],[-95.78867,43.75223],[-95.79795,43.7509],[-95.80156,43.7564],[-95.80636,43.75615],[-95.8082,43.76378],[-95.81187,43.76676],[-95.81388,43.76496],[-95.82386,43.76934],[-95.82656,43.76829],[-95.83328,43.77271],[-95.83548,43.77094],[-95.84828,43.77314],[-95.85018,43.77708],[-95.85408,43.77945],[-95.85503,43.78341],[-95.86136,43.7923],[-95.86448,43.79413],[-95.86726,43.80033],[-95.87011,43.79975],[-95.87209,43.80153],[-95.87648,43.80192],[-95.87658,43.80502],[-95.88216,43.80987],[-95.8822,43.81224],[-95.88563,43.81405],[-95.88537,43.81584],[-95.88207,43.81524],[-95.87796,43.81694],[-95.87779,43.82428],[-95.8725,43.82742],[-95.87234,43.83344],[-95.8767,43.84046],[-95.87305,43.84445],[-95.87737,43.84875],[-95.87028,43.85091],[-95.86645,43.85424],[-95.85934,43.85595],[-95.85879,43.85705],[-95.8612,43.85894],[-95.85758,43.85942],[-95.85521,43.86261],[-95.83962,43.86279],[-95.83274,43.8658],[-95.83181,43.86848],[-95.82858,43.87047],[-95.83699,43.87648],[-95.83141,43.87908],[-95.82905,43.88349],[-95.82405,43.88471],[-95.82468,43.88682],[-95.83258,43.88856],[-95.83644,43.88596],[-95.84205,43.88633],[-95.8473,43.88448],[-95.85739,43.89067],[-95.85951,43.89444],[-95.856,43.90231],[-95.84573,43.90733],[-95.84764,43.90945],[-95.85059,43.90916],[-95.84855,43.91397],[-95.85393,43.92123],[-95.85174,43.92565],[-95.85215,43.92805],[-95.85019,43.92859],[-95.84806,43.93361],[-95.84806,43.93827],[-95.85392,43.9404],[-95.85362,43.94247],[-95.84967,43.94765],[-95.84688,43.94879],[-95.8466,43.9514],[-95.85095,43.9537],[-95.85672,43.95385],[-95.86442,43.94793],[-95.86644,43.94403],[-95.86548,43.94181],[-95.86969,43.9396],[-95.87475,43.94137],[-95.87516,43.94481],[-95.88205,43.94903],[-95.89455,43.949],[-95.89653,43.95194],[-95.89545,43.95682],[-95.90123,43.96032],[-95.90156,43.96427],[-95.9076,43.96162],[-95.9119,43.96374],[-95.91169,43.96072],[-95.91652,43.9612],[-95.92139,43.95843],[-95.93603,43.95932],[-95.93739,43.96212],[-95.93988,43.96244],[-95.94429,43.95852],[-95.94189,43.95709],[-95.94112,43.95207],[-95.94369,43.94414],[-95.97956,43.94212],[-95.98518,43.95261],[-95.98318,43.95377],[-95.98255,43.95934],[-95.9918,43.96026],[-95.99531,43.9588],[-96.0031,43.96381],[-96.00582,43.96929],[-96.00872,43.9699],[-96.00821,43.97643],[-96.01134,43.97872],[-96.01017,43.98176],[-96.01482,43.98516],[-96.01708,43.99108],[-96.0218,43.99068],[-96.0245,43.99381],[-96.03341,43.99878],[-96.03285,43.99995],[-96.03963,44.00604],[-96.03918,44.00976],[-96.04084,44.01359],[-96.03736,44.01556],[-96.0455,44.02141],[-96.04553,44.02473],[-96.04225,44.02766],[-96.04415,44.02884],[-96.04592,44.03519],[-96.05766,44.04057],[-96.06091,44.048],[-96.06658,44.05052],[-96.07038,44.05643],[-96.06932,44.06289],[-96.07514,44.06299],[-96.07868,44.06516],[-96.08141,44.06437],[-96.08197,44.06768],[-96.08416,44.06913],[-96.08295,44.07125],[-96.0838,44.07325],[-96.0915,44.07679],[-96.0934,44.07956],[-96.09172,44.08257],[-96.09368,44.08457],[-96.09328,44.08762],[-96.08915,44.08843],[-96.0889,44.09356],[-96.1038,44.09545],[-96.10065,44.10003],[-96.1063,44.11026],[-96.10546,44.11169],[-96.11049,44.11287],[-96.11262,44.11614],[-96.10341,44.12677],[-96.10438,44.13471],[-96.09309,44.13365],[-96.0878,44.1295],[-96.08519,44.13069],[-96.08522,44.13334],[-96.08071,44.13493],[-96.07559,44.13354],[-96.06488,44.13474],[-96.05999,44.1307],[-96.05541,44.13167],[-96.04836,44.13693],[-96.03452,44.14042],[-96.03518,44.14819],[-96.02878,44.15102],[-96.02446,44.14878],[-96.02401,44.15345],[-96.01265,44.14716],[-96.00153,44.15213],[-95.97752,44.1532],[-95.97234,44.15924],[-95.97378,44.1635],[-95.97267,44.1654],[-95.97703,44.16738],[-95.98498,44.182],[-95.98323,44.18922],[-95.98078,44.1895],[-95.97921,44.19533],[-95.96879,44.19595],[-95.9655,44.20217],[-95.95595,44.20449],[-95.95042,44.20286],[-95.94813,44.20492],[-95.93899,44.19921],[-95.93319,44.2006],[-95.93227,44.19921],[-95.92715,44.19889],[-95.92769,44.19587],[-95.92421,44.19387],[-95.92004,44.19595],[-95.91491,44.19463],[-95.91343,44.19609],[-95.91554,44.19812],[-95.91429,44.20292],[-95.90926,44.20622],[-95.9104,44.21076],[-95.90609,44.213],[-95.90483,44.21608],[-95.90481,44.2203],[-95.90695,44.22201],[-95.89747,44.2273],[-95.90037,44.23052],[-95.89613,44.23382],[-95.88245,44.23252],[-95.88293,44.23612],[-95.88097,44.24222],[-95.8774,44.24662],[-95.87867,44.24824],[-95.8737,44.25436],[-95.87392,44.25636],[-95.86962,44.25837],[-95.86311,44.25863],[-95.86325,44.25992],[-95.86025,44.26106],[-95.85636,44.25547],[-95.85117,44.25499],[-95.85236,44.25273],[-95.84636,44.24687],[-95.84724,44.24568],[-95.8384,44.24588],[-95.83842,44.24805],[-95.83469,44.24969],[-95.82769,44.24965],[-95.82419,44.2462],[-95.81842,44.247],[-95.81847,44.24239],[-95.81579,44.24078],[-95.80526,44.23933],[-95.80263,44.23715],[-95.79743,44.23971],[-95.79655,44.24249],[-95.79399,44.24287],[-95.78696,44.23621],[-95.78357,44.23564],[-95.7825,44.23377],[-95.78604,44.23091],[-95.77588,44.22674],[-95.77543,44.21954],[-95.75904,44.20858],[-95.75883,44.20639],[-95.75621,44.2069],[-95.74266,44.19909],[-95.72761,44.19772],[-95.71994,44.19301],[-95.71817,44.18996],[-95.71539,44.18976],[-95.7128,44.18685],[-95.71385,44.18488],[-95.70453,44.17682],[-95.70355,44.17215],[-95.70063,44.16832],[-95.69769,44.16915],[-95.69116,44.167],[-95.6905,44.16211],[-95.68356,44.16055],[-95.68282,44.15818],[-95.67756,44.15613],[-95.67903,44.15346],[-95.67314,44.15029],[-95.67379,44.14748],[-95.6701,44.14428],[-95.67065,44.14161],[-95.66942,44.14046],[-95.66001,44.1379],[-95.65437,44.14001],[-95.65095,44.13929],[-95.64989,44.13986],[-95.65106,44.141],[-95.6417,44.14344],[-95.63069,44.13813],[-95.63183,44.13451],[-95.63747,44.13176],[-95.63033,44.12264],[-95.63444,44.12128],[-95.62994,44.11741],[-95.6311,44.11511],[-95.62311,44.10958],[-95.61856,44.10911],[-95.60938,44.1039],[-95.6036,44.10242],[-95.59644,44.09539],[-95.58995,44.0945],[-95.58823,44.09149],[-95.5832,44.09111],[-95.58107,44.08625],[-95.57612,44.08739],[-95.57348,44.08362],[-95.56566,44.08274],[-95.56268,44.07998],[-95.56076,44.07099],[-95.56306,44.06791],[-95.56263,44.06298],[-95.55746,44.06189],[-95.55325,44.0555],[-95.54132,44.05427],[-95.5382,44.05121],[-95.54124,44.05073],[-95.54091,44.04757],[-95.54732,44.04738],[-95.54593,44.04345],[-95.54175,44.03974],[-95.54099,44.03709],[-95.53314,44.03446],[-95.52654,44.03438],[-95.52596,44.02897],[-95.51727,44.02195],[-95.5169,44.02087],[-95.52238,44.01835],[-95.52295,44.01497],[-95.51766,44.01185],[-95.51876,44.00966],[-95.51587,44.00795],[-95.51648,44.0062],[-95.51443,44.00203],[-95.50869,43.99909],[-95.50848,43.99532],[-95.50428,43.99304],[-95.50401,43.98693],[-95.5015,43.98571],[-95.49788,43.98657],[-95.49296,43.98111],[-95.49246,43.97852],[-95.48645,43.97725],[-95.48146,43.97422],[-95.47761,43.97378],[-95.47928,43.98037],[-95.47518,43.98017],[-95.47117,43.9763],[-95.46142,43.97368],[-95.43781,43.95788],[-95.42796,43.95848],[-95.41932,43.95701],[-95.41557,43.95465],[-95.41393,43.9499],[-95.41533,43.94904],[-95.41503,43.94621],[-95.41242,43.94405],[-95.40625,43.94385],[-95.40381,43.94186],[-95.39655,43.94673],[-95.39648,43.95035],[-95.39919,43.95133],[-95.39463,43.95165],[-95.3922,43.95832],[-95.38614,43.96],[-95.37861,43.95749],[-95.37236,43.95319],[-95.36709,43.9519],[-95.36547,43.95304],[-95.36398,43.95001],[-95.36173,43.94973],[-95.35871,43.95187],[-95.35421,43.95104],[-95.35076,43.95475],[-95.34609,43.95488],[-95.34027,43.95968],[-95.33738,43.95743],[-95.33156,43.95794],[-95.32192,43.95562],[-95.31942,43.95688],[-95.31333,43.95573],[-95.30118,43.95687],[-95.29905,43.95134],[-95.29987,43.94565],[-95.29008,43.94158],[-95.28073,43.9432],[-95.2731,43.94909],[-95.26927,43.9494],[-95.26845,43.95265],[-95.26544,43.95343],[-95.26158,43.96099],[-95.25002,43.96331],[-95.24855,43.97105],[-95.25003,43.97524],[-95.2587,43.97535],[-95.26221,43.97754],[-95.26433,43.98315],[-95.26242,43.98886],[-95.25617,43.99251],[-95.25097,43.99316],[-95.24993,43.99508],[-95.24568,43.99539],[-95.24785,44.00052],[-95.24719,44.00223],[-95.23522,44.00464],[-95.23517,44.01134],[-95.23975,44.0125],[-95.23964,44.01361],[-95.23208,44.01634],[-95.23327,44.02224],[-95.23184,44.02491],[-95.21574,44.01783],[-95.21769,44.0159],[-95.21634,44.00954],[-95.2079,44.00242],[-95.2031,44.00315],[-95.19792,44.00152],[-95.19452,43.99687],[-95.19504,43.99267],[-95.193,43.99169],[-95.18809,43.99434],[-95.1789,43.99387],[-95.16875,43.98463],[-95.16075,43.98476],[-95.15552,43.98824],[-95.15084,43.98538],[-95.15083,43.98135],[-95.14885,43.98016],[-95.14156,43.9825],[-95.1395,43.98203],[-95.13906,43.97856],[-95.12728,43.97799],[-95.12566,43.97692],[-95.12598,43.9656],[-95.1217,43.96388],[-95.12036,43.9596],[-95.11686,43.95814],[-95.10791,43.95664],[-95.10714,43.961],[-95.10521,43.96221],[-95.10556,43.96506],[-95.11213,43.96846],[-95.11421,43.9738],[-95.11295,43.97479],[-95.10822,43.973],[-95.09746,43.97766],[-95.09248,43.97808],[-95.08834,43.97244],[-95.08526,43.97299],[-95.0831,43.96782],[-95.08214,43.95536],[-95.07585,43.95153],[-95.07331,43.94377],[-95.07446,43.93782],[-95.07335,43.92798],[-95.07651,43.92466],[-95.07655,43.92057],[-95.07158,43.91799],[-95.0718,43.91263],[-95.07024,43.90999],[-95.07269,43.90967],[-95.0744,43.90651],[-95.06991,43.90456],[-95.06005,43.89541],[-95.05434,43.8949],[-95.05619,43.89352],[-95.05271,43.88951],[-95.0587,43.88101],[-95.05751,43.87455],[-95.0608,43.87343],[-95.06216,43.87489],[-95.0651,43.87442],[-95.07019,43.87135],[-95.07277,43.87202],[-95.0739,43.86816],[-95.07624,43.86789],[-95.07711,43.86252],[-95.07226,43.85887],[-95.07012,43.85914],[-95.0643,43.86061],[-95.05747,43.86498],[-95.04887,43.85953],[-95.04564,43.85907],[-95.0539,43.85113],[-95.06017,43.84997],[-95.05851,43.84823],[-95.05935,43.84605],[-95.06383,43.84387],[-95.06213,43.83987],[-95.06324,43.83687],[-95.05766,43.82609],[-95.05639,43.81289],[-95.05048,43.80761],[-95.0451,43.80843],[-95.04323,43.80385],[-95.04855,43.79881],[-95.05059,43.79913],[-95.0526,43.79414],[-95.05152,43.79204],[-95.04675,43.79037],[-95.04133,43.79207],[-95.04249,43.78898],[-95.0477,43.78427],[-95.04694,43.77567],[-95.05034,43.77157],[-95.05378,43.7707],[-95.05233,43.76907],[-95.05708,43.76778],[-95.05744,43.76395],[-95.04808,43.75886],[-95.03533,43.76621],[-95.03002,43.76141],[-95.03012,43.75925],[-95.02759,43.75628],[-95.01939,43.75517],[-95.0163,43.75076],[-95.01989,43.74718],[-95.0184,43.74027],[-95.01346,43.73823],[-95.01106,43.73501],[-95.01145,43.73298],[-95.00817,43.73024],[-95.01985,43.72415],[-95.02306,43.71804],[-95.02279,43.71595],[-95.01731,43.71206],[-95.01692,43.70844],[-95.01176,43.70621],[-95.0117,43.70464],[-95.01778,43.69953],[-95.01629,43.69749],[-95.01325,43.69552],[-95.00257,43.69503],[-94.99901,43.69199],[-94.99105,43.69196],[-94.99029,43.68855],[-94.97813,43.68888],[-94.97693,43.68223],[-94.97832,43.6787],[-94.98438,43.67064],[-94.98927,43.66853],[-94.98611,43.66481],[-94.98588,43.65983],[-94.97846,43.65497],[-94.98486,43.64969],[-94.98171,43.64355],[-94.98187,43.63967],[-94.98036,43.63915],[-94.97815,43.64314],[-94.97215,43.64393],[-94.96926,43.64625],[-94.97241,43.64933],[-94.97161,43.65208],[-94.96872,43.6531],[-94.96375,43.65139],[-94.95771,43.65511],[-94.95844,43.66081],[-94.95706,43.66222],[-94.95451,43.66065],[-94.95106,43.66505],[-94.95265,43.67458],[-94.9469,43.67814],[-94.94775,43.67948],[-94.9456,43.6825],[-94.94163,43.68526],[-94.94052,43.69275],[-94.93847,43.69445],[-94.94093,43.70956],[-94.93467,43.7102],[-94.92859,43.71412],[-94.91559,43.71851],[-94.91258,43.72169],[-94.91613,43.72735],[-94.90781,43.72904],[-94.90522,43.73278],[-94.89664,43.73406],[-94.88924,43.72925],[-94.88969,43.72501],[-94.88764,43.72332],[-94.87992,43.72049],[-94.87072,43.72575],[-94.87087,43.72807],[-94.86864,43.73086],[-94.86157,43.73034],[-94.85045,43.72024],[-94.84925,43.7158],[-94.84404,43.71073],[-94.8378,43.70991],[-94.83476,43.70626],[-94.82258,43.70386],[-94.81609,43.69698],[-94.80755,43.69532],[-94.80321,43.69289],[-94.80044,43.68767],[-94.79677,43.68541],[-94.79794,43.68087],[-94.79634,43.67776],[-94.79028,43.67182],[-94.77479,43.67021],[-94.77409,43.66637],[-94.76798,43.66638],[-94.76589,43.66308],[-94.74763,43.65335],[-94.74555,43.65073],[-94.74398,43.65067],[-94.73805,43.65669],[-94.73747,43.65898],[-94.72976,43.66292],[-94.7269,43.66129],[-94.72483,43.6634],[-94.71947,43.66293],[-94.7198,43.6676],[-94.71812,43.66891],[-94.71197,43.66845],[-94.70091,43.6652],[-94.69918,43.65413],[-94.69568,43.65189],[-94.69753,43.64536],[-94.69235,43.6408],[-94.68096,43.63945],[-94.67405,43.64246],[-94.66845,43.64199],[-94.66515,43.64891],[-94.66037,43.65153],[-94.65467,43.64983],[-94.65434,43.64656],[-94.65071,43.6459],[-94.65178,43.6445],[-94.64396,43.64497],[-94.64451,43.63816],[-94.63273,43.64052],[-94.62219,43.63769],[-94.61528,43.6332],[-94.60702,43.63195],[-94.60221,43.62804],[-94.59578,43.62939],[-94.58454,43.62619],[-94.57981,43.62665],[-94.57779,43.62945],[-94.57131,43.63064],[-94.56277,43.62653],[-94.56307,43.6228],[-94.55196,43.61861],[-94.54054,43.61887],[-94.5372,43.61617],[-94.5402,43.6098],[-94.54539,43.60782],[-94.54243,43.60416],[-94.55108,43.59817],[-94.55598,43.59271],[-94.55591,43.58917],[-94.55203,43.58256],[-94.55242,43.57779],[-94.54476,43.57571],[-94.53756,43.56459],[-94.534,43.56615],[-94.52794,43.56431],[-94.52244,43.56719],[-94.51647,43.56527],[-94.51879,43.5608],[-94.51388,43.55748],[-94.50633,43.55936],[-94.50629,43.5539],[-94.51634,43.54782],[-94.52012,43.5485],[-94.51827,43.5446],[-94.51951,43.54316],[-94.51771,43.54261],[-94.51645,43.53859],[-94.51763,43.53638],[-94.52192,43.53503],[-94.5196,43.53096],[-94.52665,43.53194],[-94.52962,43.53433],[-94.53428,43.53245],[-94.54044,43.5333],[-94.54253,43.53196],[-94.54332,43.52712],[-94.53969,43.52558],[-94.54129,43.52055],[-94.53582,43.51736],[-94.52642,43.51753],[-94.5317,43.51114],[-94.52888,43.50864],[-94.53189,43.50662],[-94.5275,43.50419],[-94.52748,43.50241],[-94.53148,43.4997],[-94.53044,43.49809],[-94.52242,43.49598],[-94.51847,43.49271],[-94.51363,43.49434],[-94.51175,43.491],[-94.50895,43.49007],[-94.51034,43.48524],[-94.50393,43.48138],[-94.50343,43.47528],[-94.49508,43.47082],[-94.49582,43.4667],[-94.49332,43.46193],[-94.49124,43.46209],[-94.48908,43.45882],[-94.48309,43.45878],[-94.48534,43.45347],[-94.48244,43.45028],[-94.4822,43.44577],[-94.47779,43.43925],[-94.47815,43.43742],[-94.47434,43.43514],[-94.47327,43.43108],[-94.4687,43.43082],[-94.46144,43.43311],[-94.4609,43.43708],[-94.45755,43.4396],[-94.44796,43.43749],[-94.44267,43.43171],[-94.43741,43.43234],[-94.4344,43.43037],[-94.42734,43.43045],[-94.42742,43.43177],[-94.43319,43.43296],[-94.43419,43.43634],[-94.42967,43.44062],[-94.42169,43.43782],[-94.42153,43.444],[-94.42025,43.44515],[-94.4217,43.45141],[-94.41595,43.45105],[-94.41535,43.45372],[-94.41734,43.45568],[-94.41423,43.45793],[-94.41372,43.46163],[-94.41148,43.46193],[-94.40948,43.45902],[-94.40439,43.45964],[-94.40383,43.46286],[-94.39835,43.46122],[-94.39593,43.46317],[-94.39306,43.45813],[-94.38635,43.45763],[-94.38118,43.45891],[-94.37894,43.4631],[-94.37988,43.46432],[-94.36455,43.46682],[-94.36312,43.46411],[-94.36533,43.46124],[-94.3648,43.45854],[-94.35943,43.45539],[-94.36079,43.4528],[-94.36478,43.45214],[-94.3639,43.44601],[-94.35861,43.44435],[-94.35573,43.43888],[-94.35066,43.4357],[-94.35166,43.43443],[-94.35025,43.43047],[-94.34442,43.42942],[-94.3464,43.42353],[-94.34195,43.42125],[-94.33451,43.40865],[-94.32975,43.40482],[-94.33433,43.40234],[-94.33645,43.40336],[-94.34063,43.4004],[-94.32507,43.39928],[-94.32563,43.39421],[-94.31983,43.39141],[-94.31727,43.39244],[-94.30499,43.39034],[-94.30093,43.3915],[-94.29328,43.38996],[-94.29191,43.38756],[-94.28773,43.38792],[-94.27829,43.38527],[-94.26636,43.37916],[-94.26597,43.37555],[-94.24828,43.37246],[-94.24912,43.36959],[-94.24765,43.368],[-94.24141,43.36756],[-94.23658,43.36217],[-94.23884,43.35812],[-94.24323,43.35785],[-94.24418,43.35212],[-94.23566,43.35278],[-94.23363,43.34996],[-94.22489,43.34752],[-94.22093,43.34174],[-94.21721,43.34114],[-94.21626,43.34298],[-94.21195,43.34161],[-94.21097,43.34618],[-94.19931,43.34509],[-94.19457,43.34338],[-94.193,43.34068],[-94.1884,43.33826],[-94.18091,43.33543],[-94.17534,43.33559],[-94.17352,43.33216],[-94.168,43.32966],[-94.16909,43.32648],[-94.17315,43.32541],[-94.17269,43.32057],[-94.181,43.32154],[-94.18231,43.31987],[-94.1817,43.31646],[-94.18548,43.31491],[-94.18705,43.30997],[-94.17535,43.30272],[-94.17969,43.30259],[-94.18173,43.30076],[-94.1811,43.29778],[-94.18236,43.29619],[-94.18607,43.29559],[-94.18747,43.29382],[-94.18279,43.28998],[-94.18786,43.28739],[-94.18624,43.28583],[-94.18817,43.28289],[-94.18666,43.27802],[-94.18148,43.27382],[-94.18272,43.27045],[-94.17408,43.2679],[-94.17074,43.26535],[-94.17341,43.26194],[-94.17745,43.26188],[-94.18323,43.25852],[-94.18195,43.25627],[-94.18429,43.25402],[-94.17746,43.25339],[-94.17474,43.25009],[-94.16331,43.24546],[-94.16175,43.23991],[-94.15105,43.24133],[-94.14917,43.23763],[-94.14131,43.23593],[-94.13777,43.24338],[-94.13199,43.24457],[-94.12286,43.24302],[-94.11992,43.24703],[-94.11452,43.24851],[-94.11059,43.25333],[-94.10052,43.25536],[-94.09707,43.25439],[-94.09483,43.25602],[-94.08935,43.25634],[-94.08802,43.25839],[-94.08317,43.25742],[-94.07853,43.25985],[-94.07301,43.25802],[-94.066,43.26039],[-94.06307,43.26598],[-94.06777,43.26983],[-94.06337,43.27408],[-94.05833,43.27591],[-94.05995,43.27767],[-94.05923,43.28217],[-94.06137,43.28557],[-94.05534,43.28702],[-94.05455,43.292],[-94.0563,43.29447],[-94.0551,43.29721],[-94.05233,43.29705],[-94.05101,43.29939],[-94.05707,43.30442],[-94.07306,43.30627],[-94.07125,43.30789],[-94.07366,43.3148],[-94.0792,43.31726],[-94.0817,43.32125],[-94.07304,43.32446],[-94.07216,43.32604],[-94.07391,43.32912],[-94.06221,43.32913],[-94.05759,43.32694],[-94.05769,43.32526],[-94.05512,43.32398],[-94.05643,43.32139],[-94.05528,43.3187],[-94.04242,43.3121],[-94.03049,43.31433],[-94.02879,43.30244],[-94.02523,43.30451],[-94.01369,43.30282],[-94.01211,43.30755],[-94.00291,43.30344],[-93.99819,43.30363],[-93.99372,43.30634],[-93.97757,43.3099],[-93.97723,43.31493],[-93.97347,43.31589],[-93.97243,43.31822],[-93.97342,43.31965],[-93.97054,43.32104],[-93.97421,43.32097],[-93.98213,43.32688],[-93.97381,43.33422],[-93.97331,43.33745],[-93.97697,43.33983],[-93.9705,43.34199],[-93.96306,43.3408],[-93.95231,43.34405],[-93.94727,43.34248],[-93.94483,43.34333],[-93.94067,43.35097],[-93.94415,43.35391],[-93.94316,43.35513],[-93.93798,43.35292],[-93.93479,43.35474],[-93.93194,43.35402],[-93.92169,43.34971],[-93.91895,43.35172],[-93.91941,43.35488],[-93.91575,43.35467],[-93.9093,43.35915],[-93.90483,43.35778],[-93.90039,43.3607],[-93.89882,43.36367],[-93.90361,43.36573],[-93.90155,43.36914],[-93.89608,43.3703],[-93.88828,43.37483],[-93.88304,43.37346],[-93.8786,43.37495],[-93.87912,43.3814],[-93.86776,43.38571],[-93.86498,43.38823],[-93.86287,43.39348],[-93.85437,43.39596],[-93.85283,43.39506],[-93.85183,43.39786],[-93.84311,43.4047],[-93.84198,43.4083],[-93.83881,43.40978],[-93.83625,43.40848],[-93.83372,43.4094],[-93.83001,43.41586],[-93.82674,43.41839],[-93.82684,43.42043],[-93.81612,43.42463],[-93.81332,43.42641],[-93.81239,43.42937],[-93.81024,43.42969],[-93.81112,43.4345],[-93.80921,43.43603],[-93.8029,43.43581],[-93.80087,43.4375],[-93.79973,43.439],[-93.8026,43.44147],[-93.79253,43.4465],[-93.79231,43.4513],[-93.77535,43.44958],[-93.77582,43.45411],[-93.7741,43.45691],[-93.76672,43.45793],[-93.76614,43.46173],[-93.75889,43.46293],[-93.75519,43.46664],[-93.75516,43.47061],[-93.74882,43.47409],[-93.7462,43.47729],[-93.74023,43.47705],[-93.73841,43.47838],[-93.73462,43.47511],[-93.73394,43.47783],[-93.73051,43.47942],[-93.73152,43.48212],[-93.72323,43.48884],[-93.72002,43.48799],[-93.71992,43.48444],[-93.71062,43.48104],[-93.70551,43.47669],[-93.70072,43.47572],[-93.70796,43.47227],[-93.71071,43.46799],[-93.71397,43.46845],[-93.71935,43.46448],[-93.71373,43.46019],[-93.71179,43.46071],[-93.70749,43.45636],[-93.70672,43.45244],[-93.70346,43.45114],[-93.70402,43.44729],[-93.69679,43.44365],[-93.69675,43.43564],[-93.69989,43.43381],[-93.69841,43.43173],[-93.70659,43.42967],[-93.71068,43.42682],[-93.7225,43.42847],[-93.72659,43.42659],[-93.72984,43.42918],[-93.73671,43.42435],[-93.74092,43.42476],[-93.74209,43.41455],[-93.75463,43.40497],[-93.75228,43.40089],[-93.75462,43.39755],[-93.75843,43.39741],[-93.75785,43.39532],[-93.75942,43.39293],[-93.76408,43.38923],[-93.76181,43.38769],[-93.76198,43.38471],[-93.76805,43.37926],[-93.76855,43.37772],[-93.76632,43.37542],[-93.77202,43.36979],[-93.77559,43.37001],[-93.78204,43.36727],[-93.77988,43.36402],[-93.78181,43.36205],[-93.78077,43.35893],[-93.78311,43.35307],[-93.79455,43.33916],[-93.79094,43.33148],[-93.7746,43.32351],[-93.77049,43.31853],[-93.76857,43.31453],[-93.775,43.31111],[-93.77354,43.30603],[-93.7754,43.3042],[-93.76614,43.30449],[-93.76765,43.30165],[-93.76265,43.29618],[-93.75667,43.29358],[-93.75488,43.28737],[-93.7513,43.28501],[-93.75444,43.28219],[-93.75719,43.28379],[-93.75965,43.2823],[-93.76364,43.28327],[-93.76809,43.27604],[-93.77116,43.27417],[-93.76739,43.26447],[-93.77397,43.25771],[-93.7791,43.25607],[-93.78164,43.2579],[-93.79189,43.25359],[-93.78829,43.25056],[-93.78967,43.24805],[-93.78899,43.2425],[-93.81081,43.241],[-93.81358,43.23491],[-93.81978,43.23164],[-93.81639,43.22531],[-93.81976,43.22186],[-93.81678,43.21546],[-93.82474,43.20947],[-93.83497,43.21189],[-93.84053,43.21082],[-93.84113,43.21525],[-93.84458,43.21499],[-93.85421,43.21876],[-93.85996,43.21805],[-93.86532,43.21505],[-93.8643,43.21371],[-93.86619,43.21207],[-93.86222,43.20871],[-93.86729,43.20558],[-93.86323,43.20158],[-93.85825,43.20006],[-93.85938,43.19719],[-93.85617,43.18991],[-93.85957,43.18751],[-93.86248,43.18241],[-93.86165,43.17489],[-93.86895,43.17099],[-93.86415,43.16036],[-93.86729,43.15775],[-93.871,43.15755],[-93.87165,43.15528],[-93.86908,43.14891],[-93.86509,43.14755],[-93.86195,43.14378],[-93.84669,43.13836],[-93.84058,43.13354],[-93.83888,43.12412],[-93.8247,43.121],[-93.81229,43.10945],[-93.80281,43.10352],[-93.79984,43.09448],[-93.78943,43.08866],[-93.79094,43.0838],[-93.78337,43.08034],[-93.78072,43.07324],[-93.77906,43.07242],[-93.78017,43.06555],[-93.77475,43.0609],[-93.77537,43.05664],[-93.76905,43.05297],[-93.76612,43.04689],[-93.75954,43.03919],[-93.7597,43.03483],[-93.7542,43.0325],[-93.75643,43.02926],[-93.75224,43.01842],[-93.75389,43.01375],[-93.75386,43.00287],[-93.75126,42.99824],[-93.75102,42.99235],[-93.74717,42.98973],[-93.74196,42.99017],[-93.73901,42.98729],[-93.74214,42.98109],[-93.7382,42.97913],[-93.74105,42.97616],[-93.73891,42.97443],[-93.74567,42.97022],[-93.74425,42.967],[-93.73709,42.9655],[-93.73665,42.96335],[-93.73985,42.96088],[-93.73969,42.95715],[-93.73742,42.94755],[-93.73471,42.94449],[-93.73913,42.93953],[-93.74084,42.93268],[-93.73676,42.9289],[-93.73221,42.92836],[-93.73215,42.92561],[-93.72645,42.91961],[-93.7254,42.91422],[-93.72239,42.91341],[-93.72049,42.91072],[-93.72432,42.90945],[-93.72647,42.90622],[-93.7255,42.90138],[-93.72862,42.89896],[-93.72435,42.89716],[-93.7135,42.89622],[-93.70861,42.8986],[-93.70391,42.89632],[-93.70365,42.89337],[-93.70163,42.89246],[-93.70352,42.89083],[-93.70299,42.88936],[-93.69103,42.89204],[-93.68731,42.88609],[-93.6812,42.88529],[-93.68769,42.87926],[-93.69044,42.87956],[-93.69392,42.86967],[-93.69238,42.86607],[-93.69418,42.86285],[-93.69769,42.86094],[-93.69732,42.85717],[-93.69501,42.85633],[-93.69021,42.84812],[-93.69965,42.84446],[-93.70299,42.8411],[-93.69976,42.83815],[-93.70019,42.83445],[-93.69687,42.83148],[-93.69819,42.82865],[-93.70164,42.82741],[-93.69685,42.8234],[-93.6978,42.81979],[-93.69594,42.81849],[-93.69539,42.81378],[-93.69946,42.81321],[-93.6953,42.81103],[-93.69391,42.80831],[-93.69346,42.80569],[-93.69499,42.80385],[-93.68997,42.80284],[-93.69021,42.80142],[-93.68276,42.80042],[-93.68225,42.79797],[-93.68045,42.79728],[-93.68058,42.79465],[-93.68336,42.79294],[-93.67986,42.78803],[-93.67909,42.78072],[-93.68337,42.77726],[-93.68735,42.78006],[-93.69295,42.77882],[-93.69528,42.7735],[-93.69466,42.77133],[-93.69163,42.77054],[-93.68941,42.76726],[-93.69099,42.76233],[-93.68921,42.75653],[-93.68526,42.75324],[-93.68779,42.7486],[-93.68027,42.74466],[-93.67935,42.74209],[-93.67518,42.73978],[-93.67431,42.73658],[-93.65651,42.73289],[-93.65128,42.72849],[-93.65448,42.72299],[-93.64942,42.71439],[-93.66036,42.70937],[-93.6579,42.70711],[-93.65914,42.70558],[-93.65815,42.70405],[-93.66244,42.70025],[-93.66708,42.70015],[-93.67319,42.6975],[-93.6744,42.69236],[-93.67202,42.69093],[-93.67031,42.68499],[-93.67116,42.68361],[-93.66848,42.68232],[-93.6627,42.67411],[-93.66818,42.65815],[-93.65807,42.65898],[-93.64759,42.66473],[-93.64685,42.6602],[-93.64235,42.65613],[-93.6432,42.65295],[-93.64011,42.64985],[-93.64321,42.64879],[-93.64645,42.64265],[-93.64579,42.64045],[-93.64181,42.63853],[-93.64211,42.62884],[-93.63598,42.62524],[-93.63712,42.60824],[-93.6428,42.60843],[-93.65105,42.60402],[-93.65448,42.59975],[-93.65403,42.59609],[-93.65627,42.59335],[-93.65629,42.58935],[-93.66449,42.58655],[-93.66908,42.58209],[-93.66778,42.57856],[-93.65871,42.57355],[-93.65878,42.57194],[-93.65085,42.57219],[-93.64917,42.56733],[-93.65313,42.55927],[-93.66077,42.55062],[-93.66619,42.54153],[-93.66555,42.5397],[-93.66044,42.53712],[-93.66028,42.53501],[-93.66294,42.53432],[-93.66325,42.53213],[-93.66044,42.5307],[-93.65947,42.52724],[-93.66448,42.52238],[-93.67065,42.52147],[-93.6783,42.50313],[-93.6827,42.49947],[-93.68192,42.49502],[-93.68467,42.49142],[-93.69055,42.48962],[-93.69081,42.48431],[-93.68778,42.47853],[-93.69493,42.47777],[-93.70205,42.46975],[-93.70152,42.45833],[-93.69867,42.45582],[-93.70275,42.44856],[-93.70195,42.44465],[-93.70781,42.42956],[-93.70982,42.42611],[-93.71467,42.42281],[-93.71602,42.41859],[-93.7238,42.41153],[-93.72362,42.40916],[-93.7276,42.40602],[-93.7473,42.40522],[-93.74797,42.39962],[-93.75215,42.3986],[-93.75425,42.40007],[-93.75423,42.39657],[-93.75901,42.39407],[-93.75325,42.39205],[-93.75568,42.38895],[-93.75548,42.38616],[-93.76606,42.38359],[-93.76348,42.3748],[-93.75755,42.3729],[-93.75631,42.3673],[-93.76671,42.36005],[-93.7689,42.35609],[-93.76939,42.34642],[-93.77184,42.34444],[-93.77372,42.34436],[-93.77547,42.34688],[-93.78199,42.34674],[-93.78729,42.34424],[-93.79195,42.33908],[-93.78354,42.33236],[-93.78317,42.32775],[-93.77726,42.32291],[-93.77705,42.32072],[-93.78107,42.31841],[-93.79135,42.32329],[-93.80464,42.3243],[-93.80858,42.32328],[-93.81282,42.31956],[-93.82717,42.31688],[-93.82887,42.32006],[-93.83445,42.32],[-93.83534,42.32233],[-93.84177,42.32314],[-93.85178,42.31801],[-93.86568,42.3071],[-93.86688,42.31047],[-93.86981,42.31089],[-93.8737,42.31441],[-93.8845,42.31531],[-93.89252,42.30782],[-93.89423,42.30217],[-93.89896,42.30192],[-93.90193,42.29802],[-93.904,42.30033],[-93.90658,42.29931],[-93.90982,42.28832],[-93.90867,42.28598],[-93.9104,42.28397],[-93.9225,42.28211],[-93.92771,42.27559],[-93.92493,42.27182],[-93.92653,42.26956],[-93.93262,42.26744],[-93.9332,42.26216],[-93.93705,42.25667],[-93.93744,42.25322],[-93.94207,42.25183],[-93.94286,42.24866],[-93.94742,42.24765],[-93.94929,42.23612],[-93.94777,42.23233],[-93.95482,42.22896],[-93.95703,42.22232],[-93.96,42.21901],[-93.9513,42.2151],[-93.95111,42.21028],[-93.95412,42.20852],[-93.95155,42.20602],[-93.95337,42.20371],[-93.94721,42.20174],[-93.93996,42.20255],[-93.93322,42.20055],[-93.92832,42.19714],[-93.92225,42.19747],[-93.91723,42.19229],[-93.91348,42.19551],[-93.90713,42.19414],[-93.90082,42.19614],[-93.89885,42.19184],[-93.9015,42.18893],[-93.89903,42.18594],[-93.89982,42.18405],[-93.90955,42.18216],[-93.90234,42.17309],[-93.88912,42.16932],[-93.88591,42.16657],[-93.88743,42.16421],[-93.882,42.15668],[-93.8768,42.15606],[-93.87057,42.15032],[-93.86571,42.1506],[-93.86454,42.14707],[-93.86883,42.14222],[-93.87374,42.14084],[-93.88138,42.13568],[-93.89053,42.14139],[-93.89748,42.13738],[-93.89876,42.13442],[-93.89086,42.12567],[-93.8791,42.12539],[-93.87553,42.12014],[-93.87432,42.1134],[-93.87541,42.11133],[-93.87423,42.11029],[-93.87042,42.11079],[-93.86858,42.11302],[-93.86346,42.10957],[-93.86037,42.11069],[-93.85205,42.10843],[-93.85122,42.10612],[-93.85476,42.10376],[-93.85376,42.1015],[-93.8492,42.10041],[-93.84468,42.08767],[-93.84725,42.07816],[-93.83842,42.07655],[-93.8344,42.07307],[-93.83421,42.07084],[-93.83169,42.07],[-93.82896,42.06536],[-93.82957,42.0629],[-93.83288,42.06066],[-93.82655,42.04818],[-93.81951,42.04117],[-93.80709,42.03568],[-93.79889,42.03404],[-93.79056,42.02583],[-93.79063,42.01753],[-93.78082,42.0046],[-93.77609,41.99286],[-93.77239,41.9916],[-93.76895,41.98709],[-93.76031,41.98174],[-93.74568,41.98867],[-93.73892,41.98919],[-93.7352,41.98879],[-93.72952,41.98308],[-93.73154,41.97937],[-93.73612,41.97688],[-93.7302,41.97149],[-93.72526,41.97007],[-93.71739,41.96446],[-93.72027,41.96124],[-93.71959,41.95945],[-93.71364,41.95829],[-93.71305,41.95677],[-93.70787,41.95487],[-93.70992,41.95021],[-93.70776,41.94505],[-93.70412,41.94532],[-93.7008,41.93971],[-93.698,41.93838],[-93.70291,41.9362],[-93.70823,41.93042],[-93.72934,41.92781],[-93.7305,41.92943],[-93.73201,41.92878],[-93.73112,41.92523],[-93.71819,41.91363],[-93.71789,41.9114],[-93.71988,41.90965],[-93.71626,41.90384],[-93.71141,41.90418],[-93.70396,41.89921],[-93.69741,41.89807],[-93.68661,41.89009],[-93.68217,41.88941],[-93.67863,41.8851],[-93.67177,41.88551],[-93.6696,41.88288],[-93.66717,41.88548],[-93.668,41.88737],[-93.65432,41.89252],[-93.65497,41.89621],[-93.64891,41.89864],[-93.63742,41.89241],[-93.63876,41.88941],[-93.63412,41.8876],[-93.63284,41.88248],[-93.62504,41.88196],[-93.61674,41.8846],[-93.6124,41.88372],[-93.60989,41.87696],[-93.59942,41.86926],[-93.59974,41.86504],[-93.60335,41.86086],[-93.60422,41.85674],[-93.60058,41.84952],[-93.59679,41.84773],[-93.59587,41.84532],[-93.59932,41.84313],[-93.60018,41.84003],[-93.59745,41.83113],[-93.58337,41.82881],[-93.58243,41.8263],[-93.57111,41.82016],[-93.56882,41.81723],[-93.55999,41.81773],[-93.54707,41.8149],[-93.54756,41.80919],[-93.5464,41.80676],[-93.54105,41.80351],[-93.53974,41.7935],[-93.53194,41.79352],[-93.52331,41.78404],[-93.5197,41.78266],[-93.51985,41.77643],[-93.51584,41.77468],[-93.51614,41.77212],[-93.50968,41.7718],[-93.50343,41.76698],[-93.50261,41.76262],[-93.50882,41.75868],[-93.50272,41.7568],[-93.50107,41.75506],[-93.50048,41.74898],[-93.49469,41.74806],[-93.49288,41.74331],[-93.48728,41.74282],[-93.48298,41.74056],[-93.46439,41.74183],[-93.46275,41.7353],[-93.4646,41.72797],[-93.45846,41.72637],[-93.45956,41.72229],[-93.45749,41.71936],[-93.45728,41.71514],[-93.45258,41.71342],[-93.45279,41.70632],[-93.44953,41.70466],[-93.44936,41.70158],[-93.44359,41.69792],[-93.44246,41.69616],[-93.44417,41.69354],[-93.44151,41.68919],[-93.43179,41.68445],[-93.42812,41.68908],[-93.41935,41.69402],[-93.41335,41.69254],[-93.40304,41.69527],[-93.39479,41.69508],[-93.38908,41.69796],[-93.37509,41.69537],[-93.37388,41.6903],[-93.3714,41.68881],[-93.36773,41.67959],[-93.36258,41.67872],[-93.35956,41.67387],[-93.36055,41.67105],[-93.356,41.66669],[-93.35657,41.66494],[-93.35058,41.66161],[-93.35376,41.65711],[-93.35262,41.65575],[-93.34864,41.6559],[-93.34692,41.65269],[-93.34239,41.65289],[-93.34012,41.65083],[-93.33711,41.65085],[-93.33013,41.64396],[-93.32507,41.6425],[-93.3222,41.63474],[-93.31503,41.63717],[-93.31329,41.63992],[-93.30971,41.63931],[-93.30333,41.63199],[-93.2899,41.63224],[-93.28847,41.62741],[-93.28582,41.62504],[-93.28549,41.62128],[-93.27298,41.6192],[-93.2705,41.61353],[-93.27162,41.61008],[-93.26992,41.60734],[-93.26565,41.60512],[-93.26238,41.59633],[-93.25949,41.59561],[-93.25124,41.5985],[-93.24175,41.59469],[-93.23607,41.60074],[-93.23236,41.60054],[-93.22718,41.59626],[-93.22153,41.59762],[-93.21447,41.59684],[-93.19942,41.58746],[-93.18867,41.58871],[-93.18613,41.58729],[-93.18304,41.58282],[-93.1656,41.57412],[-93.15163,41.56296],[-93.14483,41.56068],[-93.1432,41.55713],[-93.13736,41.55622],[-93.1362,41.55138],[-93.13246,41.54886],[-93.12272,41.54657],[-93.11375,41.54066],[-93.1145,41.53571],[-93.11172,41.53317],[-93.11288,41.53089],[-93.1108,41.52867],[-93.10957,41.52286],[-93.09862,41.51714],[-93.09378,41.5182],[-93.0891,41.51585],[-93.08517,41.50929],[-93.07718,41.50497],[-93.07718,41.49986],[-93.07428,41.49295],[-93.06969,41.49064],[-93.06889,41.48705],[-93.06021,41.48634],[-93.05791,41.48066],[-93.05138,41.48052],[-93.04513,41.47447],[-93.03538,41.47282],[-93.0325,41.46154],[-93.02671,41.45607],[-93.02555,41.44934],[-93.02088,41.44539],[-93.01145,41.44043],[-93.00188,41.44045],[-92.99843,41.43878],[-92.99786,41.43663],[-92.98882,41.43267],[-92.97628,41.42423],[-92.96701,41.42169],[-92.96438,41.41997],[-92.96075,41.41102],[-92.95763,41.40878],[-92.94828,41.40926],[-92.94065,41.41222],[-92.93872,41.41198],[-92.93824,41.41016],[-92.93344,41.41123],[-92.93046,41.40921],[-92.92454,41.40932],[-92.91918,41.40661],[-92.9205,41.40387],[-92.91751,41.39733],[-92.89703,41.39573],[-92.89473,41.39863],[-92.89407,41.4032],[-92.89132,41.40467],[-92.89088,41.40861],[-92.88533,41.40862],[-92.88207,41.41134],[-92.88209,41.41912],[-92.87491,41.42067],[-92.87311,41.41854],[-92.87015,41.41811],[-92.85901,41.41927],[-92.85611,41.42259],[-92.85007,41.42163],[-92.84692,41.42067],[-92.84319,41.41495],[-92.844,41.40505],[-92.84166,41.40107],[-92.84346,41.39771],[-92.84112,41.39199],[-92.83508,41.38995],[-92.82624,41.38364],[-92.80991,41.38446],[-92.80265,41.38277],[-92.79579,41.37905],[-92.79407,41.37674],[-92.79538,41.37013],[-92.79167,41.36833],[-92.79048,41.36533],[-92.78537,41.36434],[-92.78303,41.36109],[-92.77881,41.35918],[-92.76733,41.35701],[-92.76259,41.35019],[-92.75924,41.34918],[-92.75879,41.34717],[-92.75563,41.34586],[-92.75444,41.34218],[-92.75041,41.33996],[-92.74053,41.34239],[-92.72239,41.33916],[-92.71782,41.341],[-92.70854,41.33606],[-92.70678,41.3334],[-92.69975,41.3333],[-92.69654,41.32835],[-92.69606,41.32367],[-92.69242,41.31997],[-92.67954,41.31831],[-92.67618,41.31618],[-92.67586,41.31355],[-92.66677,41.31233],[-92.66777,41.30977],[-92.66561,41.30613],[-92.65864,41.30396],[-92.64884,41.29417],[-92.64003,41.29274],[-92.63576,41.28819],[-92.63004,41.28619],[-92.62926,41.28396],[-92.6193,41.2773],[-92.61405,41.27174],[-92.59431,41.26376],[-92.58824,41.25916],[-92.58032,41.25718],[-92.579,41.25427],[-92.57097,41.24929],[-92.56433,41.24929],[-92.56016,41.24312],[-92.56,41.24044],[-92.56232,41.23851],[-92.5703,41.23879],[-92.57282,41.23691],[-92.5727,41.22537],[-92.58915,41.21375],[-92.58515,41.20506],[-92.58644,41.20269],[-92.57944,41.19821],[-92.5825,41.19342],[-92.5827,41.18891],[-92.57457,41.18663],[-92.56533,41.18155],[-92.56176,41.18191],[-92.55447,41.17789],[-92.5491,41.17875],[-92.54488,41.17449],[-92.54028,41.17354],[-92.53721,41.17069],[-92.53202,41.172],[-92.52682,41.16809],[-92.51956,41.16627],[-92.51909,41.1636],[-92.51133,41.15293],[-92.50292,41.14787],[-92.4935,41.14618],[-92.49316,41.14363],[-92.48711,41.14546],[-92.48008,41.14322],[-92.4789,41.14004],[-92.46462,41.13288],[-92.46274,41.12424],[-92.45733,41.12315],[-92.45502,41.11873],[-92.44922,41.11433],[-92.44582,41.10768],[-92.45406,41.09813],[-92.45445,41.09371],[-92.44404,41.08657],[-92.43751,41.07957],[-92.42675,41.07371],[-92.42102,41.06786],[-92.42232,41.06414],[-92.42058,41.06217],[-92.42062,41.05738],[-92.41596,41.05698],[-92.40732,41.06625],[-92.39689,41.06194],[-92.38618,41.06466],[-92.37798,41.06238],[-92.37373,41.059],[-92.36835,41.05858],[-92.36198,41.05023],[-92.35035,41.05038],[-92.35023,41.0468],[-92.3483,41.04555],[-92.33932,41.04775],[-92.33464,41.04645],[-92.3246,41.03427],[-92.32607,41.03011],[-92.32046,41.02283],[-92.32087,41.01831],[-92.32451,41.01523],[-92.3247,41.01019],[-92.3271,41.00661],[-92.32221,41.0009],[-92.32326,40.99776],[-92.31837,40.99494],[-92.31234,40.99601],[-92.30365,40.99425],[-92.30121,40.98981],[-92.28994,40.98357],[-92.28663,40.98018],[-92.2723,40.97492],[-92.26675,40.96953],[-92.25387,40.9628],[-92.25255,40.96058],[-92.24918,40.96257],[-92.24182,40.96059],[-92.23695,40.95514],[-92.23612,40.95178],[-92.23362,40.95028],[-92.22281,40.9478],[-92.2192,40.94539],[-92.21424,40.94696],[-92.21377,40.94909],[-92.20946,40.95102],[-92.19163,40.94993],[-92.18616,40.95807],[-92.17956,40.96068],[-92.17153,40.95603],[-92.1716,40.95357],[-92.16584,40.95125],[-92.1625,40.94742],[-92.15742,40.94803],[-92.15179,40.94539],[-92.14514,40.9462],[-92.14112,40.94316],[-92.13446,40.95038],[-92.12375,40.95512],[-92.1208,40.95812],[-92.11098,40.96053],[-92.10813,40.96456],[-92.10304,40.96251],[-92.09917,40.95724],[-92.09669,40.95671],[-92.09025,40.96393],[-92.07638,40.96627],[-92.0696,40.96428],[-92.06227,40.96437],[-92.05046,40.96037],[-92.04481,40.95697],[-92.04219,40.9525],[-92.03395,40.95064],[-92.02866,40.94495],[-92.01862,40.94801],[-92.01918,40.95096],[-92.01643,40.95339],[-92.00906,40.95],[-92.00825,40.94352],[-91.99911,40.93802],[-91.9943,40.93285],[-91.9996,40.93159],[-91.99873,40.92292],[-92.00257,40.91956],[-92.00216,40.91757],[-91.99379,40.91008],[-91.99322,40.90521],[-91.98225,40.90422],[-91.97731,40.90216],[-91.97237,40.9043],[-91.9676,40.90223],[-91.95436,40.8905],[-91.95547,40.88226],[-91.95274,40.8822],[-91.94751,40.87402],[-91.93696,40.87262],[-91.92448,40.87462],[-91.9109,40.86105],[-91.90446,40.86042],[-91.901,40.85831],[-91.89566,40.86018],[-91.89232,40.86554],[-91.89013,40.86623],[-91.87268,40.86357],[-91.87163,40.86857],[-91.86676,40.87276],[-91.86138,40.87361],[-91.84546,40.86831],[-91.84001,40.86128],[-91.83149,40.85552],[-91.83344,40.85424],[-91.83398,40.82653],[-91.84089,40.82728],[-91.84896,40.82445],[-91.85181,40.82106],[-91.85172,40.81852],[-91.86236,40.81557],[-91.86281,40.81376],[-91.86673,40.81162],[-91.87448,40.81118],[-91.88366,40.8139],[-91.88966,40.81853],[-91.89776,40.81935],[-91.91264,40.80857],[-91.92251,40.80861],[-91.92779,40.80448],[-91.92774,40.80191],[-91.93289,40.79686],[-91.92969,40.79387],[-91.92956,40.79118],[-91.93413,40.78497],[-91.93292,40.77756],[-91.9352,40.77355],[-91.94674,40.77221],[-91.95198,40.76456],[-91.95743,40.76306],[-91.95608,40.75619],[-91.959,40.74894],[-91.96713,40.75015],[-91.97479,40.74779],[-91.97839,40.7412],[-91.96914,40.73789],[-91.95293,40.73503],[-91.95053,40.73308],[-91.95157,40.72346],[-91.95341,40.7203],[-91.94799,40.71477],[-91.94858,40.71086],[-91.94698,40.70723],[-91.95301,40.70065],[-91.95461,40.69916],[-91.95943,40.69973],[-91.96378,40.69574],[-91.97049,40.69695],[-91.97527,40.69499],[-91.98999,40.69913],[-91.99337,40.69544],[-91.99615,40.69609],[-91.99656,40.69852],[-91.99991,40.69795]],[[-93.74445,41.50312],[-93.73616,41.50273],[-93.73278,41.50489],[-93.73168,41.50694],[-93.7326,41.51205],[-93.72966,41.51256],[-93.72505,41.51658],[-93.72233,41.51616],[-93.72108,41.52123],[-93.73337,41.52696],[-93.74049,41.52866],[-93.74695,41.52785],[-93.75314,41.53092],[-93.75668,41.53487],[-93.76099,41.5344],[-93.76078,41.52948],[-93.75686,41.52374],[-93.75866,41.51849],[-93.75473,41.5166],[-93.75307,41.5126],[-93.75291,41.50531],[-93.74445,41.50312]],[[-93.91987,41.75817],[-93.91503,41.76286],[-93.90468,41.76378],[-93.90282,41.76622],[-93.88333,41.77339],[-93.88283,41.77473],[-93.88685,41.77645],[-93.89392,41.7741],[-93.90407,41.77507],[-93.89468,41.78211],[-93.89699,41.78636],[-93.92263,41.78142],[-93.92732,41.77571],[-93.92217,41.76583],[-93.92531,41.75771],[-93.91987,41.75817]],[[-93.8267,43.09866],[-93.83049,43.09417],[-93.82751,43.0902],[-93.83094,43.09039],[-93.83615,43.08768],[-93.8349,43.08563],[-93.83849,43.08275],[-93.83235,43.07433],[-93.82484,43.07147],[-93.82401,43.06664],[-93.81891,43.06387],[-93.8155,43.06483],[-93.81685,43.06894],[-93.81462,43.07268],[-93.81744,43.07694],[-93.81448,43.08558],[-93.8158,43.09754],[-93.82358,43.09794],[-93.82477,43.09525],[-93.8267,43.09866]],[[-95.78337,43.87953],[-95.77873,43.87738],[-95.7687,43.88188],[-95.76821,43.88463],[-95.77323,43.88321],[-95.77831,43.88504],[-95.78363,43.88335],[-95.78337,43.87953]]]}}]}