{"type":"FeatureCollection","features":[{"type":"Feature","properties":{},"geometry":{"type":"Polygon","coordinates":[[[-96.26883,43.16114],[-96.27237,43.16152],[-96.2752,43.16523],[-96.27499,43.16715],[-96.28218,43.17187],[-96.28873,43.17008],[-96.29133,43.17249],[-96.30339,43.17323],[-96.31881,43.18411],[-96.34441,43.18042],[-96.34921,43.18355],[-96.35361,43.18108],[-96.35621,43.18468],[-96.36262,43.18709],[-96.36122,43.19078],[-96.36197,43.19383],[-96.35916,43.19671],[-96.36345,43.19718],[-96.36524,43.20132],[-96.36195,43.20935],[-96.36207,43.21327],[-96.36019,43.21511],[-96.36129,43.21664],[-96.35622,43.22039],[-96.35182,43.21895],[-96.34758,43.22238],[-96.34409,43.22187],[-96.33882,43.22412],[-96.33012,43.225],[-96.33108,43.227],[-96.32844,43.23077],[-96.32529,43.23174],[-96.32612,43.23446],[-96.31386,43.23877],[-96.30955,43.24627],[-96.30991,43.2492],[-96.30318,43.25171],[-96.30421,43.25435],[-96.30992,43.2583],[-96.30898,43.25973],[-96.31213,43.2611],[-96.31544,43.26707],[-96.32018,43.27006],[-96.32089,43.27193],[-96.31665,43.2735],[-96.31774,43.27758],[-96.31541,43.27899],[-96.31697,43.28694],[-96.32953,43.29102],[-96.33309,43.29436],[-96.3322,43.29649],[-96.33521,43.30272],[-96.33872,43.30482],[-96.33996,43.30764],[-96.33706,43.31196],[-96.34711,43.323],[-96.35288,43.32573],[-96.35291,43.33373],[-96.35835,43.33746],[-96.35967,43.34177],[-96.36255,43.34249],[-96.36796,43.35392],[-96.37208,43.35578],[-96.37805,43.36168],[-96.37493,43.36643],[-96.37868,43.37255],[-96.37905,43.37876],[-96.38316,43.38264],[-96.37828,43.38958],[-96.3794,43.39357],[-96.38383,43.39875],[-96.38058,43.40274],[-96.38201,43.40524],[-96.38111,43.40846],[-96.38241,43.41138],[-96.39212,43.41726],[-96.39193,43.42134],[-96.38806,43.42319],[-96.38541,43.42796],[-96.38627,43.43138],[-96.38272,43.43462],[-96.38239,43.439],[-96.38519,43.44255],[-96.38393,43.44655],[-96.38673,43.45034],[-96.39245,43.45393],[-96.39863,43.46342],[-96.41291,43.46907],[-96.41166,43.47318],[-96.41258,43.47686],[-96.41122,43.47841],[-96.4119,43.48459],[-96.40967,43.48789],[-96.4123,43.49192],[-96.40898,43.49757],[-96.40478,43.49855],[-96.39576,43.50521],[-96.39639,43.50895],[-96.39954,43.51112],[-96.39414,43.51432],[-96.39568,43.51804],[-96.40035,43.52115],[-96.39861,43.52174],[-96.3952,43.5283],[-96.39878,43.53281],[-96.39768,43.53657],[-96.40508,43.54174],[-96.40221,43.55027],[-96.39377,43.55335],[-96.38843,43.55354],[-96.37393,43.56272],[-96.37008,43.57076],[-96.37175,43.57267],[-96.36936,43.57291],[-96.3673,43.57699],[-96.37052,43.58357],[-96.36504,43.58676],[-96.35615,43.58643],[-96.35305,43.58923],[-96.34925,43.58899],[-96.34627,43.59088],[-96.34718,43.59288],[-96.345,43.59479],[-96.34211,43.59486],[-96.33981,43.60072],[-96.33322,43.60244],[-96.33108,43.60402],[-96.33146,43.60702],[-96.32507,43.61002],[-96.32081,43.6091],[-96.31932,43.61168],[-96.32026,43.61292],[-96.31148,43.61825],[-96.30517,43.6172],[-96.30115,43.62041],[-96.28975,43.61803],[-96.28144,43.61871],[-96.25991,43.62671],[-96.25951,43.63077],[-96.27003,43.63773],[-96.26989,43.64052],[-96.27281,43.64299],[-96.26247,43.65375],[-96.25884,43.65511],[-96.25379,43.65333],[-96.25006,43.65415],[-96.25002,43.656],[-96.24556,43.65897],[-96.24203,43.66528],[-96.23738,43.66719],[-96.2351,43.6666],[-96.2307,43.67018],[-96.2315,43.6728],[-96.23574,43.67547],[-96.23175,43.67849],[-96.23076,43.68137],[-96.23601,43.69584],[-96.23415,43.69934],[-96.22775,43.69927],[-96.22525,43.70378],[-96.21681,43.70404],[-96.21113,43.70619],[-96.22173,43.71672],[-96.23092,43.71913],[-96.23311,43.72112],[-96.23125,43.72516],[-96.23239,43.73391],[-96.22921,43.73551],[-96.22792,43.74039],[-96.23091,43.75154],[-96.22724,43.7588],[-96.22856,43.76149],[-96.22503,43.76631],[-96.22335,43.77236],[-96.22577,43.77612],[-96.22454,43.77955],[-96.22846,43.78567],[-96.22718,43.78818],[-96.22867,43.79474],[-96.23086,43.79695],[-96.24316,43.80179],[-96.24596,43.80684],[-96.25344,43.81028],[-96.25881,43.81735],[-96.26174,43.81729],[-96.26227,43.81949],[-96.27354,43.82128],[-96.28012,43.83291],[-96.27978,43.83829],[-96.29185,43.84378],[-96.29893,43.85154],[-96.29929,43.85422],[-96.29633,43.85734],[-96.29762,43.85984],[-96.29557,43.8643],[-96.29528,43.87161],[-96.29278,43.8746],[-96.29248,43.87832],[-96.28948,43.8794],[-96.28959,43.88258],[-96.28659,43.88574],[-96.28783,43.89139],[-96.29406,43.89876],[-96.28779,43.90514],[-96.28826,43.90833],[-96.28414,43.91537],[-96.27784,43.91798],[-96.27467,43.92145],[-96.26605,43.92461],[-96.26631,43.92685],[-96.26194,43.92836],[-96.26009,43.93434],[-96.25625,43.93412],[-96.24837,43.94028],[-96.24023,43.94056],[-96.23874,43.94218],[-96.24053,43.94731],[-96.23765,43.95401],[-96.24022,43.95693],[-96.23862,43.96603],[-96.24017,43.96892],[-96.24738,43.9719],[-96.24839,43.9739],[-96.24464,43.98214],[-96.24039,43.98564],[-96.23954,43.99339],[-96.23631,43.99595],[-96.24143,44.00365],[-96.23822,44.00782],[-96.24236,44.01104],[-96.24312,44.0148],[-96.23631,44.01724],[-96.23698,44.01845],[-96.23547,44.01911],[-96.23377,44.02504],[-96.22388,44.02544],[-96.21163,44.03153],[-96.2106,44.03712],[-96.21586,44.03792],[-96.22149,44.04319],[-96.2267,44.04469],[-96.22782,44.05279],[-96.22074,44.05813],[-96.21565,44.05935],[-96.20928,44.06666],[-96.20987,44.06786],[-96.20499,44.06975],[-96.20187,44.0803],[-96.19778,44.08241],[-96.19732,44.08569],[-96.18031,44.1029],[-96.17782,44.11266],[-96.17919,44.12076],[-96.17807,44.12268],[-96.16782,44.1279],[-96.16539,44.13166],[-96.15813,44.13273],[-96.15327,44.13117],[-96.15126,44.13308],[-96.14124,44.13468],[-96.13566,44.12909],[-96.13732,44.12489],[-96.13537,44.12147],[-96.13117,44.12179],[-96.12476,44.11807],[-96.12053,44.12071],[-96.11893,44.11994],[-96.11955,44.11784],[-96.11278,44.1163],[-96.11049,44.11287],[-96.1066,44.11292],[-96.10065,44.10003],[-96.1038,44.09545],[-96.0889,44.09356],[-96.08915,44.08843],[-96.09328,44.08762],[-96.09368,44.08457],[-96.09172,44.08257],[-96.0934,44.07956],[-96.0915,44.07679],[-96.0838,44.07325],[-96.08295,44.07125],[-96.08416,44.06913],[-96.08197,44.06768],[-96.08141,44.06437],[-96.07868,44.06516],[-96.07514,44.06299],[-96.06932,44.06289],[-96.07038,44.05643],[-96.06658,44.05052],[-96.06091,44.048],[-96.05766,44.04057],[-96.04592,44.03519],[-96.04415,44.02884],[-96.04225,44.02766],[-96.04553,44.02473],[-96.0455,44.02141],[-96.03736,44.01556],[-96.04084,44.01359],[-96.03918,44.00976],[-96.03963,44.00604],[-96.03285,43.99995],[-96.03341,43.99878],[-96.0245,43.99381],[-96.0218,43.99068],[-96.01708,43.99108],[-96.01482,43.98516],[-96.01017,43.98176],[-96.01134,43.97872],[-96.00821,43.97643],[-96.00872,43.9699],[-96.00582,43.96929],[-96.0031,43.96381],[-95.99531,43.9588],[-95.9918,43.96026],[-95.98255,43.95934],[-95.98318,43.95377],[-95.98518,43.95261],[-95.97956,43.94212],[-95.94369,43.94414],[-95.94112,43.95207],[-95.94189,43.95709],[-95.94429,43.95852],[-95.93988,43.96244],[-95.93739,43.96212],[-95.93603,43.95932],[-95.92139,43.95843],[-95.91652,43.9612],[-95.91169,43.96072],[-95.9119,43.96374],[-95.9076,43.96162],[-95.90156,43.96427],[-95.90123,43.96032],[-95.89545,43.95682],[-95.89653,43.95194],[-95.89455,43.949],[-95.88205,43.94903],[-95.87516,43.94481],[-95.87475,43.94137],[-95.86969,43.9396],[-95.86548,43.94181],[-95.86644,43.94403],[-95.86442,43.94793],[-95.85672,43.95385],[-95.85095,43.9537],[-95.8466,43.9514],[-95.84688,43.94879],[-95.84967,43.94765],[-95.85362,43.94247],[-95.85392,43.9404],[-95.84806,43.93827],[-95.84806,43.93361],[-95.85019,43.92859],[-95.85215,43.92805],[-95.85174,43.92565],[-95.85393,43.92123],[-95.84855,43.91397],[-95.85059,43.90916],[-95.84764,43.90945],[-95.84573,43.90733],[-95.856,43.90231],[-95.85951,43.89444],[-95.85739,43.89067],[-95.8473,43.88448],[-95.84205,43.88633],[-95.83644,43.88596],[-95.83258,43.88856],[-95.82468,43.88682],[-95.82405,43.88471],[-95.82905,43.88349],[-95.83141,43.87908],[-95.83699,43.87648],[-95.82858,43.87047],[-95.83181,43.86848],[-95.83274,43.8658],[-95.83962,43.86279],[-95.85521,43.86261],[-95.85758,43.85942],[-95.8612,43.85894],[-95.85879,43.85705],[-95.85934,43.85595],[-95.86645,43.85424],[-95.87028,43.85091],[-95.87737,43.84875],[-95.87305,43.84445],[-95.8767,43.84046],[-95.87234,43.83344],[-95.8725,43.82742],[-95.87779,43.82428],[-95.87796,43.81694],[-95.88207,43.81524],[-95.88537,43.81584],[-95.88563,43.81405],[-95.8822,43.81224],[-95.88216,43.80987],[-95.87658,43.80502],[-95.87648,43.80192],[-95.87209,43.80153],[-95.87011,43.79975],[-95.86726,43.80033],[-95.86448,43.79413],[-95.86136,43.7923],[-95.85503,43.78341],[-95.85408,43.77945],[-95.85018,43.77708],[-95.84828,43.77314],[-95.83548,43.77094],[-95.83328,43.77271],[-95.82656,43.76829],[-95.82386,43.76934],[-95.81388,43.76496],[-95.81187,43.76676],[-95.8082,43.76378],[-95.80636,43.75615],[-95.80156,43.7564],[-95.79795,43.7509],[-95.78867,43.75223],[-95.77968,43.75141],[-95.77598,43.74896],[-95.76116,43.74626],[-95.75811,43.74653],[-95.75743,43.74812],[-95.75456,43.74695],[-95.75483,43.74384],[-95.75206,43.74424],[-95.75061,43.74194],[-95.74728,43.74378],[-95.74048,43.74294],[-95.73834,43.74505],[-95.72888,43.74105],[-95.7239,43.74325],[-95.72343,43.74578],[-95.72155,43.74658],[-95.71556,43.74409],[-95.71363,43.74172],[-95.71224,43.73849],[-95.71428,43.73751],[-95.71728,43.73034],[-95.7152,43.7294],[-95.71155,43.7229],[-95.71067,43.72029],[-95.71233,43.71618],[-95.7032,43.7135],[-95.70505,43.71152],[-95.70394,43.70479],[-95.69919,43.7021],[-95.69708,43.6984],[-95.70015,43.69829],[-95.69962,43.69382],[-95.70291,43.69237],[-95.71152,43.68243],[-95.7163,43.68031],[-95.71784,43.67634],[-95.72093,43.67386],[-95.72171,43.66956],[-95.72545,43.66546],[-95.7284,43.6645],[-95.72787,43.66271],[-95.721,43.66158],[-95.71645,43.65826],[-95.71384,43.65935],[-95.71046,43.65546],[-95.70116,43.65257],[-95.70115,43.65103],[-95.70638,43.64899],[-95.70599,43.64534],[-95.70902,43.64079],[-95.70822,43.62852],[-95.70114,43.62501],[-95.69372,43.62774],[-95.68692,43.6225],[-95.68401,43.62236],[-95.68166,43.6179],[-95.68417,43.61548],[-95.68189,43.61151],[-95.68478,43.60992],[-95.68025,43.60817],[-95.6777,43.61029],[-95.6754,43.60986],[-95.67285,43.60747],[-95.67097,43.60384],[-95.67168,43.60196],[-95.66871,43.60012],[-95.67168,43.59568],[-95.66411,43.58629],[-95.66421,43.58311],[-95.65688,43.58055],[-95.65902,43.57773],[-95.65659,43.57544],[-95.66258,43.57169],[-95.67339,43.57252],[-95.67409,43.57039],[-95.67284,43.56889],[-95.67802,43.56309],[-95.68847,43.56521],[-95.69526,43.56206],[-95.69193,43.55919],[-95.69381,43.55308],[-95.69565,43.55181],[-95.69589,43.54597],[-95.69961,43.54572],[-95.70748,43.53927],[-95.7025,43.53671],[-95.69218,43.53683],[-95.68488,43.53087],[-95.68237,43.52644],[-95.67493,43.52298],[-95.68354,43.51599],[-95.68431,43.51303],[-95.68235,43.50866],[-95.6838,43.49998],[-95.68985,43.49983],[-95.69069,43.49447],[-95.69521,43.48813],[-95.69149,43.48348],[-95.69157,43.47998],[-95.69005,43.47946],[-95.69327,43.47032],[-95.68599,43.4555],[-95.68727,43.45291],[-95.68515,43.44918],[-95.69821,43.44276],[-95.6957,43.43729],[-95.69625,43.43275],[-95.69,43.42452],[-95.6812,43.41693],[-95.67474,43.41716],[-95.67396,43.40658],[-95.66922,43.40333],[-95.67122,43.39988],[-95.67091,43.39703],[-95.67386,43.39487],[-95.66859,43.38738],[-95.67095,43.38548],[-95.66839,43.38423],[-95.66576,43.37819],[-95.65669,43.36702],[-95.65718,43.36503],[-95.6544,43.35973],[-95.65607,43.35308],[-95.6513,43.3524],[-95.65104,43.34698],[-95.63549,43.34777],[-95.63365,43.34423],[-95.62675,43.3438],[-95.62335,43.34194],[-95.623,43.33754],[-95.61439,43.33402],[-95.61467,43.33087],[-95.61025,43.32698],[-95.61414,43.32468],[-95.61345,43.3216],[-95.61786,43.31588],[-95.61813,43.31277],[-95.61646,43.30482],[-95.61354,43.30135],[-95.61317,43.29729],[-95.60913,43.28971],[-95.60973,43.28775],[-95.61474,43.28829],[-95.62394,43.29262],[-95.63943,43.29685],[-95.65241,43.30671],[-95.66757,43.30611],[-95.68428,43.31375],[-95.69629,43.3072],[-95.69903,43.30337],[-95.69765,43.30031],[-95.69945,43.29912],[-95.71231,43.29763],[-95.72068,43.29402],[-95.72482,43.28731],[-95.73266,43.28153],[-95.74216,43.27901],[-95.75083,43.27977],[-95.75384,43.27519],[-95.76768,43.2704],[-95.77154,43.27096],[-95.77786,43.26829],[-95.78669,43.26849],[-95.80075,43.26588],[-95.81313,43.26817],[-95.8204,43.26289],[-95.82861,43.26162],[-95.83833,43.25352],[-95.84637,43.25057],[-95.84833,43.24659],[-95.85205,43.245],[-95.85469,43.23924],[-95.86264,43.23687],[-95.86654,43.23749],[-95.86954,43.22935],[-95.87851,43.22769],[-95.89251,43.21939],[-95.89405,43.21548],[-95.88981,43.20883],[-95.89815,43.20313],[-95.89852,43.19883],[-95.91411,43.20019],[-95.91464,43.20463],[-95.91781,43.20798],[-95.93525,43.2096],[-95.93592,43.20232],[-95.9424,43.1996],[-95.94912,43.20057],[-95.95307,43.19591],[-95.95737,43.19359],[-95.965,43.19303],[-95.96818,43.19107],[-95.97344,43.1955],[-95.98591,43.19577],[-95.98779,43.1971],[-95.99054,43.20451],[-95.99783,43.20605],[-96.00393,43.20937],[-96.0039,43.21392],[-96.00525,43.2151],[-96.01046,43.21679],[-96.02651,43.22917],[-96.03753,43.23058],[-96.05003,43.22788],[-96.04806,43.22089],[-96.054,43.21632],[-96.06301,43.21759],[-96.0649,43.22036],[-96.07219,43.21793],[-96.07347,43.21483],[-96.0827,43.21073],[-96.08286,43.20411],[-96.09264,43.20294],[-96.0952,43.20591],[-96.10037,43.20582],[-96.10759,43.19872],[-96.10629,43.19184],[-96.11959,43.19844],[-96.12477,43.19667],[-96.12776,43.1905],[-96.13052,43.18892],[-96.13733,43.1894],[-96.14243,43.18495],[-96.14678,43.1837],[-96.15078,43.17745],[-96.15903,43.17289],[-96.16524,43.17459],[-96.16891,43.18019],[-96.17788,43.18747],[-96.18304,43.18974],[-96.18556,43.18908],[-96.18848,43.186],[-96.19764,43.18222],[-96.19859,43.17745],[-96.20165,43.17671],[-96.20346,43.17339],[-96.21085,43.17211],[-96.21233,43.17022],[-96.21198,43.1639],[-96.20953,43.1608],[-96.21451,43.15598],[-96.22325,43.15973],[-96.24877,43.15596],[-96.25494,43.16075],[-96.26174,43.16102],[-96.26272,43.15912],[-96.26883,43.16114]]]}}]}