{"type":"FeatureCollection","features":[{"type":"Feature","properties":{},"geometry":{"type":"Polygon","coordinates":[[[-90.67865,42.46268],[-90.67865,42.45852],[-90.68282,42.45852],[-90.68282,42.45435],[-90.69115,42.45435],[-90.69115,42.45018],[-90.70365,42.45018],[-90.70365,42.44185],[-90.71615,42.44185],[-90.71615,42.43351],[-90.72032,42.43351],[-90.72032,42.42935],[-90.72449,42.42935],[-90.72449,42.42101],[-90.72865,42.42101],[-90.72865,42.41685],[-90.72449,42.41685],[-90.72449,42.41268],[-90.72032,42.41268],[-90.72032,42.40851],[-90.71198,42.40851],[-90.71198,42.40435],[-90.69532,42.40435],[-90.69532,42.40018],[-90.69115,42.40018],[-90.69115,42.39184],[-90.67865,42.39184],[-90.67865,42.39601],[-90.67032,42.39601],[-90.67032,42.40018],[-90.66198,42.40018],[-90.66198,42.40851],[-90.64948,42.40851],[-90.64948,42.41268],[-90.64531,42.41268],[-90.64531,42.41685],[-90.64948,42.41685],[-90.64948,42.42101],[-90.65781,42.42101],[-90.65781,42.42518],[-90.65365,42.42518],[-90.65365,42.43351],[-90.65781,42.43351],[-90.65781,42.43768],[-90.66198,42.43768],[-90.66198,42.45852],[-90.67032,42.45852],[-90.67032,42.46268],[-90.67865,42.46268]]]}}]}