{"type":"FeatureCollection","features":[{"type":"Feature","properties":{},"geometry":{"type":"Polygon","coordinates":[[[-91.37454,43.05856],[-91.37454,43.0544],[-91.3787,43.0544],[-91.3787,43.05023],[-91.37454,43.05023],[-91.37454,43.04606],[-91.37037,43.04606],[-91.37037,43.03773],[-91.36204,43.03773],[-91.36204,43.0294],[-91.35787,43.0294],[-91.35787,43.02523],[-91.34954,43.02523],[-91.34954,43.03356],[-91.34537,43.03356],[-91.34537,43.03773],[-91.3412,43.03773],[-91.3412,43.0419],[-91.34954,43.0419],[-91.34954,43.04606],[-91.3537,43.04606],[-91.3537,43.05023],[-91.36204,43.05023],[-91.36204,43.05856],[-91.37454,43.05856]]]}}]}