{"type":"FeatureCollection","features":[{"type":"Feature","properties":{},"geometry":{"type":"Polygon","coordinates":[[[-91.49138,43.38926],[-91.49083,43.38352],[-91.48777,43.37622],[-91.48891,43.37261],[-91.49261,43.37047],[-91.49336,43.36703],[-91.49114,43.3645],[-91.49584,43.36145],[-91.49893,43.35552],[-91.4982,43.35344],[-91.5032,43.35092],[-91.5048,43.34824],[-91.50446,43.34316],[-91.50677,43.3419],[-91.50489,43.33494],[-91.50699,43.33327],[-91.50512,43.33035],[-91.50785,43.32755],[-91.50684,43.32388],[-91.4978,43.3198],[-91.49359,43.31589],[-91.49155,43.31039],[-91.49311,43.30929],[-91.49189,43.3051],[-91.4928,43.30227],[-91.49617,43.2993],[-91.49452,43.29602],[-91.50291,43.28977],[-91.50206,43.28618],[-91.5044,43.2836],[-91.50328,43.28153],[-91.51415,43.27469],[-91.51793,43.27485],[-91.52275,43.27243],[-91.53513,43.27212],[-91.54082,43.26479],[-91.54919,43.26537],[-91.55894,43.26231],[-91.56557,43.26379],[-91.56791,43.2626],[-91.5778,43.26326],[-91.58365,43.26203],[-91.58529,43.25978],[-91.59254,43.25639],[-91.59672,43.25102],[-91.59515,43.24676],[-91.59669,43.24442],[-91.60129,43.24354],[-91.60203,43.24199],[-91.61069,43.24186],[-91.61579,43.23643],[-91.61453,43.22827],[-91.61739,43.22616],[-91.6187,43.22115],[-91.617,43.21867],[-91.62004,43.21178],[-91.62551,43.20513],[-91.62588,43.20176],[-91.63487,43.20258],[-91.6412,43.20081],[-91.64385,43.20351],[-91.65085,43.20044],[-91.65765,43.20443],[-91.6601,43.20315],[-91.66016,43.20032],[-91.66489,43.19488],[-91.67397,43.19313],[-91.68904,43.18368],[-91.69816,43.18847],[-91.70432,43.18875],[-91.70674,43.18709],[-91.70974,43.18876],[-91.71237,43.1864],[-91.71834,43.18465],[-91.72423,43.18528],[-91.72834,43.18323],[-91.74009,43.1875],[-91.74603,43.1928],[-91.74803,43.19213],[-91.74913,43.18842],[-91.75396,43.18676],[-91.75734,43.18757],[-91.75932,43.18404],[-91.76587,43.18149],[-91.76643,43.17851],[-91.77102,43.17628],[-91.77255,43.17013],[-91.77624,43.16662],[-91.79239,43.16956],[-91.79484,43.17206],[-91.80073,43.17055],[-91.80388,43.17268],[-91.80892,43.17223],[-91.81054,43.17463],[-91.81482,43.17636],[-91.83947,43.17927],[-91.84523,43.18269],[-91.85459,43.18034],[-91.8714,43.18647],[-91.87452,43.19287],[-91.87358,43.19607],[-91.87865,43.20374],[-91.87823,43.20536],[-91.88106,43.2062],[-91.88106,43.21044],[-91.89393,43.21375],[-91.8968,43.21556],[-91.89624,43.21826],[-91.89925,43.22027],[-91.90555,43.22047],[-91.90933,43.22286],[-91.91183,43.22738],[-91.92188,43.23334],[-91.92268,43.23644],[-91.92826,43.2412],[-91.92928,43.2447],[-91.93297,43.24675],[-91.93593,43.25341],[-91.93909,43.25633],[-91.93913,43.27311],[-91.94444,43.2787],[-91.94711,43.28441],[-91.95739,43.27808],[-91.96602,43.27622],[-91.97061,43.2768],[-91.97639,43.28081],[-91.97559,43.28407],[-91.97895,43.29149],[-91.99688,43.29804],[-92.00022,43.30882],[-92.00474,43.31544],[-92.01351,43.31898],[-92.01592,43.32256],[-92.03198,43.33123],[-92.03385,43.33608],[-92.04094,43.34091],[-92.04604,43.34202],[-92.05906,43.35505],[-92.0725,43.36046],[-92.08436,43.36172],[-92.08724,43.36681],[-92.10107,43.37041],[-92.10417,43.37334],[-92.1136,43.37119],[-92.12645,43.375],[-92.13889,43.37342],[-92.14452,43.37748],[-92.15942,43.3753],[-92.16856,43.37221],[-92.17207,43.37338],[-92.17219,43.37533],[-92.17665,43.37908],[-92.17859,43.38502],[-92.18659,43.39081],[-92.19023,43.39615],[-92.1891,43.39891],[-92.18383,43.3991],[-92.18027,43.40408],[-92.18461,43.4198],[-92.19377,43.42249],[-92.20045,43.42806],[-92.2,43.43003],[-92.20709,43.43094],[-92.20607,43.4333],[-92.20728,43.43417],[-92.204,43.43529],[-92.20461,43.43971],[-92.19971,43.44152],[-92.19804,43.44628],[-92.20262,43.44994],[-92.20316,43.45476],[-92.20797,43.45746],[-92.23449,43.45432],[-92.23437,43.44974],[-92.24177,43.44404],[-92.24105,43.44162],[-92.24355,43.44082],[-92.24278,43.43923],[-92.25247,43.43986],[-92.25652,43.43885],[-92.25858,43.43617],[-92.26834,43.43511],[-92.27072,43.42963],[-92.27377,43.42732],[-92.29195,43.43021],[-92.29849,43.4287],[-92.29871,43.42001],[-92.31772,43.40369],[-92.32389,43.40655],[-92.32902,43.40585],[-92.34087,43.40249],[-92.3433,43.39876],[-92.34653,43.39743],[-92.35624,43.3993],[-92.35948,43.4027],[-92.36452,43.40257],[-92.36855,43.40523],[-92.38319,43.40497],[-92.38734,43.40713],[-92.39581,43.40727],[-92.40489,43.41046],[-92.40732,43.41203],[-92.41043,43.41811],[-92.41811,43.42099],[-92.4262,43.42864],[-92.43265,43.43198],[-92.435,43.43577],[-92.43364,43.43754],[-92.43543,43.43894],[-92.44755,43.43638],[-92.45459,43.4287],[-92.46772,43.43416],[-92.488,43.43094],[-92.49605,43.42317],[-92.5093,43.41899],[-92.51422,43.42088],[-92.5185,43.42743],[-92.52865,43.43013],[-92.53273,43.4337],[-92.52973,43.43823],[-92.53614,43.44458],[-92.53833,43.44491],[-92.53774,43.4492],[-92.54796,43.4535],[-92.54558,43.45781],[-92.54781,43.46014],[-92.54803,43.46326],[-92.55543,43.46795],[-92.55969,43.47963],[-92.57228,43.48883],[-92.57412,43.49434],[-92.57972,43.49655],[-92.58644,43.50399],[-92.59293,43.50354],[-92.60639,43.50652],[-92.6088,43.51183],[-92.61936,43.51694],[-92.62504,43.52273],[-92.62845,43.52716],[-92.62812,43.5297],[-92.62988,43.53066],[-92.62844,43.53265],[-92.6286,43.53734],[-92.62506,43.54116],[-92.6293,43.54373],[-92.64002,43.54436],[-92.6428,43.55028],[-92.6519,43.54804],[-92.66046,43.55376],[-92.6601,43.55542],[-92.66372,43.56103],[-92.6664,43.56198],[-92.66597,43.56417],[-92.65501,43.57352],[-92.65546,43.57972],[-92.6575,43.58364],[-92.65625,43.594],[-92.65114,43.59844],[-92.64746,43.60732],[-92.63211,43.6141],[-92.62656,43.62068],[-92.60254,43.62302],[-92.59222,43.6159],[-92.58776,43.6163],[-92.57264,43.62234],[-92.56897,43.62275],[-92.56083,43.62033],[-92.54981,43.62178],[-92.52837,43.61221],[-92.51883,43.61627],[-92.51945,43.61907],[-92.51539,43.62505],[-92.50629,43.62615],[-92.50366,43.62797],[-92.49966,43.62623],[-92.49504,43.62129],[-92.48275,43.62418],[-92.47197,43.61933],[-92.46492,43.61904],[-92.46027,43.6217],[-92.45427,43.61995],[-92.44838,43.61642],[-92.44716,43.611],[-92.44523,43.60919],[-92.4452,43.60393],[-92.43995,43.60047],[-92.43485,43.59331],[-92.43196,43.59162],[-92.41853,43.59407],[-92.41378,43.59241],[-92.40131,43.59213],[-92.39483,43.58948],[-92.39075,43.587],[-92.39128,43.5788],[-92.38709,43.57698],[-92.38438,43.5702],[-92.36795,43.5662],[-92.36962,43.55805],[-92.36439,43.54888],[-92.35736,43.54788],[-92.35369,43.54446],[-92.34892,43.54384],[-92.34567,43.53821],[-92.33848,43.53794],[-92.33315,43.53295],[-92.31763,43.53105],[-92.30943,43.53273],[-92.29537,43.52786],[-92.29182,43.52453],[-92.27887,43.52566],[-92.27639,43.5219],[-92.27038,43.52071],[-92.26754,43.51742],[-92.24725,43.51847],[-92.24405,43.52523],[-92.23789,43.53005],[-92.23884,43.5381],[-92.24139,43.54245],[-92.23543,43.54635],[-92.23749,43.54825],[-92.23675,43.54915],[-92.23375,43.54939],[-92.22686,43.55796],[-92.21952,43.56303],[-92.20814,43.563],[-92.20546,43.56508],[-92.20685,43.56633],[-92.2051,43.5678],[-92.20009,43.56243],[-92.19639,43.56269],[-92.19335,43.56092],[-92.19254,43.55883],[-92.19554,43.55556],[-92.19148,43.55177],[-92.18445,43.54997],[-92.18167,43.54771],[-92.18148,43.54516],[-92.16716,43.53872],[-92.16352,43.54123],[-92.1572,43.54145],[-92.1539,43.53956],[-92.14155,43.54282],[-92.13705,43.53998],[-92.13279,43.53933],[-92.12743,43.5413],[-92.12542,43.54007],[-92.11673,43.54539],[-92.11247,43.54464],[-92.11111,43.54257],[-92.10221,43.541],[-92.1,43.54509],[-92.09452,43.54304],[-92.09009,43.54478],[-92.08243,43.5521],[-92.07814,43.55175],[-92.076,43.54707],[-92.07318,43.54541],[-92.07043,43.54675],[-92.06689,43.54484],[-92.05998,43.54659],[-92.05467,43.54159],[-92.04891,43.54107],[-92.04554,43.54527],[-92.04652,43.54919],[-92.02923,43.55197],[-92.02593,43.55444],[-92.01431,43.55235],[-92.00329,43.5586],[-91.98907,43.55557],[-91.97594,43.55685],[-91.96443,43.55285],[-91.96103,43.55355],[-91.9533,43.5517],[-91.95248,43.54815],[-91.95548,43.54477],[-91.95514,43.543],[-91.94719,43.5351],[-91.936,43.52931],[-91.92565,43.52654],[-91.90817,43.51684],[-91.90127,43.51673],[-91.89594,43.51307],[-91.88692,43.51332],[-91.87615,43.50883],[-91.87333,43.51015],[-91.86327,43.50343],[-91.85884,43.50579],[-91.85203,43.50416],[-91.8489,43.50659],[-91.8463,43.5064],[-91.84271,43.50081],[-91.83857,43.49903],[-91.83365,43.49981],[-91.82729,43.49627],[-91.82489,43.49657],[-91.81911,43.49009],[-91.81439,43.4914],[-91.81324,43.48998],[-91.81461,43.48678],[-91.81196,43.48579],[-91.80039,43.48399],[-91.78415,43.48586],[-91.78301,43.48052],[-91.77758,43.47826],[-91.7764,43.47439],[-91.7596,43.46907],[-91.76068,43.46692],[-91.75895,43.46114],[-91.75218,43.45744],[-91.74517,43.45692],[-91.74281,43.44283],[-91.73488,43.43861],[-91.72788,43.43723],[-91.72368,43.43279],[-91.72364,43.42574],[-91.71491,43.42134],[-91.71005,43.42006],[-91.70481,43.42127],[-91.69614,43.42033],[-91.68482,43.42265],[-91.67606,43.41967],[-91.67012,43.41947],[-91.66151,43.42],[-91.65913,43.42234],[-91.6566,43.4211],[-91.64867,43.42184],[-91.63868,43.41886],[-91.63494,43.42011],[-91.63176,43.4193],[-91.62321,43.42465],[-91.61916,43.4232],[-91.60772,43.42481],[-91.60251,43.42207],[-91.59159,43.42951],[-91.58671,43.43015],[-91.57418,43.4222],[-91.5611,43.41884],[-91.55384,43.4197],[-91.54486,43.42374],[-91.53769,43.42101],[-91.52849,43.42249],[-91.52053,43.42765],[-91.51208,43.42491],[-91.50457,43.42597],[-91.5026,43.42838],[-91.50032,43.42547],[-91.50285,43.42285],[-91.50247,43.42],[-91.49961,43.41373],[-91.49716,43.41262],[-91.49905,43.40957],[-91.49576,43.40519],[-91.48727,43.40068],[-91.48699,43.39368],[-91.49138,43.38926]]]}}]}