{"type":"FeatureCollection","features":[{"type":"Feature","properties":{},"geometry":{"type":"Polygon","coordinates":[[[-92.12917,42.05385],[-92.13515,42.05805],[-92.14395,42.05687],[-92.16022,42.07187],[-92.16335,42.07661],[-92.17581,42.07678],[-92.17771,42.07967],[-92.18528,42.08316],[-92.1871,42.08993],[-92.1983,42.09749],[-92.19882,42.10339],[-92.19652,42.10625],[-92.19689,42.11082],[-92.19539,42.11218],[-92.1916,42.11115],[-92.18768,42.11276],[-92.18954,42.11718],[-92.18762,42.1195],[-92.18104,42.12062],[-92.17886,42.12446],[-92.17124,42.12454],[-92.1624,42.12103],[-92.16043,42.12175],[-92.15488,42.11823],[-92.15585,42.11577],[-92.13524,42.10639],[-92.13199,42.10842],[-92.13197,42.11089],[-92.12606,42.11293],[-92.1254,42.11452],[-92.12201,42.11353],[-92.12047,42.11622],[-92.10835,42.11455],[-92.10937,42.11722],[-92.10694,42.12292],[-92.10771,42.12434],[-92.10541,42.12669],[-92.0994,42.12638],[-92.09576,42.13042],[-92.08712,42.13285],[-92.07291,42.13292],[-92.0683,42.13603],[-92.06951,42.13906],[-92.06853,42.1408],[-92.06016,42.14411],[-92.04743,42.14291],[-92.04809,42.14546],[-92.04255,42.14927],[-92.04415,42.15203],[-92.04032,42.15422],[-92.03965,42.15744],[-92.03279,42.15643],[-92.01843,42.16337],[-92.00884,42.16334],[-92.00238,42.16021],[-92.00291,42.15752],[-92.00167,42.15627],[-92.00523,42.15231],[-92.00468,42.15064],[-91.99621,42.13945],[-91.99171,42.13878],[-91.99223,42.13616],[-91.99411,42.13515],[-91.99292,42.13241],[-91.9965,42.12964],[-91.99255,42.12372],[-91.98851,42.12206],[-91.98805,42.11961],[-91.99143,42.11646],[-91.99545,42.11486],[-91.99799,42.11563],[-92.01128,42.11016],[-92.01209,42.10847],[-92.02138,42.10646],[-92.02094,42.10067],[-92.0239,42.10047],[-92.02619,42.09833],[-92.03962,42.09999],[-92.03966,42.09559],[-92.04102,42.09466],[-92.03855,42.09325],[-92.04426,42.08658],[-92.04329,42.08331],[-92.0474,42.07977],[-92.05769,42.0752],[-92.05369,42.07229],[-92.05675,42.06669],[-92.05652,42.0639],[-92.06576,42.05784],[-92.07784,42.05765],[-92.08894,42.05478],[-92.08657,42.04753],[-92.08332,42.04441],[-92.08577,42.0434],[-92.08899,42.03876],[-92.09389,42.03838],[-92.09314,42.03729],[-92.09535,42.0347],[-92.09973,42.03176],[-92.10606,42.0382],[-92.11359,42.04034],[-92.11914,42.04388],[-92.1201,42.04633],[-92.12507,42.04887],[-92.12917,42.05385]]]}}]}