{"type":"FeatureCollection","features":[{"type":"Feature","properties":{},"geometry":{"type":"Polygon","coordinates":[[[-92.25377,42.246],[-92.25377,42.23767],[-92.25794,42.23767],[-92.25794,42.2335],[-92.28294,42.2335],[-92.28294,42.22933],[-92.29545,42.22933],[-92.29545,42.22516],[-92.30378,42.22516],[-92.30378,42.221],[-92.32045,42.221],[-92.32045,42.21683],[-92.32461,42.21683],[-92.32461,42.221],[-92.36628,42.221],[-92.36628,42.21683],[-92.37045,42.21683],[-92.37045,42.21266],[-92.37462,42.21266],[-92.37462,42.20433],[-92.38295,42.20433],[-92.38295,42.196],[-92.38712,42.196],[-92.38712,42.18766],[-92.39129,42.18766],[-92.39129,42.18349],[-92.38295,42.18349],[-92.38295,42.17933],[-92.37878,42.17933],[-92.37878,42.17516],[-92.36628,42.17516],[-92.36628,42.17933],[-92.34545,42.17933],[-92.34545,42.18349],[-92.34128,42.18349],[-92.34128,42.18766],[-92.32045,42.18766],[-92.32045,42.19183],[-92.31211,42.19183],[-92.31211,42.18766],[-92.29128,42.18766],[-92.29128,42.18349],[-92.27878,42.18349],[-92.27878,42.18766],[-92.27461,42.18766],[-92.27461,42.19183],[-92.27044,42.19183],[-92.27044,42.196],[-92.26628,42.196],[-92.26628,42.20016],[-92.25377,42.20016],[-92.25377,42.2085],[-92.24544,42.2085],[-92.24544,42.21266],[-92.22877,42.21266],[-92.22877,42.21683],[-92.22044,42.21683],[-92.22044,42.21266],[-92.2121,42.21266],[-92.2121,42.221],[-92.20794,42.221],[-92.20794,42.22933],[-92.2121,42.22933],[-92.2121,42.2335],[-92.20794,42.2335],[-92.20794,42.23767],[-92.2121,42.23767],[-92.2121,42.24183],[-92.22044,42.24183],[-92.22044,42.246],[-92.23294,42.246],[-92.23294,42.24183],[-92.24127,42.24183],[-92.24127,42.246],[-92.25377,42.246]]]}}]}