{"type":"FeatureCollection","features":[{"type":"Feature","properties":{},"geometry":{"type":"Polygon","coordinates":[[[-95.1165,43.70445],[-95.1165,43.70028],[-95.12067,43.70028],[-95.12067,43.69612],[-95.12484,43.69612],[-95.12484,43.69195],[-95.15401,43.69195],[-95.15401,43.67528],[-95.14984,43.67528],[-95.14984,43.66695],[-95.16234,43.66695],[-95.16234,43.65861],[-95.17068,43.65861],[-95.17068,43.65445],[-95.17484,43.65445],[-95.17484,43.65028],[-95.18734,43.65028],[-95.18734,43.64611],[-95.19151,43.64611],[-95.19151,43.64194],[-95.19568,43.64194],[-95.19568,43.63361],[-95.19984,43.63361],[-95.19984,43.62528],[-95.21234,43.62528],[-95.21234,43.62944],[-95.22901,43.62944],[-95.22901,43.62528],[-95.23735,43.62528],[-95.23735,43.62111],[-95.26235,43.62111],[-95.26235,43.62944],[-95.27068,43.62944],[-95.27068,43.63361],[-95.27902,43.63361],[-95.27902,43.64194],[-95.28318,43.64194],[-95.28318,43.64611],[-95.31235,43.64611],[-95.31235,43.65028],[-95.31652,43.65028],[-95.31652,43.65445],[-95.32485,43.65445],[-95.32485,43.65028],[-95.36236,43.65028],[-95.36236,43.65445],[-95.36652,43.65445],[-95.36652,43.66278],[-95.37069,43.66278],[-95.37069,43.65861],[-95.38319,43.65861],[-95.38319,43.65445],[-95.40403,43.65445],[-95.40403,43.65861],[-95.40819,43.65861],[-95.40819,43.66278],[-95.41236,43.66278],[-95.41236,43.66695],[-95.4332,43.66695],[-95.4332,43.67111],[-95.43736,43.67111],[-95.43736,43.65861],[-95.44153,43.65861],[-95.44153,43.63361],[-95.43736,43.63361],[-95.43736,43.62944],[-95.44986,43.62944],[-95.44986,43.63361],[-95.45403,43.63361],[-95.45403,43.63778],[-95.46653,43.63778],[-95.46653,43.62944],[-95.4832,43.62944],[-95.4832,43.63361],[-95.48737,43.63361],[-95.48737,43.62944],[-95.49153,43.62944],[-95.49153,43.62528],[-95.4957,43.62528],[-95.4957,43.62111],[-95.49987,43.62111],[-95.49987,43.61694],[-95.5082,43.61694],[-95.5082,43.61278],[-95.51237,43.61278],[-95.51237,43.60861],[-95.5207,43.60861],[-95.5207,43.61278],[-95.52487,43.61278],[-95.52487,43.60861],[-95.52904,43.60861],[-95.52904,43.60444],[-95.5332,43.60444],[-95.5332,43.60861],[-95.54154,43.60861],[-95.54154,43.61694],[-95.5457,43.61694],[-95.5457,43.62111],[-95.54987,43.62111],[-95.54987,43.62528],[-95.56237,43.62528],[-95.56237,43.62111],[-95.55821,43.62111],[-95.55821,43.61694],[-95.55404,43.61694],[-95.55404,43.60861],[-95.56654,43.60861],[-95.56654,43.60444],[-95.57071,43.60444],[-95.57071,43.60027],[-95.57904,43.60027],[-95.57904,43.60444],[-95.61238,43.60444],[-95.61238,43.60861],[-95.61654,43.60861],[-95.61654,43.60444],[-95.62071,43.60444],[-95.62071,43.60861],[-95.62488,43.60861],[-95.62488,43.60444],[-95.64988,43.60444],[-95.64988,43.60027],[-95.66238,43.60027],[-95.66238,43.60444],[-95.67488,43.60444],[-95.67488,43.59611],[-95.67072,43.59611],[-95.67072,43.59194],[-95.66655,43.59194],[-95.66655,43.58777],[-95.66238,43.58777],[-95.66238,43.58361],[-95.65821,43.58361],[-95.65821,43.57944],[-95.66238,43.57944],[-95.66238,43.57111],[-95.67488,43.57111],[-95.67488,43.56694],[-95.67905,43.56694],[-95.67905,43.56277],[-95.68322,43.56277],[-95.68322,43.5586],[-95.68738,43.5586],[-95.68738,43.56277],[-95.69572,43.56277],[-95.69572,43.5586],[-95.69988,43.5586],[-95.69988,43.55444],[-95.70405,43.55444],[-95.70405,43.55027],[-95.70822,43.55027],[-95.70822,43.54194],[-95.69155,43.54194],[-95.69155,43.53777],[-95.68738,43.53777],[-95.68738,43.5336],[-95.68322,43.5336],[-95.68322,43.52527],[-95.67905,43.52527],[-95.67905,43.5211],[-95.68322,43.5211],[-95.68322,43.51693],[-95.68738,43.51693],[-95.68738,43.50443],[-95.69155,43.50443],[-95.69155,43.50027],[-95.69572,43.50027],[-95.69572,43.4961],[-95.69988,43.4961],[-95.69988,43.48777],[-95.70405,43.48777],[-95.70405,43.47943],[-95.69572,43.47943],[-95.69572,43.46693],[-95.69155,43.46693],[-95.69155,43.45443],[-95.69988,43.45443],[-95.69988,43.43776],[-95.69572,43.43776],[-95.69572,43.43359],[-95.69155,43.43359],[-95.69155,43.42526],[-95.68322,43.42526],[-95.68322,43.42109],[-95.67905,43.42109],[-95.67905,43.41693],[-95.67488,43.41693],[-95.67488,43.39192],[-95.67072,43.39192],[-95.67072,43.38359],[-95.66655,43.38359],[-95.66655,43.37526],[-95.66238,43.37526],[-95.66238,43.37109],[-95.65405,43.37109],[-95.65405,43.36692],[-95.64988,43.36692],[-95.64988,43.36276],[-95.64571,43.36276],[-95.64571,43.35859],[-95.64155,43.35859],[-95.64155,43.35442],[-95.63738,43.35442],[-95.63738,43.35025],[-95.63321,43.35025],[-95.63321,43.34609],[-95.62904,43.34609],[-95.62904,43.34192],[-95.62488,43.34192],[-95.62488,43.33775],[-95.62071,43.33775],[-95.62071,43.33359],[-95.61654,43.33359],[-95.61654,43.32109],[-95.62071,43.32109],[-95.62071,43.30858],[-95.61654,43.30858],[-95.61654,43.29192],[-95.61238,43.29192],[-95.61238,43.28775],[-95.61654,43.28775],[-95.61654,43.28358],[-95.61238,43.28358],[-95.61238,43.26275],[-95.60821,43.26275],[-95.60821,43.25441],[-95.59988,43.25441],[-95.59988,43.22941],[-95.59571,43.22941],[-95.59571,43.21691],[-95.59154,43.21691],[-95.59154,43.20441],[-95.59571,43.20441],[-95.59571,43.20024],[-95.59988,43.20024],[-95.59988,43.18774],[-95.59571,43.18774],[-95.59571,43.18357],[-95.59988,43.18357],[-95.59988,43.17941],[-95.60821,43.17941],[-95.60821,43.18357],[-95.61238,43.18357],[-95.61238,43.17941],[-95.61654,43.17941],[-95.61654,43.17524],[-95.62071,43.17524],[-95.62071,43.16691],[-95.61654,43.16691],[-95.61654,43.15857],[-95.62488,43.15857],[-95.62488,43.15441],[-95.63321,43.15441],[-95.63321,43.15024],[-95.64155,43.15024],[-95.64155,43.14607],[-95.64571,43.14607],[-95.64571,43.15024],[-95.68738,43.15024],[-95.68738,43.14607],[-95.70822,43.14607],[-95.70822,43.1419],[-95.71238,43.1419],[-95.71238,43.13774],[-95.71655,43.13774],[-95.71655,43.1419],[-95.73739,43.1419],[-95.73739,43.13774],[-95.74989,43.13774],[-95.74989,43.13357],[-95.75822,43.13357],[-95.75822,43.1294],[-95.76239,43.1294],[-95.76239,43.12524],[-95.75822,43.12524],[-95.75822,43.1169],[-95.74989,43.1169],[-95.74989,43.11274],[-95.74572,43.11274],[-95.74572,43.10857],[-95.74989,43.10857],[-95.74989,43.1044],[-95.75405,43.1044],[-95.75405,43.10023],[-95.74989,43.10023],[-95.74989,43.09607],[-95.76239,43.09607],[-95.76239,43.0919],[-95.77072,43.0919],[-95.77072,43.08773],[-95.76656,43.08773],[-95.76656,43.08357],[-95.77072,43.08357],[-95.77072,43.0794],[-95.77489,43.0794],[-95.77489,43.07523],[-95.77906,43.07523],[-95.77906,43.07107],[-95.78322,43.07107],[-95.78322,43.0669],[-95.78739,43.0669],[-95.78739,43.05023],[-95.79156,43.05023],[-95.79156,43.03773],[-95.79572,43.03773],[-95.79572,43.03356],[-95.79156,43.03356],[-95.79156,43.02523],[-95.78322,43.02523],[-95.78322,43.01273],[-95.78739,43.01273],[-95.78739,43.00856],[-95.79572,43.00856],[-95.79572,43.01273],[-95.81656,43.01273],[-95.81656,43.01689],[-95.83323,43.01689],[-95.83323,43.00856],[-95.8374,43.00856],[-95.8374,43.00023],[-95.84156,43.00023],[-95.84156,42.98773],[-95.8374,42.98773],[-95.8374,42.97939],[-95.83323,42.97939],[-95.83323,42.97522],[-95.82489,42.97522],[-95.82489,42.97106],[-95.82073,42.97106],[-95.82073,42.96272],[-95.81656,42.96272],[-95.81656,42.95856],[-95.82906,42.95856],[-95.82906,42.95439],[-95.82489,42.95439],[-95.82489,42.94606],[-95.82073,42.94606],[-95.82073,42.94189],[-95.81656,42.94189],[-95.81656,42.93355],[-95.81239,42.93355],[-95.81239,42.92939],[-95.80823,42.92939],[-95.80823,42.92105],[-95.79989,42.92105],[-95.79989,42.91689],[-95.79156,42.91689],[-95.79156,42.91272],[-95.78322,42.91272],[-95.78322,42.90855],[-95.78739,42.90855],[-95.78739,42.90439],[-95.79156,42.90439],[-95.79156,42.89605],[-95.79989,42.89605],[-95.79989,42.89188],[-95.80406,42.89188],[-95.80406,42.88355],[-95.82073,42.88355],[-95.82073,42.87938],[-95.82489,42.87938],[-95.82489,42.88355],[-95.82906,42.88355],[-95.82906,42.88772],[-95.84156,42.88772],[-95.84156,42.89605],[-95.85406,42.89605],[-95.85406,42.89188],[-95.86656,42.89188],[-95.86656,42.88772],[-95.87073,42.88772],[-95.87073,42.88355],[-95.8749,42.88355],[-95.8749,42.87938],[-95.87906,42.87938],[-95.87906,42.87522],[-95.8874,42.87522],[-95.8874,42.86688],[-95.89157,42.86688],[-95.89157,42.86272],[-95.8874,42.86272],[-95.8874,42.85438],[-95.89157,42.85438],[-95.89157,42.85021],[-95.89573,42.85021],[-95.89573,42.84605],[-95.8999,42.84605],[-95.8999,42.83771],[-95.90407,42.83771],[-95.90407,42.82938],[-95.9124,42.82938],[-95.9124,42.82521],[-95.91657,42.82521],[-95.91657,42.82105],[-95.92073,42.82105],[-95.92073,42.80854],[-95.92907,42.80854],[-95.92907,42.79604],[-95.93324,42.79604],[-95.93324,42.80021],[-95.94574,42.80021],[-95.94574,42.80438],[-95.9499,42.80438],[-95.9499,42.80854],[-95.95407,42.80854],[-95.95407,42.80438],[-95.95824,42.80438],[-95.95824,42.80021],[-95.9624,42.80021],[-95.9624,42.79604],[-95.96657,42.79604],[-95.96657,42.78354],[-96.00408,42.78354],[-96.00408,42.78771],[-96.01658,42.78771],[-96.01658,42.78354],[-96.02074,42.78354],[-96.02074,42.77938],[-96.02491,42.77938],[-96.02491,42.77521],[-96.02908,42.77521],[-96.02908,42.77104],[-96.03324,42.77104],[-96.03324,42.76687],[-96.03741,42.76687],[-96.03741,42.76271],[-96.04158,42.76271],[-96.04158,42.74604],[-96.05408,42.74604],[-96.05408,42.74187],[-96.05825,42.74187],[-96.05825,42.74604],[-96.07075,42.74604],[-96.07075,42.74187],[-96.07908,42.74187],[-96.07908,42.73771],[-96.08741,42.73771],[-96.08741,42.73354],[-96.09575,42.73354],[-96.09575,42.7252],[-96.09992,42.7252],[-96.09992,42.71687],[-96.10408,42.71687],[-96.10408,42.7127],[-96.13325,42.7127],[-96.13325,42.70854],[-96.13742,42.70854],[-96.13742,42.70437],[-96.14159,42.70437],[-96.14159,42.7002],[-96.14575,42.7002],[-96.14575,42.69604],[-96.15825,42.69604],[-96.15825,42.69187],[-96.16242,42.69187],[-96.16242,42.7002],[-96.18326,42.7002],[-96.18326,42.69187],[-96.19159,42.69187],[-96.19159,42.68353],[-96.19576,42.68353],[-96.19576,42.67103],[-96.19992,42.67103],[-96.19992,42.66687],[-96.20826,42.66687],[-96.20826,42.6502],[-96.21242,42.6502],[-96.21242,42.6377],[-96.21659,42.6377],[-96.21659,42.62936],[-96.22076,42.62936],[-96.22076,42.62103],[-96.22493,42.62103],[-96.22493,42.60853],[-96.22909,42.60853],[-96.22909,42.60019],[-96.23743,42.60019],[-96.23743,42.58353],[-96.24159,42.58353],[-96.24159,42.57519],[-96.24576,42.57519],[-96.24576,42.56686],[-96.26243,42.56686],[-96.26243,42.55852],[-96.27493,42.55852],[-96.27493,42.56269],[-96.28326,42.56269],[-96.28326,42.54602],[-96.2791,42.54602],[-96.2791,42.54186],[-96.27493,42.54186],[-96.27493,42.53769],[-96.2791,42.53769],[-96.2791,42.53352],[-96.28326,42.53352],[-96.28326,42.52936],[-96.28743,42.52936],[-96.28743,42.51685],[-96.29577,42.51685],[-96.29577,42.51269],[-96.3041,42.51269],[-96.3041,42.50852],[-96.31243,42.50852],[-96.31243,42.49185],[-96.3291,42.49185],[-96.3291,42.48769],[-96.33743,42.48769],[-96.33743,42.47935],[-96.3416,42.47935],[-96.3416,42.47518],[-96.34577,42.47518],[-96.34577,42.47102],[-96.34994,42.47102],[-96.34994,42.46268],[-96.3541,42.46268],[-96.3541,42.45435],[-96.34994,42.45435],[-96.34994,42.43351],[-96.3541,42.43351],[-96.3541,42.42935],[-96.36244,42.42935],[-96.36244,42.43351],[-96.3791,42.43351],[-96.3791,42.41268],[-96.37494,42.41268],[-96.37494,42.40018],[-96.3666,42.40018],[-96.3666,42.39601],[-96.3541,42.39601],[-96.3541,42.38768],[-96.34994,42.38768],[-96.34994,42.38351],[-96.3416,42.38351],[-96.3416,42.37934],[-96.33743,42.37934],[-96.33743,42.37518],[-96.33327,42.37518],[-96.33327,42.37101],[-96.3291,42.37101],[-96.3291,42.37518],[-96.32493,42.37518],[-96.32493,42.37101],[-96.3166,42.37101],[-96.3166,42.36268],[-96.31243,42.36268],[-96.31243,42.34601],[-96.3166,42.34601],[-96.3166,42.33767],[-96.32077,42.33767],[-96.32077,42.33351],[-96.32493,42.33351],[-96.32493,42.32934],[-96.32077,42.32934],[-96.32077,42.32517],[-96.3166,42.32517],[-96.3166,42.31267],[-96.3041,42.31267],[-96.3041,42.296],[-96.29993,42.296],[-96.29993,42.29184],[-96.2916,42.29184],[-96.2916,42.296],[-96.28326,42.296],[-96.28326,42.29184],[-96.27076,42.29184],[-96.27076,42.28767],[-96.2666,42.28767],[-96.2666,42.2835],[-96.26243,42.2835],[-96.26243,42.271],[-96.2666,42.271],[-96.2666,42.25017],[-96.26243,42.25017],[-96.26243,42.25433],[-96.24576,42.25433],[-96.24576,42.25017],[-96.23326,42.25017],[-96.23326,42.25433],[-96.22909,42.25433],[-96.22909,42.25017],[-96.22493,42.25017],[-96.22493,42.246],[-96.22076,42.246],[-96.22076,42.24183],[-96.21242,42.24183],[-96.21242,42.2335],[-96.20826,42.2335],[-96.20826,42.22516],[-96.19992,42.22516],[-96.19992,42.221],[-96.19576,42.221],[-96.19576,42.21683],[-96.18742,42.21683],[-96.18742,42.21266],[-96.18326,42.21266],[-96.18326,42.2085],[-96.16659,42.2085],[-96.16659,42.20433],[-96.16242,42.20433],[-96.16242,42.20016],[-96.15825,42.20016],[-96.15825,42.196],[-96.15409,42.196],[-96.15409,42.17933],[-96.14992,42.17933],[-96.14992,42.15433],[-96.14575,42.15433],[-96.14575,42.13766],[-96.14992,42.13766],[-96.14992,42.11266],[-96.14575,42.11266],[-96.14575,42.10849],[-96.13742,42.10849],[-96.13742,42.10432],[-96.13325,42.10432],[-96.13325,42.10015],[-96.12909,42.10015],[-96.12909,42.09599],[-96.12492,42.09599],[-96.12492,42.09182],[-96.12075,42.09182],[-96.12075,42.08765],[-96.11658,42.08765],[-96.11658,42.08349],[-96.11242,42.08349],[-96.11242,42.07932],[-96.11658,42.07932],[-96.11658,42.07515],[-96.11242,42.07515],[-96.11242,42.07099],[-96.10825,42.07099],[-96.10825,42.06265],[-96.10408,42.06265],[-96.10408,42.05015],[-96.10825,42.05015],[-96.10825,42.03348],[-96.11242,42.03348],[-96.11242,42.02932],[-96.10825,42.02932],[-96.10825,42.02515],[-96.10408,42.02515],[-96.10408,42.01681],[-96.09158,42.01681],[-96.09158,42.01265],[-96.07491,42.01265],[-96.07491,42.00848],[-96.07075,42.00848],[-96.07075,42.00431],[-96.07491,42.00431],[-96.07491,42.00015],[-96.07075,42.00015],[-96.07075,41.99598],[-96.07491,41.99598],[-96.07491,41.95848],[-96.08325,41.95848],[-96.08325,41.95431],[-96.08741,41.95431],[-96.08741,41.94598],[-96.09158,41.94598],[-96.09158,41.92097],[-96.09575,41.92097],[-96.09575,41.90847],[-96.09158,41.90847],[-96.09158,41.90431],[-96.08741,41.90431],[-96.08741,41.90847],[-96.07908,41.90847],[-96.07908,41.90431],[-96.07075,41.90431],[-96.07075,41.90014],[-96.06658,41.90014],[-96.06658,41.89597],[-96.06241,41.89597],[-96.06241,41.8793],[-96.07075,41.8793],[-96.07075,41.87514],[-96.07908,41.87514],[-96.07908,41.87097],[-96.08325,41.87097],[-96.08325,41.8543],[-96.07491,41.8543],[-96.07491,41.86264],[-96.06241,41.86264],[-96.06241,41.85847],[-96.05825,41.85847],[-96.05825,41.8543],[-96.05408,41.8543],[-96.05408,41.85013],[-96.04991,41.85013],[-96.04991,41.84597],[-96.04158,41.84597],[-96.04158,41.8418],[-96.03741,41.8418],[-96.03741,41.83763],[-96.01658,41.83763],[-96.01658,41.8293],[-96.01241,41.8293],[-96.01241,41.83347],[-96.00408,41.83347],[-96.00408,41.83763],[-95.99991,41.83763],[-95.99991,41.8418],[-95.99574,41.8418],[-95.99574,41.8543],[-95.99157,41.8543],[-95.99157,41.86264],[-95.97074,41.86264],[-95.97074,41.8668],[-95.96657,41.8668],[-95.96657,41.87097],[-95.95407,41.87097],[-95.95407,41.89597],[-95.95824,41.89597],[-95.95824,41.90014],[-95.95407,41.90014],[-95.95407,41.90431],[-95.9499,41.90431],[-95.9499,41.91681],[-95.94574,41.91681],[-95.94574,41.92097],[-95.9374,41.92097],[-95.9374,41.91681],[-95.9249,41.91681],[-95.9249,41.92931],[-95.92073,41.92931],[-95.92073,41.94181],[-95.9124,41.94181],[-95.9124,41.95014],[-95.91657,41.95014],[-95.91657,41.96681],[-95.92073,41.96681],[-95.92073,41.97098],[-95.89573,41.97098],[-95.89573,41.97514],[-95.8874,41.97514],[-95.8874,41.97931],[-95.87073,41.97931],[-95.87073,41.99598],[-95.8624,41.99598],[-95.8624,42.00431],[-95.85823,42.00431],[-95.85823,42.00848],[-95.85406,42.00848],[-95.85406,42.02932],[-95.84573,42.02932],[-95.84573,42.04182],[-95.8374,42.04182],[-95.8374,42.06265],[-95.84156,42.06265],[-95.84156,42.06682],[-95.83323,42.06682],[-95.83323,42.07099],[-95.82906,42.07099],[-95.82906,42.07932],[-95.81656,42.07932],[-95.81656,42.08349],[-95.80823,42.08349],[-95.80823,42.08765],[-95.77489,42.08765],[-95.77489,42.09182],[-95.76656,42.09182],[-95.76656,42.10015],[-95.76239,42.10015],[-95.76239,42.11682],[-95.75822,42.11682],[-95.75822,42.12516],[-95.75405,42.12516],[-95.75405,42.12932],[-95.74989,42.12932],[-95.74989,42.13766],[-95.74572,42.13766],[-95.74572,42.14599],[-95.74155,42.14599],[-95.74155,42.15016],[-95.73739,42.15016],[-95.73739,42.15849],[-95.73322,42.15849],[-95.73322,42.17516],[-95.72905,42.17516],[-95.72905,42.17099],[-95.71655,42.17099],[-95.71655,42.17516],[-95.71238,42.17516],[-95.71238,42.17933],[-95.70822,42.17933],[-95.70822,42.18349],[-95.69988,42.18349],[-95.69988,42.196],[-95.68738,42.196],[-95.68738,42.20433],[-95.68322,42.20433],[-95.68322,42.2085],[-95.67488,42.2085],[-95.67488,42.21266],[-95.67072,42.21266],[-95.67072,42.2085],[-95.66655,42.2085],[-95.66655,42.21266],[-95.64571,42.21266],[-95.64571,42.21683],[-95.63321,42.21683],[-95.63321,42.221],[-95.62488,42.221],[-95.62488,42.2335],[-95.62071,42.2335],[-95.62071,42.246],[-95.61238,42.246],[-95.61238,42.25017],[-95.60404,42.25017],[-95.60404,42.246],[-95.59154,42.246],[-95.59154,42.25433],[-95.58737,42.25433],[-95.58737,42.2585],[-95.58321,42.2585],[-95.58321,42.26267],[-95.57071,42.26267],[-95.57071,42.26683],[-95.55821,42.26683],[-95.55821,42.28767],[-95.54987,42.28767],[-95.54987,42.2835],[-95.54154,42.2835],[-95.54154,42.28767],[-95.53737,42.28767],[-95.53737,42.296],[-95.51237,42.296],[-95.51237,42.29184],[-95.49987,42.29184],[-95.49987,42.296],[-95.4957,42.296],[-95.4957,42.29184],[-95.49153,42.29184],[-95.49153,42.28767],[-95.48737,42.28767],[-95.48737,42.29184],[-95.47903,42.29184],[-95.47903,42.28767],[-95.47487,42.28767],[-95.47487,42.2835],[-95.4582,42.2835],[-95.4582,42.29184],[-95.44153,42.29184],[-95.44153,42.296],[-95.43736,42.296],[-95.43736,42.30017],[-95.4332,42.30017],[-95.4332,42.296],[-95.40403,42.296],[-95.40403,42.27934],[-95.39986,42.27934],[-95.39986,42.27517],[-95.39153,42.27517],[-95.39153,42.27934],[-95.38319,42.27934],[-95.38319,42.2835],[-95.37486,42.2835],[-95.37486,42.28767],[-95.34986,42.28767],[-95.34986,42.2835],[-95.34152,42.2835],[-95.34152,42.27934],[-95.33319,42.27934],[-95.33319,42.27517],[-95.32902,42.27517],[-95.32902,42.271],[-95.32069,42.271],[-95.32069,42.27517],[-95.30402,42.27517],[-95.30402,42.27934],[-95.28735,42.27934],[-95.28735,42.2835],[-95.28318,42.2835],[-95.28318,42.28767],[-95.27902,42.28767],[-95.27902,42.29184],[-95.27068,42.29184],[-95.27068,42.296],[-95.26652,42.296],[-95.26652,42.29184],[-95.25401,42.29184],[-95.25401,42.30017],[-95.24985,42.30017],[-95.24985,42.30434],[-95.24568,42.30434],[-95.24568,42.3085],[-95.23735,42.3085],[-95.23735,42.31267],[-95.22901,42.31267],[-95.22901,42.32101],[-95.22485,42.32101],[-95.22485,42.32517],[-95.21651,42.32517],[-95.21651,42.33767],[-95.22068,42.33767],[-95.22068,42.35017],[-95.22485,42.35017],[-95.22485,42.35434],[-95.22901,42.35434],[-95.22901,42.36268],[-95.23318,42.36268],[-95.23318,42.36684],[-95.23735,42.36684],[-95.23735,42.37518],[-95.24151,42.37518],[-95.24151,42.37934],[-95.24568,42.37934],[-95.24568,42.40435],[-95.24985,42.40435],[-95.24985,42.41685],[-95.24151,42.41685],[-95.24151,42.44602],[-95.25401,42.44602],[-95.25401,42.45018],[-95.27068,42.45018],[-95.27068,42.47102],[-95.27485,42.47102],[-95.27485,42.47935],[-95.28318,42.47935],[-95.28318,42.48769],[-95.27902,42.48769],[-95.27902,42.49602],[-95.27485,42.49602],[-95.27485,42.50435],[-95.27068,42.50435],[-95.27068,42.51685],[-95.27485,42.51685],[-95.27485,42.52102],[-95.28318,42.52102],[-95.28318,42.52519],[-95.29152,42.52519],[-95.29152,42.52936],[-95.29568,42.52936],[-95.29568,42.53352],[-95.30402,42.53352],[-95.30402,42.54186],[-95.30819,42.54186],[-95.30819,42.54602],[-95.31235,42.54602],[-95.31235,42.57103],[-95.31652,42.57103],[-95.31652,42.57519],[-95.30819,42.57519],[-95.30819,42.58353],[-95.30402,42.58353],[-95.30402,42.59603],[-95.29985,42.59603],[-95.29985,42.60436],[-95.29568,42.60436],[-95.29568,42.6127],[-95.29152,42.6127],[-95.29152,42.62103],[-95.28735,42.62103],[-95.28735,42.62936],[-95.28318,42.62936],[-95.28318,42.63353],[-95.28735,42.63353],[-95.28735,42.6377],[-95.29152,42.6377],[-95.29152,42.64603],[-95.28735,42.64603],[-95.28735,42.65853],[-95.29985,42.65853],[-95.29985,42.66687],[-95.30402,42.66687],[-95.30402,42.67103],[-95.30819,42.67103],[-95.30819,42.67937],[-95.31652,42.67937],[-95.31652,42.68353],[-95.31235,42.68353],[-95.31235,42.69604],[-95.31652,42.69604],[-95.31652,42.70854],[-95.31235,42.70854],[-95.31235,42.7127],[-95.30819,42.7127],[-95.30819,42.72104],[-95.30402,42.72104],[-95.30402,42.7252],[-95.29152,42.7252],[-95.29152,42.71687],[-95.28735,42.71687],[-95.28735,42.7127],[-95.28318,42.7127],[-95.28318,42.70437],[-95.27902,42.70437],[-95.27902,42.69604],[-95.27068,42.69604],[-95.27068,42.69187],[-95.26652,42.69187],[-95.26652,42.6877],[-95.26235,42.6877],[-95.26235,42.68353],[-95.25818,42.68353],[-95.25818,42.67937],[-95.25401,42.67937],[-95.25401,42.6752],[-95.24985,42.6752],[-95.24985,42.67103],[-95.24568,42.67103],[-95.24568,42.66687],[-95.24151,42.66687],[-95.24151,42.6627],[-95.22068,42.6627],[-95.22068,42.66687],[-95.21651,42.66687],[-95.21651,42.67103],[-95.21234,42.67103],[-95.21234,42.67937],[-95.21651,42.67937],[-95.21651,42.68353],[-95.22068,42.68353],[-95.22068,42.69604],[-95.22485,42.69604],[-95.22485,42.70437],[-95.22901,42.70437],[-95.22901,42.70854],[-95.23735,42.70854],[-95.23735,42.7252],[-95.24568,42.7252],[-95.24568,42.73771],[-95.24985,42.73771],[-95.24985,42.74604],[-95.25401,42.74604],[-95.25401,42.75437],[-95.25818,42.75437],[-95.25818,42.75854],[-95.26235,42.75854],[-95.26235,42.76687],[-95.26652,42.76687],[-95.26652,42.77521],[-95.27068,42.77521],[-95.27068,42.80021],[-95.27485,42.80021],[-95.27485,42.80854],[-95.27902,42.80854],[-95.27902,42.81271],[-95.27485,42.81271],[-95.27485,42.82521],[-95.27902,42.82521],[-95.27902,42.84188],[-95.27068,42.84188],[-95.27068,42.85438],[-95.26235,42.85438],[-95.26235,42.85855],[-95.24985,42.85855],[-95.24985,42.86688],[-95.24568,42.86688],[-95.24568,42.87105],[-95.24151,42.87105],[-95.24151,42.87522],[-95.22485,42.87522],[-95.22485,42.88355],[-95.22068,42.88355],[-95.22068,42.87938],[-95.19568,42.87938],[-95.19568,42.87105],[-95.19151,42.87105],[-95.19151,42.86688],[-95.18734,42.86688],[-95.18734,42.86272],[-95.18318,42.86272],[-95.18318,42.85855],[-95.17068,42.85855],[-95.17068,42.87105],[-95.16651,42.87105],[-95.16651,42.87522],[-95.16234,42.87522],[-95.16234,42.87938],[-95.14567,42.87938],[-95.14567,42.88355],[-95.14151,42.88355],[-95.14151,42.87522],[-95.11234,42.87522],[-95.11234,42.87938],[-95.10817,42.87938],[-95.10817,42.88772],[-95.09984,42.88772],[-95.09984,42.89605],[-95.09567,42.89605],[-95.09567,42.90439],[-95.08733,42.90439],[-95.08733,42.90855],[-95.08317,42.90855],[-95.08317,42.91272],[-95.079,42.91272],[-95.079,42.91689],[-95.0665,42.91689],[-95.0665,42.90855],[-95.07067,42.90855],[-95.07067,42.90439],[-95.0665,42.90439],[-95.0665,42.90022],[-95.06233,42.90022],[-95.06233,42.89188],[-95.02066,42.89188],[-95.02066,42.88772],[-95.01233,42.88772],[-95.01233,42.90439],[-95.00816,42.90439],[-95.00816,42.90855],[-95.004,42.90855],[-95.004,42.91689],[-94.99983,42.91689],[-94.99983,42.92522],[-94.99566,42.92522],[-94.99566,42.93355],[-94.99983,42.93355],[-94.99983,42.94189],[-94.99566,42.94189],[-94.99566,42.94606],[-94.99149,42.94606],[-94.99149,42.95022],[-94.98733,42.95022],[-94.98733,42.95856],[-94.98316,42.95856],[-94.98316,42.96272],[-94.98733,42.96272],[-94.98733,42.96689],[-94.98316,42.96689],[-94.98316,42.97106],[-94.98733,42.97106],[-94.98733,42.97939],[-94.98316,42.97939],[-94.98316,42.99189],[-94.97899,42.99189],[-94.97899,43.02106],[-94.97483,43.02106],[-94.97483,43.03356],[-94.97899,43.03356],[-94.97899,43.03773],[-94.98316,43.03773],[-94.98316,43.0419],[-94.97899,43.0419],[-94.97899,43.05023],[-94.97483,43.05023],[-94.97483,43.06273],[-94.97066,43.06273],[-94.97066,43.0669],[-94.96232,43.0669],[-94.96232,43.07107],[-94.95399,43.07107],[-94.95399,43.07523],[-94.94566,43.07523],[-94.94566,43.0669],[-94.91649,43.0669],[-94.91649,43.07107],[-94.90815,43.07107],[-94.90815,43.0669],[-94.90399,43.0669],[-94.90399,43.07107],[-94.89982,43.07107],[-94.89982,43.08357],[-94.90399,43.08357],[-94.90399,43.09607],[-94.88732,43.09607],[-94.88732,43.10023],[-94.87899,43.10023],[-94.87899,43.11274],[-94.87065,43.11274],[-94.87065,43.1169],[-94.86648,43.1169],[-94.86648,43.12524],[-94.85815,43.12524],[-94.85815,43.13774],[-94.86232,43.13774],[-94.86232,43.15024],[-94.85398,43.15024],[-94.85398,43.15441],[-94.84565,43.15441],[-94.84565,43.15857],[-94.84982,43.15857],[-94.84982,43.16274],[-94.84565,43.16274],[-94.84565,43.17941],[-94.83731,43.17941],[-94.83731,43.18774],[-94.84148,43.18774],[-94.84148,43.20024],[-94.84565,43.20024],[-94.84565,43.21691],[-94.84982,43.21691],[-94.84982,43.22524],[-94.85398,43.22524],[-94.85398,43.23358],[-94.85815,43.23358],[-94.85815,43.24608],[-94.86232,43.24608],[-94.86232,43.25025],[-94.85815,43.25025],[-94.85815,43.27108],[-94.85398,43.27108],[-94.85398,43.27525],[-94.84982,43.27525],[-94.84982,43.27942],[-94.85398,43.27942],[-94.85398,43.28358],[-94.85815,43.28358],[-94.85815,43.28775],[-94.86648,43.28775],[-94.86648,43.30025],[-94.87899,43.30025],[-94.87899,43.30442],[-94.88732,43.30442],[-94.88732,43.30858],[-94.89149,43.30858],[-94.89149,43.31275],[-94.88315,43.31275],[-94.88315,43.32525],[-94.88732,43.32525],[-94.88732,43.33775],[-94.89149,43.33775],[-94.89149,43.35025],[-94.89565,43.35025],[-94.89565,43.35442],[-94.89982,43.35442],[-94.89982,43.35859],[-94.91232,43.35859],[-94.91232,43.36692],[-94.91649,43.36692],[-94.91649,43.37109],[-94.92065,43.37109],[-94.92065,43.38359],[-94.94149,43.38359],[-94.94149,43.38776],[-94.94566,43.38776],[-94.94566,43.39192],[-94.94982,43.39192],[-94.94982,43.40026],[-94.94566,43.40026],[-94.94566,43.40443],[-94.94149,43.40443],[-94.94149,43.42526],[-94.93732,43.42526],[-94.93732,43.43776],[-94.94566,43.43776],[-94.94566,43.43359],[-94.96232,43.43359],[-94.96232,43.42943],[-94.97483,43.42943],[-94.97483,43.43359],[-94.98733,43.43359],[-94.98733,43.43776],[-95.004,43.43776],[-95.004,43.44193],[-95.00816,43.44193],[-95.00816,43.4461],[-95.01233,43.4461],[-95.01233,43.44193],[-95.0165,43.44193],[-95.0165,43.42526],[-95.02066,43.42526],[-95.02066,43.42109],[-95.03316,43.42109],[-95.03316,43.41693],[-95.029,43.41693],[-95.029,43.40859],[-95.03316,43.40859],[-95.03316,43.40026],[-95.02483,43.40026],[-95.02483,43.39192],[-95.029,43.39192],[-95.029,43.38776],[-95.03316,43.38776],[-95.03316,43.37942],[-95.03733,43.37942],[-95.03733,43.37109],[-95.04566,43.37109],[-95.04566,43.36276],[-95.054,43.36276],[-95.054,43.35859],[-95.05817,43.35859],[-95.05817,43.35442],[-95.06233,43.35442],[-95.06233,43.35025],[-95.0665,43.35025],[-95.0665,43.33775],[-95.07483,43.33775],[-95.07483,43.33359],[-95.079,43.33359],[-95.079,43.32942],[-95.0915,43.32942],[-95.0915,43.32525],[-95.09567,43.32525],[-95.09567,43.32109],[-95.09984,43.32109],[-95.09984,43.32525],[-95.104,43.32525],[-95.104,43.32942],[-95.10817,43.32942],[-95.10817,43.32525],[-95.12067,43.32525],[-95.12067,43.32942],[-95.129,43.32942],[-95.129,43.33775],[-95.14984,43.33775],[-95.14984,43.33359],[-95.16651,43.33359],[-95.16651,43.33775],[-95.17068,43.33775],[-95.17068,43.33359],[-95.18318,43.33359],[-95.18318,43.33775],[-95.18734,43.33775],[-95.18734,43.34192],[-95.19151,43.34192],[-95.19151,43.34609],[-95.19568,43.34609],[-95.19568,43.35025],[-95.19984,43.35025],[-95.19984,43.35442],[-95.20401,43.35442],[-95.20401,43.36692],[-95.19984,43.36692],[-95.19984,43.37942],[-95.19568,43.37942],[-95.19568,43.39609],[-95.21234,43.39609],[-95.21234,43.41276],[-95.21651,43.41276],[-95.21651,43.41693],[-95.22068,43.41693],[-95.22068,43.42109],[-95.22485,43.42109],[-95.22485,43.42526],[-95.21651,43.42526],[-95.21651,43.42943],[-95.20818,43.42943],[-95.20818,43.43359],[-95.20401,43.43359],[-95.20401,43.44193],[-95.19151,43.44193],[-95.19151,43.45026],[-95.18318,43.45026],[-95.18318,43.4586],[-95.17901,43.4586],[-95.17901,43.46276],[-95.18318,43.46276],[-95.18318,43.46693],[-95.18734,43.46693],[-95.18734,43.47526],[-95.18318,43.47526],[-95.18318,43.4836],[-95.17484,43.4836],[-95.17484,43.48777],[-95.17068,43.48777],[-95.17068,43.49193],[-95.17484,43.49193],[-95.17484,43.50443],[-95.17901,43.50443],[-95.17901,43.5086],[-95.17484,43.5086],[-95.17484,43.51277],[-95.16651,43.51277],[-95.16651,43.51693],[-95.15401,43.51693],[-95.15401,43.5211],[-95.14984,43.5211],[-95.14984,43.52944],[-95.15401,43.52944],[-95.15401,43.53777],[-95.16234,43.53777],[-95.16234,43.54194],[-95.15817,43.54194],[-95.15817,43.55027],[-95.14984,43.55027],[-95.14984,43.55444],[-95.15401,43.55444],[-95.15401,43.5586],[-95.14984,43.5586],[-95.14984,43.56277],[-95.14567,43.56277],[-95.14567,43.57111],[-95.14984,43.57111],[-95.14984,43.58361],[-95.15401,43.58361],[-95.15401,43.58777],[-95.14984,43.58777],[-95.14984,43.59611],[-95.16651,43.59611],[-95.16651,43.61694],[-95.15401,43.61694],[-95.15401,43.62111],[-95.14151,43.62111],[-95.14151,43.62944],[-95.13734,43.62944],[-95.13734,43.63778],[-95.13317,43.63778],[-95.13317,43.64611],[-95.13734,43.64611],[-95.13734,43.65028],[-95.12484,43.65028],[-95.12484,43.65861],[-95.10817,43.65861],[-95.10817,43.66278],[-95.104,43.66278],[-95.104,43.67111],[-95.09984,43.67111],[-95.09984,43.67528],[-95.104,43.67528],[-95.104,43.68361],[-95.10817,43.68361],[-95.10817,43.70445],[-95.1165,43.70445]]]}}]}