{"type":"FeatureCollection","features":[{"type":"Feature","properties":{},"geometry":{"type":"Polygon","coordinates":[[[-93.1846,42.35049],[-93.18615,42.35814],[-93.18873,42.35792],[-93.18998,42.35962],[-93.19421,42.35831],[-93.19421,42.3634],[-93.20594,42.36635],[-93.20888,42.36575],[-93.21051,42.37262],[-93.21548,42.37339],[-93.21787,42.37777],[-93.22312,42.37822],[-93.22272,42.38088],[-93.22649,42.38321],[-93.22677,42.3861],[-93.23469,42.38749],[-93.24092,42.39191],[-93.2409,42.39502],[-93.24273,42.39625],[-93.23902,42.40276],[-93.23951,42.40602],[-93.24818,42.40322],[-93.2577,42.40413],[-93.25745,42.40635],[-93.26117,42.40592],[-93.26193,42.40838],[-93.26444,42.40947],[-93.2756,42.40974],[-93.27816,42.41252],[-93.28278,42.41405],[-93.29279,42.41651],[-93.30598,42.41705],[-93.31432,42.42193],[-93.31791,42.42186],[-93.32146,42.42489],[-93.31931,42.42899],[-93.32156,42.43055],[-93.3201,42.43815],[-93.32448,42.444],[-93.32156,42.44851],[-93.32594,42.45155],[-93.32871,42.45144],[-93.32986,42.45773],[-93.3248,42.46734],[-93.32878,42.47115],[-93.33172,42.46948],[-93.33801,42.47193],[-93.3395,42.4775],[-93.34417,42.47863],[-93.35103,42.47568],[-93.35267,42.47658],[-93.35454,42.48085],[-93.36084,42.4832],[-93.35721,42.49146],[-93.34866,42.49619],[-93.33798,42.49325],[-93.32709,42.49518],[-93.32406,42.49361],[-93.32332,42.49096],[-93.31818,42.49244],[-93.31167,42.49598],[-93.31041,42.49817],[-93.31068,42.50028],[-93.31549,42.50342],[-93.31053,42.50846],[-93.3066,42.50717],[-93.29925,42.51463],[-93.29604,42.51214],[-93.29382,42.50746],[-93.29179,42.50853],[-93.28698,42.50727],[-93.28202,42.50394],[-93.27637,42.50692],[-93.2731,42.50618],[-93.27177,42.50047],[-93.27347,42.49744],[-93.2676,42.49549],[-93.26211,42.48984],[-93.25681,42.49044],[-93.25047,42.48799],[-93.24629,42.4832],[-93.24396,42.48269],[-93.23831,42.4854],[-93.22652,42.47995],[-93.22158,42.48104],[-93.21334,42.47576],[-93.20934,42.46866],[-93.1953,42.46382],[-93.19669,42.45763],[-93.19549,42.45454],[-93.19251,42.45243],[-93.19013,42.44186],[-93.18288,42.44396],[-93.18587,42.44753],[-93.17325,42.44993],[-93.17168,42.44838],[-93.17138,42.44432],[-93.16878,42.44259],[-93.17309,42.43999],[-93.17313,42.43768],[-93.16964,42.43577],[-93.16961,42.43042],[-93.16575,42.43086],[-93.16293,42.4273],[-93.15976,42.42014],[-93.15747,42.42126],[-93.15576,42.41964],[-93.15242,42.41968],[-93.15058,42.41718],[-93.14036,42.41617],[-93.13562,42.42361],[-93.13746,42.42484],[-93.13562,42.4282],[-93.126,42.42539],[-93.11925,42.4274],[-93.11898,42.43134],[-93.11503,42.43478],[-93.11631,42.43782],[-93.10996,42.43953],[-93.10935,42.44093],[-93.10229,42.43908],[-93.09725,42.4414],[-93.09047,42.43989],[-93.08908,42.43264],[-93.09353,42.43021],[-93.09475,42.42577],[-93.09971,42.41982],[-93.10444,42.42115],[-93.10904,42.41988],[-93.11833,42.41627],[-93.12155,42.41281],[-93.1188,42.40996],[-93.1214,42.40745],[-93.12118,42.40582],[-93.11701,42.40461],[-93.1139,42.39776],[-93.11456,42.39584],[-93.11219,42.39426],[-93.11313,42.39238],[-93.11544,42.39322],[-93.11857,42.39138],[-93.11676,42.38545],[-93.11145,42.38487],[-93.1006,42.37692],[-93.09981,42.37581],[-93.10314,42.37162],[-93.09796,42.36247],[-93.09879,42.36024],[-93.10954,42.36047],[-93.11003,42.35846],[-93.1132,42.35764],[-93.11744,42.35354],[-93.122,42.35367],[-93.1211,42.3507],[-93.12314,42.3479],[-93.12055,42.3443],[-93.12114,42.34151],[-93.12328,42.34112],[-93.1217,42.33595],[-93.12241,42.3299],[-93.12581,42.32919],[-93.12847,42.3252],[-93.13341,42.32516],[-93.14019,42.33432],[-93.15305,42.33825],[-93.15446,42.34136],[-93.15263,42.34399],[-93.15388,42.34544],[-93.16479,42.34279],[-93.16684,42.34617],[-93.17072,42.34629],[-93.17355,42.34459],[-93.18084,42.3501],[-93.1846,42.35049]]]}}]}