{"type":"FeatureCollection","features":[{"type":"Feature","properties":{},"geometry":{"type":"Polygon","coordinates":[[[-92.59795,42.6829],[-92.60023,42.68608],[-92.59907,42.68905],[-92.60141,42.69207],[-92.60095,42.69554],[-92.60365,42.6984],[-92.60839,42.69921],[-92.61284,42.70461],[-92.62501,42.70633],[-92.62722,42.70426],[-92.63232,42.70774],[-92.63328,42.71409],[-92.6379,42.71995],[-92.64193,42.71962],[-92.64354,42.72368],[-92.64736,42.72451],[-92.64673,42.72544],[-92.65145,42.73046],[-92.6632,42.73368],[-92.66444,42.73536],[-92.66348,42.73828],[-92.67104,42.7458],[-92.67497,42.74753],[-92.67988,42.75355],[-92.6833,42.75279],[-92.69029,42.75862],[-92.69735,42.75936],[-92.70044,42.76347],[-92.70769,42.76377],[-92.70913,42.76691],[-92.71906,42.76743],[-92.72512,42.76397],[-92.73768,42.76464],[-92.74193,42.76112],[-92.74234,42.75888],[-92.75732,42.76194],[-92.76132,42.75973],[-92.7663,42.75921],[-92.77432,42.76129],[-92.77889,42.75922],[-92.79998,42.75682],[-92.80702,42.76424],[-92.81195,42.76591],[-92.81481,42.77096],[-92.82066,42.77236],[-92.82559,42.77564],[-92.83057,42.78462],[-92.83545,42.78789],[-92.83521,42.79313],[-92.84725,42.79611],[-92.8513,42.80091],[-92.84749,42.80335],[-92.84961,42.80542],[-92.84983,42.80831],[-92.86434,42.81394],[-92.87057,42.81888],[-92.87776,42.81925],[-92.88073,42.81705],[-92.88354,42.81793],[-92.88671,42.82225],[-92.8853,42.83145],[-92.88895,42.84158],[-92.88682,42.84434],[-92.88152,42.84636],[-92.87799,42.85084],[-92.88259,42.8532],[-92.88331,42.85832],[-92.88856,42.86238],[-92.89512,42.85943],[-92.90615,42.85839],[-92.92338,42.86791],[-92.92875,42.87345],[-92.93961,42.87728],[-92.94676,42.87604],[-92.95288,42.87693],[-92.95447,42.87548],[-92.957,42.87688],[-92.9725,42.87724],[-92.97557,42.87463],[-92.98449,42.87349],[-92.98932,42.87472],[-92.99483,42.88206],[-93.00537,42.88606],[-93.00492,42.88737],[-93.01447,42.89606],[-93.02431,42.901],[-93.03223,42.90137],[-93.03788,42.90346],[-93.04371,42.90277],[-93.05015,42.90506],[-93.0531,42.91079],[-93.06677,42.91446],[-93.06883,42.91574],[-93.06953,42.9191],[-93.08048,42.91855],[-93.08447,42.922],[-93.09972,42.92714],[-93.10548,42.93103],[-93.10957,42.93918],[-93.11391,42.93938],[-93.11709,42.93734],[-93.1232,42.94179],[-93.12525,42.94959],[-93.14601,42.96399],[-93.14956,42.96544],[-93.15366,42.96406],[-93.16642,42.96863],[-93.16561,42.97538],[-93.1687,42.9762],[-93.16621,42.98037],[-93.16941,42.98251],[-93.16539,42.98464],[-93.17037,42.98967],[-93.16961,42.99647],[-93.1657,42.99909],[-93.16524,43.00203],[-93.15854,43.00567],[-93.15888,43.00831],[-93.15587,43.01094],[-93.15446,43.01592],[-93.1452,43.02163],[-93.1472,43.02604],[-93.14522,43.02805],[-93.14495,43.03157],[-93.14717,43.0354],[-93.15191,43.0383],[-93.15281,43.04403],[-93.15718,43.04483],[-93.15931,43.04799],[-93.16897,43.05217],[-93.1726,43.05259],[-93.17581,43.05562],[-93.17288,43.06188],[-93.18098,43.06795],[-93.18799,43.07052],[-93.19038,43.07398],[-93.19041,43.07904],[-93.19458,43.0863],[-93.19479,43.08988],[-93.19976,43.09064],[-93.20633,43.08599],[-93.21351,43.08414],[-93.21607,43.0769],[-93.22614,43.08017],[-93.23017,43.07987],[-93.23276,43.08558],[-93.24453,43.08153],[-93.24759,43.08285],[-93.25549,43.08257],[-93.25932,43.07903],[-93.26666,43.07807],[-93.26647,43.07661],[-93.27406,43.07328],[-93.2795,43.0656],[-93.2818,43.06706],[-93.29823,43.06721],[-93.29922,43.06963],[-93.30362,43.06719],[-93.30865,43.06687],[-93.3142,43.06133],[-93.31714,43.06035],[-93.32066,43.06308],[-93.32054,43.07395],[-93.33192,43.07369],[-93.33654,43.07693],[-93.34205,43.07683],[-93.34238,43.08263],[-93.33977,43.08348],[-93.34292,43.08832],[-93.34298,43.09354],[-93.34684,43.09681],[-93.35279,43.09617],[-93.3538,43.09439],[-93.35239,43.09292],[-93.35713,43.08922],[-93.36064,43.08876],[-93.36427,43.09267],[-93.36468,43.09568],[-93.37996,43.09284],[-93.38728,43.09984],[-93.38847,43.10193],[-93.38623,43.10378],[-93.39157,43.1096],[-93.39404,43.11071],[-93.39796,43.1097],[-93.40556,43.1047],[-93.40918,43.10492],[-93.41477,43.10904],[-93.4166,43.11268],[-93.42093,43.11258],[-93.42524,43.1084],[-93.4324,43.10993],[-93.44178,43.10466],[-93.45182,43.10443],[-93.4563,43.09946],[-93.45326,43.09824],[-93.45354,43.09408],[-93.46406,43.09376],[-93.4621,43.08762],[-93.46245,43.08289],[-93.46533,43.07954],[-93.47978,43.0903],[-93.50216,43.09546],[-93.50308,43.09871],[-93.51196,43.1052],[-93.52013,43.10651],[-93.52343,43.10984],[-93.53023,43.11081],[-93.53298,43.11648],[-93.5314,43.12069],[-93.5058,43.126],[-93.50381,43.13214],[-93.49933,43.13471],[-93.49351,43.14342],[-93.48837,43.14613],[-93.49349,43.15782],[-93.49065,43.16211],[-93.49085,43.16905],[-93.49976,43.17602],[-93.50608,43.17987],[-93.51065,43.17579],[-93.52085,43.18034],[-93.52845,43.17994],[-93.53318,43.18559],[-93.5343,43.18996],[-93.53254,43.19408],[-93.5334,43.19504],[-93.53855,43.19633],[-93.54661,43.19481],[-93.55099,43.20115],[-93.56115,43.20665],[-93.57306,43.20061],[-93.5885,43.19588],[-93.58762,43.19373],[-93.58989,43.19036],[-93.59718,43.18735],[-93.597,43.18323],[-93.61195,43.18426],[-93.61524,43.18623],[-93.62105,43.18539],[-93.62172,43.18785],[-93.62632,43.1909],[-93.63394,43.1915],[-93.63767,43.19502],[-93.63769,43.19968],[-93.63581,43.2028],[-93.63735,43.20599],[-93.64111,43.20585],[-93.64704,43.20853],[-93.65892,43.20877],[-93.65656,43.21106],[-93.65851,43.21285],[-93.66318,43.21058],[-93.67733,43.22248],[-93.67779,43.22503],[-93.68881,43.22641],[-93.68389,43.23002],[-93.6845,43.23273],[-93.68303,43.23458],[-93.69532,43.24437],[-93.69382,43.24806],[-93.69051,43.24788],[-93.69462,43.25126],[-93.70762,43.25519],[-93.70752,43.25273],[-93.70523,43.2522],[-93.70362,43.24932],[-93.70483,43.24691],[-93.71934,43.24689],[-93.72209,43.24762],[-93.72163,43.2496],[-93.72392,43.25348],[-93.72909,43.25646],[-93.73449,43.25741],[-93.73984,43.25557],[-93.74509,43.26126],[-93.75328,43.26486],[-93.75742,43.2648],[-93.76003,43.26651],[-93.76519,43.26437],[-93.76721,43.26506],[-93.77116,43.27417],[-93.76809,43.27604],[-93.76364,43.28327],[-93.75965,43.2823],[-93.75719,43.28379],[-93.75444,43.28219],[-93.7513,43.28501],[-93.75488,43.28737],[-93.75667,43.29358],[-93.76265,43.29618],[-93.76765,43.30165],[-93.76614,43.30449],[-93.7754,43.3042],[-93.77354,43.30603],[-93.775,43.31111],[-93.76857,43.31453],[-93.77303,43.32211],[-93.79094,43.33148],[-93.79087,43.33347],[-93.79337,43.33577],[-93.79428,43.34011],[-93.78311,43.35307],[-93.78077,43.35893],[-93.78181,43.36205],[-93.77988,43.36402],[-93.78204,43.36727],[-93.77559,43.37001],[-93.77202,43.36979],[-93.76632,43.37542],[-93.76855,43.37772],[-93.76805,43.37926],[-93.76198,43.38471],[-93.76181,43.38769],[-93.76408,43.38923],[-93.75942,43.39293],[-93.75785,43.39532],[-93.75843,43.39741],[-93.75462,43.39755],[-93.75228,43.40089],[-93.75463,43.40497],[-93.74209,43.41455],[-93.74092,43.42476],[-93.73671,43.42435],[-93.72984,43.42918],[-93.72659,43.42659],[-93.7225,43.42847],[-93.71068,43.42682],[-93.70659,43.42967],[-93.69841,43.43173],[-93.69989,43.43381],[-93.69675,43.43564],[-93.69679,43.44365],[-93.70402,43.44729],[-93.70346,43.45114],[-93.70672,43.45244],[-93.70749,43.45636],[-93.71179,43.46071],[-93.71373,43.46019],[-93.71935,43.46448],[-93.71397,43.46845],[-93.71071,43.46799],[-93.70796,43.47227],[-93.70091,43.47502],[-93.6989,43.47899],[-93.69901,43.48393],[-93.6963,43.48532],[-93.69395,43.48309],[-93.69156,43.4833],[-93.6895,43.47956],[-93.68593,43.47954],[-93.68431,43.47794],[-93.68156,43.48049],[-93.67904,43.48062],[-93.67359,43.47761],[-93.66803,43.47892],[-93.66743,43.47618],[-93.66045,43.4751],[-93.65525,43.48139],[-93.65361,43.48853],[-93.65177,43.49045],[-93.65227,43.49462],[-93.64996,43.49508],[-93.6517,43.49946],[-93.64932,43.50101],[-93.65279,43.50724],[-93.65033,43.50894],[-93.65192,43.5128],[-93.64935,43.51707],[-93.65347,43.52163],[-93.64874,43.52232],[-93.64876,43.52634],[-93.64161,43.52571],[-93.63755,43.53071],[-93.63971,43.53398],[-93.64422,43.53429],[-93.64723,43.53767],[-93.65213,43.53963],[-93.64939,43.54131],[-93.65165,43.54331],[-93.65995,43.54602],[-93.65909,43.5486],[-93.66106,43.55327],[-93.66416,43.55528],[-93.66366,43.55734],[-93.65498,43.55435],[-93.65446,43.55581],[-93.6516,43.55512],[-93.64543,43.55173],[-93.64067,43.55097],[-93.63743,43.55296],[-93.63587,43.55237],[-93.63628,43.55001],[-93.63329,43.55088],[-93.62552,43.54874],[-93.6215,43.55152],[-93.61758,43.55193],[-93.60723,43.54897],[-93.60315,43.55921],[-93.59639,43.55884],[-93.59584,43.56084],[-93.59327,43.56111],[-93.59416,43.5629],[-93.58617,43.56209],[-93.57789,43.56655],[-93.57753,43.57046],[-93.58331,43.57176],[-93.58293,43.57527],[-93.57795,43.57573],[-93.58117,43.57951],[-93.58836,43.58045],[-93.59134,43.57823],[-93.5941,43.57968],[-93.59426,43.58333],[-93.5922,43.58704],[-93.59518,43.58852],[-93.59328,43.59118],[-93.58989,43.59214],[-93.59072,43.59378],[-93.58791,43.594],[-93.58753,43.59565],[-93.58951,43.59688],[-93.58664,43.59833],[-93.58673,43.60167],[-93.59022,43.60309],[-93.59093,43.6057],[-93.58887,43.60706],[-93.58926,43.60864],[-93.58473,43.61103],[-93.58805,43.61331],[-93.59025,43.61853],[-93.59243,43.61752],[-93.59488,43.6194],[-93.59518,43.62142],[-93.59298,43.62188],[-93.59095,43.62572],[-93.59311,43.62773],[-93.59154,43.62905],[-93.59243,43.63081],[-93.58839,43.63228],[-93.58246,43.6392],[-93.5742,43.63908],[-93.57724,43.64238],[-93.57435,43.64724],[-93.56885,43.64627],[-93.56069,43.64844],[-93.55788,43.65155],[-93.55871,43.65394],[-93.55677,43.65863],[-93.54686,43.66344],[-93.54395,43.66287],[-93.54062,43.66939],[-93.52792,43.67734],[-93.52909,43.68496],[-93.52801,43.6862],[-93.52584,43.68448],[-93.52157,43.68478],[-93.5205,43.68955],[-93.51658,43.68983],[-93.51418,43.69187],[-93.52328,43.69895],[-93.52349,43.70193],[-93.52053,43.70327],[-93.52393,43.707],[-93.51942,43.70809],[-93.51936,43.71167],[-93.51329,43.71164],[-93.51022,43.71536],[-93.50751,43.71607],[-93.50639,43.71736],[-93.50757,43.71947],[-93.50208,43.72109],[-93.50091,43.72244],[-93.50194,43.72378],[-93.49935,43.72611],[-93.4905,43.72855],[-93.48495,43.73551],[-93.48899,43.73885],[-93.48913,43.74336],[-93.48203,43.74589],[-93.47842,43.74902],[-93.47239,43.74706],[-93.46905,43.75077],[-93.46491,43.75073],[-93.46289,43.74796],[-93.45771,43.74824],[-93.44826,43.75131],[-93.44387,43.75541],[-93.44048,43.75636],[-93.43606,43.75439],[-93.43286,43.75595],[-93.4274,43.75586],[-93.42828,43.75904],[-93.42392,43.76208],[-93.41788,43.76182],[-93.4163,43.76356],[-93.42275,43.77256],[-93.41137,43.77531],[-93.40894,43.77807],[-93.40343,43.77755],[-93.4031,43.77975],[-93.40003,43.782],[-93.395,43.78026],[-93.38672,43.78158],[-93.38384,43.78004],[-93.3822,43.7855],[-93.37562,43.78682],[-93.37358,43.7859],[-93.36699,43.78879],[-93.36001,43.78829],[-93.35642,43.78166],[-93.35187,43.78104],[-93.34102,43.77264],[-93.34619,43.76987],[-93.34581,43.76837],[-93.33659,43.76365],[-93.33271,43.76264],[-93.32875,43.76426],[-93.3225,43.75975],[-93.31729,43.76025],[-93.31519,43.75897],[-93.3146,43.75358],[-93.31287,43.75332],[-93.31243,43.74578],[-93.30942,43.74318],[-93.3092,43.73948],[-93.31088,43.73785],[-93.30988,43.73534],[-93.31185,43.73371],[-93.30708,43.73127],[-93.30583,43.7279],[-93.30331,43.72791],[-93.29992,43.72481],[-93.29242,43.7272],[-93.29397,43.72425],[-93.2925,43.72278],[-93.29835,43.71659],[-93.29954,43.71259],[-93.29861,43.70974],[-93.29526,43.70941],[-93.29287,43.7065],[-93.28566,43.70308],[-93.28055,43.7061],[-93.27821,43.70547],[-93.27991,43.70277],[-93.27881,43.70179],[-93.27469,43.7018],[-93.26682,43.69317],[-93.25716,43.68813],[-93.24467,43.68792],[-93.23847,43.69232],[-93.23458,43.69169],[-93.23221,43.693],[-93.22551,43.68923],[-93.23185,43.6753],[-93.22829,43.67364],[-93.22521,43.66684],[-93.21993,43.66269],[-93.21613,43.66241],[-93.21475,43.66492],[-93.20994,43.66601],[-93.20852,43.67123],[-93.20185,43.67542],[-93.19577,43.67287],[-93.18806,43.67222],[-93.18107,43.67344],[-93.17877,43.67225],[-93.16947,43.67529],[-93.16846,43.67378],[-93.17005,43.67045],[-93.16777,43.66985],[-93.16671,43.66732],[-93.16415,43.668],[-93.16123,43.66581],[-93.16099,43.66319],[-93.15627,43.65994],[-93.15001,43.65987],[-93.15474,43.65293],[-93.15107,43.65067],[-93.14947,43.6472],[-93.1458,43.64638],[-93.14696,43.64417],[-93.14293,43.64012],[-93.14404,43.63762],[-93.14661,43.63836],[-93.14844,43.63534],[-93.13941,43.62989],[-93.13901,43.62686],[-93.13569,43.62397],[-93.14292,43.62373],[-93.15198,43.62631],[-93.15595,43.62542],[-93.15577,43.62365],[-93.15825,43.62236],[-93.15617,43.61811],[-93.15985,43.61387],[-93.16693,43.61771],[-93.17155,43.61597],[-93.178,43.61749],[-93.18831,43.61472],[-93.18877,43.61111],[-93.17992,43.6079],[-93.17813,43.60539],[-93.1784,43.59976],[-93.18629,43.5975],[-93.18224,43.59254],[-93.18428,43.58877],[-93.18277,43.58195],[-93.18738,43.57699],[-93.19364,43.57895],[-93.19605,43.57807],[-93.19911,43.57389],[-93.20588,43.57268],[-93.21233,43.56591],[-93.21621,43.56489],[-93.21795,43.56267],[-93.22323,43.56288],[-93.22296,43.56088],[-93.22553,43.55988],[-93.22592,43.55683],[-93.22272,43.55267],[-93.22575,43.55103],[-93.22738,43.54729],[-93.23239,43.54711],[-93.22969,43.54299],[-93.2312,43.53955],[-93.22703,43.53345],[-93.22346,43.53306],[-93.21927,43.53016],[-93.21827,43.52306],[-93.21285,43.51866],[-93.21491,43.51622],[-93.21845,43.51785],[-93.22351,43.5134],[-93.22903,43.514],[-93.22893,43.50672],[-93.21676,43.5094],[-93.21385,43.50518],[-93.21134,43.5056],[-93.20465,43.50189],[-93.20352,43.49764],[-93.19881,43.49235],[-93.20159,43.49077],[-93.2063,43.49143],[-93.20871,43.48968],[-93.20767,43.48739],[-93.20904,43.48509],[-93.20577,43.48107],[-93.20657,43.47784],[-93.22237,43.475],[-93.22726,43.4709],[-93.22542,43.46116],[-93.22849,43.45384],[-93.22168,43.45149],[-93.22138,43.4492],[-93.22401,43.44892],[-93.22519,43.44689],[-93.22157,43.44578],[-93.21474,43.4492],[-93.20896,43.44935],[-93.20754,43.44466],[-93.20049,43.4428],[-93.19274,43.43615],[-93.18688,43.43392],[-93.18336,43.42673],[-93.1787,43.42432],[-93.17581,43.4188],[-93.17124,43.415],[-93.17022,43.41109],[-93.16189,43.40523],[-93.15931,43.40111],[-93.15133,43.39869],[-93.14137,43.39323],[-93.1397,43.3902],[-93.13152,43.38706],[-93.1314,43.38373],[-93.13759,43.38263],[-93.13668,43.37879],[-93.12057,43.37331],[-93.11264,43.37689],[-93.09843,43.37697],[-93.09906,43.37046],[-93.09595,43.36713],[-93.08521,43.36728],[-93.07567,43.36046],[-93.07037,43.35155],[-93.06309,43.34502],[-93.06343,43.34242],[-93.06935,43.33947],[-93.06834,43.33698],[-93.07011,43.32877],[-93.06215,43.32766],[-93.05422,43.3243],[-93.04681,43.31797],[-93.04152,43.31858],[-93.03185,43.31521],[-93.03294,43.31262],[-93.02798,43.30552],[-93.02797,43.30137],[-93.02249,43.29491],[-93.02568,43.29303],[-93.02674,43.28962],[-93.02241,43.28121],[-93.02944,43.275],[-93.02824,43.27169],[-93.02335,43.27034],[-93.01928,43.26612],[-93.01071,43.26545],[-93.00736,43.26218],[-93.00876,43.25797],[-92.99116,43.25227],[-92.99036,43.24767],[-92.98264,43.24478],[-92.9807,43.23912],[-92.97298,43.23733],[-92.97127,43.23406],[-92.97484,43.23042],[-92.97588,43.22676],[-92.96602,43.21835],[-92.96091,43.21859],[-92.9521,43.21541],[-92.9496,43.21179],[-92.9418,43.21188],[-92.93743,43.20989],[-92.92994,43.2055],[-92.92795,43.20231],[-92.91633,43.19911],[-92.91345,43.19295],[-92.89837,43.18751],[-92.89371,43.18067],[-92.89278,43.17624],[-92.87842,43.16846],[-92.88075,43.16321],[-92.87998,43.15973],[-92.88191,43.15698],[-92.87693,43.15281],[-92.86961,43.14981],[-92.87423,43.14103],[-92.87363,43.13565],[-92.87022,43.13338],[-92.87038,43.13132],[-92.86679,43.12751],[-92.86705,43.12468],[-92.85577,43.11786],[-92.85188,43.11127],[-92.84998,43.10424],[-92.84483,43.10131],[-92.84425,43.09856],[-92.83408,43.09733],[-92.82595,43.09141],[-92.82135,43.09344],[-92.80895,43.09019],[-92.80577,43.08387],[-92.80127,43.07968],[-92.79175,43.07421],[-92.7771,43.07019],[-92.77494,43.06619],[-92.77026,43.06507],[-92.76475,43.06114],[-92.7585,43.05957],[-92.75018,43.06321],[-92.74517,43.06003],[-92.73989,43.05919],[-92.73739,43.05161],[-92.73041,43.04892],[-92.72449,43.04418],[-92.71635,43.04221],[-92.71063,43.03622],[-92.71422,43.03249],[-92.707,43.02854],[-92.70618,43.02508],[-92.70853,43.0226],[-92.70773,43.02108],[-92.70256,43.01726],[-92.69432,43.01506],[-92.68962,43.00692],[-92.67772,43.00011],[-92.67724,42.99615],[-92.67075,42.99258],[-92.6637,42.98548],[-92.65524,42.98516],[-92.65215,42.98362],[-92.64565,42.98442],[-92.64008,42.98842],[-92.63518,42.98701],[-92.62992,42.98774],[-92.627,42.99312],[-92.62768,42.99699],[-92.62173,43.0003],[-92.61642,42.99567],[-92.61231,42.99474],[-92.60748,42.98797],[-92.60286,42.98504],[-92.60483,42.98325],[-92.60327,42.98087],[-92.60744,42.97882],[-92.59304,42.97403],[-92.59666,42.96924],[-92.60152,42.96744],[-92.60037,42.96507],[-92.60116,42.96113],[-92.59835,42.95299],[-92.59508,42.94923],[-92.5968,42.94344],[-92.59289,42.93963],[-92.59367,42.9332],[-92.59813,42.93032],[-92.5962,42.92901],[-92.59907,42.92772],[-92.59963,42.92511],[-92.59603,42.9192],[-92.59656,42.9177],[-92.59189,42.91628],[-92.59085,42.9116],[-92.58728,42.90974],[-92.58709,42.89972],[-92.58274,42.89799],[-92.5787,42.89347],[-92.58058,42.88663],[-92.58279,42.88425],[-92.57898,42.87916],[-92.57849,42.87427],[-92.58157,42.86948],[-92.57361,42.86801],[-92.57148,42.86607],[-92.56999,42.85371],[-92.56667,42.84572],[-92.55949,42.838],[-92.554,42.83705],[-92.55172,42.83418],[-92.54854,42.82669],[-92.54471,42.82337],[-92.54487,42.81503],[-92.54228,42.81283],[-92.54373,42.80926],[-92.54264,42.80487],[-92.54909,42.79822],[-92.54634,42.79275],[-92.54733,42.78973],[-92.54502,42.78305],[-92.54798,42.77994],[-92.5482,42.77565],[-92.55418,42.77419],[-92.5557,42.7724],[-92.55745,42.76626],[-92.55608,42.76153],[-92.54821,42.75077],[-92.54777,42.74593],[-92.54979,42.74372],[-92.54706,42.74272],[-92.54636,42.74011],[-92.5494,42.73511],[-92.54542,42.72138],[-92.54812,42.71816],[-92.55342,42.71694],[-92.55947,42.70819],[-92.5587,42.70515],[-92.55363,42.70154],[-92.55522,42.69888],[-92.55907,42.69978],[-92.55943,42.69831],[-92.56243,42.69986],[-92.56865,42.6951],[-92.57667,42.69482],[-92.58013,42.69073],[-92.57852,42.68825],[-92.57928,42.68412],[-92.57737,42.67837],[-92.59427,42.67935],[-92.59795,42.6829]]]}}]}