{"type":"FeatureCollection","features":[{"type":"Feature","properties":{},"geometry":{"type":"Polygon","coordinates":[[[-94.66647,41.62512],[-94.66647,41.62095],[-94.67063,41.62095],[-94.67063,41.61678],[-94.68314,41.61678],[-94.68314,41.61262],[-94.6873,41.61262],[-94.6873,41.60845],[-94.69147,41.60845],[-94.69147,41.60011],[-94.6998,41.60011],[-94.6998,41.58761],[-94.69564,41.58761],[-94.69564,41.58345],[-94.69147,41.58345],[-94.69147,41.57928],[-94.6873,41.57928],[-94.6873,41.57511],[-94.6748,41.57511],[-94.6748,41.57095],[-94.67063,41.57095],[-94.67063,41.55844],[-94.66647,41.55844],[-94.66647,41.55011],[-94.6623,41.55011],[-94.6623,41.54178],[-94.65813,41.54178],[-94.65813,41.53761],[-94.6623,41.53761],[-94.6623,41.52928],[-94.65813,41.52928],[-94.65813,41.52094],[-94.65397,41.52094],[-94.65397,41.51677],[-94.6498,41.51677],[-94.6498,41.50427],[-94.64563,41.50427],[-94.64563,41.50011],[-94.6373,41.50011],[-94.6373,41.49594],[-94.64147,41.49594],[-94.64147,41.49177],[-94.6373,41.49177],[-94.6373,41.48344],[-94.62063,41.48344],[-94.62063,41.47094],[-94.61646,41.47094],[-94.61646,41.4626],[-94.60396,41.4626],[-94.60396,41.45844],[-94.5998,41.45844],[-94.5998,41.45427],[-94.59146,41.45427],[-94.59146,41.4501],[-94.58313,41.4501],[-94.58313,41.44177],[-94.57479,41.44177],[-94.57479,41.44594],[-94.56229,41.44594],[-94.56229,41.4501],[-94.55813,41.4501],[-94.55813,41.4626],[-94.55396,41.4626],[-94.55396,41.46677],[-94.54563,41.46677],[-94.54563,41.47094],[-94.53729,41.47094],[-94.53729,41.4751],[-94.52479,41.4751],[-94.52479,41.48344],[-94.52062,41.48344],[-94.52062,41.48761],[-94.51229,41.48761],[-94.51229,41.47927],[-94.50812,41.47927],[-94.50812,41.4751],[-94.49979,41.4751],[-94.49979,41.46677],[-94.48729,41.46677],[-94.48729,41.4626],[-94.48312,41.4626],[-94.48312,41.45427],[-94.47895,41.45427],[-94.47895,41.45844],[-94.47479,41.45844],[-94.47479,41.45427],[-94.46228,41.45427],[-94.46228,41.4501],[-94.44978,41.4501],[-94.44978,41.44594],[-94.44145,41.44594],[-94.44145,41.44177],[-94.42895,41.44177],[-94.42895,41.44594],[-94.42061,41.44594],[-94.42061,41.4501],[-94.41645,41.4501],[-94.41645,41.45427],[-94.42061,41.45427],[-94.42061,41.45844],[-94.41645,41.45844],[-94.41645,41.4626],[-94.41228,41.4626],[-94.41228,41.46677],[-94.42061,41.46677],[-94.42061,41.47094],[-94.42478,41.47094],[-94.42478,41.4751],[-94.42895,41.4751],[-94.42895,41.47927],[-94.43312,41.47927],[-94.43312,41.48761],[-94.43728,41.48761],[-94.43728,41.49177],[-94.44562,41.49177],[-94.44562,41.49594],[-94.45395,41.49594],[-94.45395,41.50427],[-94.46645,41.50427],[-94.46645,41.51261],[-94.47062,41.51261],[-94.47062,41.51677],[-94.47479,41.51677],[-94.47479,41.52511],[-94.48312,41.52511],[-94.48312,41.53344],[-94.48729,41.53344],[-94.48729,41.52928],[-94.49145,41.52928],[-94.49145,41.53344],[-94.50395,41.53344],[-94.50395,41.53761],[-94.51229,41.53761],[-94.51229,41.54178],[-94.51646,41.54178],[-94.51646,41.55011],[-94.52479,41.55011],[-94.52479,41.55428],[-94.52896,41.55428],[-94.52896,41.56261],[-94.53312,41.56261],[-94.53312,41.56678],[-94.54146,41.56678],[-94.54146,41.57511],[-94.55396,41.57511],[-94.55396,41.58345],[-94.55813,41.58345],[-94.55813,41.58761],[-94.57063,41.58761],[-94.57063,41.59595],[-94.58313,41.59595],[-94.58313,41.60011],[-94.59146,41.60011],[-94.59146,41.59595],[-94.60396,41.59595],[-94.60396,41.60011],[-94.60813,41.60011],[-94.60813,41.60428],[-94.62896,41.60428],[-94.62896,41.60845],[-94.63313,41.60845],[-94.63313,41.61678],[-94.6498,41.61678],[-94.6498,41.62512],[-94.66647,41.62512]]]}}]}