{"type":"FeatureCollection","features":[{"type":"Feature","properties":{},"geometry":{"type":"Polygon","coordinates":[[[-96.24993,43.19191],[-96.24993,43.18774],[-96.25409,43.18774],[-96.25409,43.17941],[-96.25826,43.17941],[-96.25826,43.17524],[-96.25409,43.17524],[-96.25409,43.17107],[-96.24993,43.17107],[-96.24993,43.16691],[-96.25409,43.16691],[-96.25409,43.15857],[-96.24159,43.15857],[-96.24159,43.16274],[-96.22493,43.16274],[-96.22493,43.15857],[-96.21659,43.15857],[-96.21659,43.16691],[-96.21242,43.16691],[-96.21242,43.17524],[-96.21659,43.17524],[-96.21659,43.17941],[-96.22076,43.17941],[-96.22076,43.18357],[-96.22493,43.18357],[-96.22493,43.18774],[-96.24576,43.18774],[-96.24576,43.19191],[-96.24993,43.19191]]]}}]}