{"type":"FeatureCollection","features":[{"type":"Feature","properties":{},"geometry":{"type":"Polygon","coordinates":[[[-93.28575,41.59187],[-93.30184,41.59784],[-93.30647,41.59484],[-93.30995,41.59453],[-93.31556,41.59947],[-93.32058,41.59957],[-93.32648,41.60392],[-93.33627,41.60679],[-93.34242,41.61305],[-93.34555,41.61422],[-93.34574,41.61673],[-93.34174,41.62114],[-93.33845,41.62237],[-93.33723,41.62605],[-93.32183,41.63101],[-93.3222,41.63474],[-93.31503,41.63717],[-93.31329,41.63992],[-93.30971,41.63931],[-93.30333,41.63199],[-93.2899,41.63224],[-93.28847,41.62741],[-93.28582,41.62504],[-93.28549,41.62128],[-93.27298,41.6192],[-93.2705,41.61353],[-93.27162,41.61008],[-93.28309,41.60442],[-93.27848,41.59837],[-93.27951,41.59362],[-93.28575,41.59187]]]}}]}