{"type":"FeatureCollection","features":[{"type":"Feature","properties":{},"geometry":{"type":"Polygon","coordinates":[[[-92.76215,43.66695],[-92.76215,43.66278],[-92.77048,43.66278],[-92.77048,43.65861],[-92.77465,43.65861],[-92.77465,43.65445],[-92.77882,43.65445],[-92.77882,43.65028],[-92.78298,43.65028],[-92.78298,43.63778],[-92.77882,43.63778],[-92.77882,43.62111],[-92.78298,43.62111],[-92.78298,43.61694],[-92.77882,43.61694],[-92.77882,43.60444],[-92.78298,43.60444],[-92.78298,43.60027],[-92.77882,43.60027],[-92.77882,43.57944],[-92.79965,43.57944],[-92.79965,43.56277],[-92.80382,43.56277],[-92.80382,43.5461],[-92.80799,43.5461],[-92.80799,43.52527],[-92.81215,43.52527],[-92.81215,43.51277],[-92.80799,43.51277],[-92.80799,43.50443],[-92.80382,43.50443],[-92.80382,43.4961],[-92.80799,43.4961],[-92.80799,43.48777],[-92.82465,43.48777],[-92.82465,43.4836],[-92.82882,43.4836],[-92.82882,43.4711],[-92.82465,43.4711],[-92.82465,43.43776],[-92.82882,43.43776],[-92.82882,43.43359],[-92.83299,43.43359],[-92.83299,43.42943],[-92.84132,43.42943],[-92.84132,43.42526],[-92.85799,43.42526],[-92.85799,43.41693],[-92.85382,43.41693],[-92.85382,43.40859],[-92.84966,43.40859],[-92.84966,43.40443],[-92.84549,43.40443],[-92.84549,43.38359],[-92.83715,43.38359],[-92.83715,43.37526],[-92.83299,43.37526],[-92.83299,43.37109],[-92.83715,43.37109],[-92.83715,43.36276],[-92.82882,43.36276],[-92.82882,43.35859],[-92.81632,43.35859],[-92.81632,43.35442],[-92.81215,43.35442],[-92.81215,43.35859],[-92.80799,43.35859],[-92.80799,43.35442],[-92.80382,43.35442],[-92.80382,43.35025],[-92.79965,43.35025],[-92.79965,43.34609],[-92.78715,43.34609],[-92.78715,43.34192],[-92.78298,43.34192],[-92.78298,43.33775],[-92.76632,43.33775],[-92.76632,43.33359],[-92.76215,43.33359],[-92.76215,43.32942],[-92.75798,43.32942],[-92.75798,43.32109],[-92.74965,43.32109],[-92.74965,43.31275],[-92.74548,43.31275],[-92.74548,43.30858],[-92.73715,43.30858],[-92.73715,43.31275],[-92.72048,43.31275],[-92.72048,43.30858],[-92.70381,43.30858],[-92.70381,43.30025],[-92.69964,43.30025],[-92.69964,43.28775],[-92.70381,43.28775],[-92.70381,43.27108],[-92.70798,43.27108],[-92.70798,43.26691],[-92.71214,43.26691],[-92.71214,43.26275],[-92.72048,43.26275],[-92.72048,43.24608],[-92.72465,43.24608],[-92.72465,43.23775],[-92.72048,43.23775],[-92.72048,43.22941],[-92.71214,43.22941],[-92.71214,43.20858],[-92.71631,43.20858],[-92.71631,43.20441],[-92.72048,43.20441],[-92.72048,43.20024],[-92.72465,43.20024],[-92.72465,43.19608],[-92.71631,43.19608],[-92.71631,43.19191],[-92.71214,43.19191],[-92.71214,43.18774],[-92.70381,43.18774],[-92.70381,43.18357],[-92.69964,43.18357],[-92.69964,43.17941],[-92.69548,43.17941],[-92.69548,43.17524],[-92.69131,43.17524],[-92.69131,43.16691],[-92.68714,43.16691],[-92.68714,43.15024],[-92.67047,43.15024],[-92.67047,43.14607],[-92.66631,43.14607],[-92.66631,43.1419],[-92.66214,43.1419],[-92.66214,43.1294],[-92.65381,43.1294],[-92.65381,43.12107],[-92.64547,43.12107],[-92.64547,43.1169],[-92.63297,43.1169],[-92.63297,43.10857],[-92.62464,43.10857],[-92.62464,43.1044],[-92.6288,43.1044],[-92.6288,43.09607],[-92.62464,43.09607],[-92.62464,43.0919],[-92.62047,43.0919],[-92.62047,43.08773],[-92.6163,43.08773],[-92.6163,43.08357],[-92.61214,43.08357],[-92.61214,43.0794],[-92.59964,43.0794],[-92.59964,43.08357],[-92.59547,43.08357],[-92.59547,43.08773],[-92.5913,43.08773],[-92.5913,43.08357],[-92.58297,43.08357],[-92.58297,43.07523],[-92.5788,43.07523],[-92.5788,43.07107],[-92.57463,43.07107],[-92.57463,43.0669],[-92.57047,43.0669],[-92.57047,43.06273],[-92.56213,43.06273],[-92.56213,43.0544],[-92.54963,43.0544],[-92.54963,43.05023],[-92.5413,43.05023],[-92.5413,43.05856],[-92.53713,43.05856],[-92.53713,43.06273],[-92.53296,43.06273],[-92.53296,43.0669],[-92.5288,43.0669],[-92.5288,43.07107],[-92.52463,43.07107],[-92.52463,43.07523],[-92.50796,43.07523],[-92.50796,43.0794],[-92.50379,43.0794],[-92.50379,43.08357],[-92.49963,43.08357],[-92.49963,43.0919],[-92.50379,43.0919],[-92.50379,43.09607],[-92.50796,43.09607],[-92.50796,43.10023],[-92.51213,43.10023],[-92.51213,43.1044],[-92.5163,43.1044],[-92.5163,43.10857],[-92.52046,43.10857],[-92.52046,43.1169],[-92.52463,43.1169],[-92.52463,43.1294],[-92.5288,43.1294],[-92.5288,43.13357],[-92.53296,43.13357],[-92.53296,43.1419],[-92.53713,43.1419],[-92.53713,43.14607],[-92.54546,43.14607],[-92.54546,43.15441],[-92.5413,43.15441],[-92.5413,43.15857],[-92.54546,43.15857],[-92.54546,43.16691],[-92.5538,43.16691],[-92.5538,43.17107],[-92.55797,43.17107],[-92.55797,43.17524],[-92.56213,43.17524],[-92.56213,43.17941],[-92.57463,43.17941],[-92.57463,43.18357],[-92.5788,43.18357],[-92.5788,43.18774],[-92.58714,43.18774],[-92.58714,43.19191],[-92.5913,43.19191],[-92.5913,43.19608],[-92.58714,43.19608],[-92.58714,43.20441],[-92.57463,43.20441],[-92.57463,43.21274],[-92.57047,43.21274],[-92.57047,43.22108],[-92.57463,43.22108],[-92.57463,43.23775],[-92.57047,43.23775],[-92.57047,43.24191],[-92.57463,43.24191],[-92.57463,43.26275],[-92.5788,43.26275],[-92.5788,43.27108],[-92.58297,43.27108],[-92.58297,43.28358],[-92.5788,43.28358],[-92.5788,43.28775],[-92.57463,43.28775],[-92.57463,43.29192],[-92.5788,43.29192],[-92.5788,43.29608],[-92.58297,43.29608],[-92.58297,43.30442],[-92.58714,43.30442],[-92.58714,43.30858],[-92.5913,43.30858],[-92.5913,43.31275],[-92.59547,43.31275],[-92.59547,43.32109],[-92.59964,43.32109],[-92.59964,43.35859],[-92.6038,43.35859],[-92.6038,43.37942],[-92.60797,43.37942],[-92.60797,43.38359],[-92.61214,43.38359],[-92.61214,43.39192],[-92.6163,43.39192],[-92.6163,43.40026],[-92.62047,43.40026],[-92.62047,43.40443],[-92.6288,43.40443],[-92.6288,43.42109],[-92.63714,43.42109],[-92.63714,43.42526],[-92.64131,43.42526],[-92.64131,43.42943],[-92.64547,43.42943],[-92.64547,43.43359],[-92.64964,43.43359],[-92.64964,43.43776],[-92.66214,43.43776],[-92.66214,43.44193],[-92.65797,43.44193],[-92.65797,43.45026],[-92.65381,43.45026],[-92.65381,43.45443],[-92.64964,43.45443],[-92.64964,43.4586],[-92.65381,43.4586],[-92.65381,43.46276],[-92.65797,43.46276],[-92.65797,43.47943],[-92.66631,43.47943],[-92.66631,43.4836],[-92.67047,43.4836],[-92.67047,43.48777],[-92.67464,43.48777],[-92.67464,43.49193],[-92.67881,43.49193],[-92.67881,43.4961],[-92.68298,43.4961],[-92.68298,43.50027],[-92.68714,43.50027],[-92.68714,43.50443],[-92.69548,43.50443],[-92.69548,43.51277],[-92.69964,43.51277],[-92.69964,43.5211],[-92.70381,43.5211],[-92.70381,43.52527],[-92.70798,43.52527],[-92.70798,43.52944],[-92.71214,43.52944],[-92.71214,43.5336],[-92.70798,43.5336],[-92.70798,43.53777],[-92.69964,43.53777],[-92.69964,43.54194],[-92.68298,43.54194],[-92.68298,43.5461],[-92.67881,43.5461],[-92.67881,43.55027],[-92.67464,43.55027],[-92.67464,43.55444],[-92.67047,43.55444],[-92.67047,43.5586],[-92.66631,43.5586],[-92.66631,43.57527],[-92.66214,43.57527],[-92.66214,43.57944],[-92.65797,43.57944],[-92.65797,43.58361],[-92.66214,43.58361],[-92.66214,43.59611],[-92.65797,43.59611],[-92.65797,43.60444],[-92.65381,43.60444],[-92.65381,43.60861],[-92.64964,43.60861],[-92.64964,43.61278],[-92.64547,43.61278],[-92.64547,43.61694],[-92.63714,43.61694],[-92.63714,43.62111],[-92.64131,43.62111],[-92.64131,43.62528],[-92.65797,43.62528],[-92.65797,43.62944],[-92.67047,43.62944],[-92.67047,43.63361],[-92.68298,43.63361],[-92.68298,43.63778],[-92.68714,43.63778],[-92.68714,43.63361],[-92.70381,43.63361],[-92.70381,43.63778],[-92.70798,43.63778],[-92.70798,43.64194],[-92.71631,43.64194],[-92.71631,43.64611],[-92.72465,43.64611],[-92.72465,43.65028],[-92.72881,43.65028],[-92.72881,43.65445],[-92.75382,43.65445],[-92.75382,43.66278],[-92.75798,43.66278],[-92.75798,43.66695],[-92.76215,43.66695]]]}}]}