{"type":"FeatureCollection","features":[{"type":"Feature","properties":{},"geometry":{"type":"Polygon","coordinates":[[[-91.47455,43.39192],[-91.47455,43.38359],[-91.47871,43.38359],[-91.47871,43.37942],[-91.49121,43.37942],[-91.49121,43.38359],[-91.49538,43.38359],[-91.49538,43.37109],[-91.49955,43.37109],[-91.49955,43.35859],[-91.50788,43.35859],[-91.50788,43.35025],[-91.51205,43.35025],[-91.51205,43.34609],[-91.50788,43.34609],[-91.50788,43.33359],[-91.51205,43.33359],[-91.51205,43.32525],[-91.49955,43.32525],[-91.49955,43.30025],[-91.48288,43.30025],[-91.48288,43.30442],[-91.47038,43.30442],[-91.47038,43.30858],[-91.46621,43.30858],[-91.46621,43.31275],[-91.46205,43.31275],[-91.46205,43.32109],[-91.45788,43.32109],[-91.45788,43.32525],[-91.44538,43.32525],[-91.44538,43.32942],[-91.42871,43.32942],[-91.42871,43.33775],[-91.43704,43.33775],[-91.43704,43.35025],[-91.44121,43.35025],[-91.44121,43.35859],[-91.44538,43.35859],[-91.44538,43.36276],[-91.44954,43.36276],[-91.44954,43.36692],[-91.45371,43.36692],[-91.45371,43.37109],[-91.46205,43.37109],[-91.46205,43.37526],[-91.45788,43.37526],[-91.45788,43.38359],[-91.46205,43.38359],[-91.46205,43.38776],[-91.47038,43.38776],[-91.47038,43.39192],[-91.47455,43.39192]]]}}]}