{"type":"FeatureCollection","features":[{"type":"Feature","properties":{},"geometry":{"type":"Polygon","coordinates":[[[-94.95399,42.2335],[-94.95399,42.22933],[-94.95816,42.22933],[-94.95816,42.22516],[-94.96232,42.22516],[-94.96232,42.221],[-94.96649,42.221],[-94.96649,42.21266],[-94.97066,42.21266],[-94.97066,42.2085],[-94.96649,42.2085],[-94.96649,42.18766],[-94.97066,42.18766],[-94.97066,42.18349],[-94.96649,42.18349],[-94.96649,42.17516],[-94.97066,42.17516],[-94.97066,42.17933],[-94.97483,42.17933],[-94.97483,42.18349],[-94.98733,42.18349],[-94.98733,42.18766],[-95.02066,42.18766],[-95.02066,42.19183],[-95.03733,42.19183],[-95.03733,42.196],[-95.04566,42.196],[-95.04566,42.18766],[-95.04983,42.18766],[-95.04983,42.17099],[-95.054,42.17099],[-95.054,42.16683],[-95.05817,42.16683],[-95.05817,42.16266],[-95.06233,42.16266],[-95.06233,42.15016],[-95.04566,42.15016],[-95.04566,42.13766],[-95.03733,42.13766],[-95.03733,42.12516],[-95.03316,42.12516],[-95.03316,42.12099],[-95.03733,42.12099],[-95.03733,42.11682],[-95.0415,42.11682],[-95.0415,42.11266],[-95.04566,42.11266],[-95.04566,42.09182],[-95.0415,42.09182],[-95.0415,42.08765],[-95.03316,42.08765],[-95.03316,42.07515],[-95.01233,42.07515],[-95.01233,42.08349],[-95.00816,42.08349],[-95.00816,42.07932],[-94.98733,42.07932],[-94.98733,42.07099],[-94.97483,42.07099],[-94.97483,42.06682],[-94.97066,42.06682],[-94.97066,42.05848],[-94.96649,42.05848],[-94.96649,42.05432],[-94.96232,42.05432],[-94.96232,42.03765],[-94.95816,42.03765],[-94.95816,42.04182],[-94.94982,42.04182],[-94.94982,42.03765],[-94.94566,42.03765],[-94.94566,42.02932],[-94.93732,42.02932],[-94.93732,42.02515],[-94.93316,42.02515],[-94.93316,42.01265],[-94.91649,42.01265],[-94.91649,42.00848],[-94.91232,42.00848],[-94.91232,42.00015],[-94.90815,42.00015],[-94.90815,41.99598],[-94.90399,41.99598],[-94.90399,41.99181],[-94.89982,41.99181],[-94.89982,41.98765],[-94.89149,41.98765],[-94.89149,41.98348],[-94.88315,41.98348],[-94.88315,41.97931],[-94.87899,41.97931],[-94.87899,41.97514],[-94.87482,41.97514],[-94.87482,41.97098],[-94.87065,41.97098],[-94.87065,41.96681],[-94.86648,41.96681],[-94.86648,41.95848],[-94.85815,41.95848],[-94.85815,41.95431],[-94.84565,41.95431],[-94.84565,41.95014],[-94.83731,41.95014],[-94.83731,41.94181],[-94.82898,41.94181],[-94.82898,41.93764],[-94.82481,41.93764],[-94.82481,41.93347],[-94.81231,41.93347],[-94.81231,41.92931],[-94.80815,41.92931],[-94.80815,41.92097],[-94.80398,41.92097],[-94.80398,41.91681],[-94.79564,41.91681],[-94.79564,41.91264],[-94.79148,41.91264],[-94.79148,41.90847],[-94.78314,41.90847],[-94.78314,41.90431],[-94.77481,41.90431],[-94.77481,41.90014],[-94.76648,41.90014],[-94.76648,41.89597],[-94.75814,41.89597],[-94.75814,41.88347],[-94.74981,41.88347],[-94.74981,41.8793],[-94.74147,41.8793],[-94.74147,41.87514],[-94.72897,41.87514],[-94.72897,41.87097],[-94.72064,41.87097],[-94.72064,41.8668],[-94.71647,41.8668],[-94.71647,41.86264],[-94.71231,41.86264],[-94.71231,41.85847],[-94.70814,41.85847],[-94.70814,41.8418],[-94.70397,41.8418],[-94.70397,41.83763],[-94.6998,41.83763],[-94.6998,41.83347],[-94.6873,41.83347],[-94.6873,41.8293],[-94.68314,41.8293],[-94.68314,41.82513],[-94.67063,41.82513],[-94.67063,41.82097],[-94.66647,41.82097],[-94.66647,41.81263],[-94.65397,41.81263],[-94.65397,41.80846],[-94.6498,41.80846],[-94.6498,41.80013],[-94.64563,41.80013],[-94.64563,41.79596],[-94.62063,41.79596],[-94.62063,41.7918],[-94.6123,41.7918],[-94.6123,41.79596],[-94.60813,41.79596],[-94.60813,41.7918],[-94.60396,41.7918],[-94.60396,41.78763],[-94.59146,41.78763],[-94.59146,41.7793],[-94.56229,41.7793],[-94.56229,41.77513],[-94.55813,41.77513],[-94.55813,41.77096],[-94.55396,41.77096],[-94.55396,41.76679],[-94.54979,41.76679],[-94.54979,41.76263],[-94.52479,41.76263],[-94.52479,41.75846],[-94.51646,41.75846],[-94.51646,41.75429],[-94.50812,41.75429],[-94.50812,41.75013],[-94.50395,41.75013],[-94.50395,41.74596],[-94.49562,41.74596],[-94.49562,41.74179],[-94.48729,41.74179],[-94.48729,41.73763],[-94.47895,41.73763],[-94.47895,41.73346],[-94.47062,41.73346],[-94.47062,41.72929],[-94.46228,41.72929],[-94.46228,41.72096],[-94.45812,41.72096],[-94.45812,41.71262],[-94.44978,41.71262],[-94.44978,41.72096],[-94.43728,41.72096],[-94.43728,41.71679],[-94.42895,41.71679],[-94.42895,41.72096],[-94.42061,41.72096],[-94.42061,41.72512],[-94.41645,41.72512],[-94.41645,41.73346],[-94.41228,41.73346],[-94.41228,41.73763],[-94.41645,41.73763],[-94.41645,41.74179],[-94.42061,41.74179],[-94.42061,41.74596],[-94.42478,41.74596],[-94.42478,41.75013],[-94.43312,41.75013],[-94.43312,41.75846],[-94.44562,41.75846],[-94.44562,41.76263],[-94.44978,41.76263],[-94.44978,41.76679],[-94.45812,41.76679],[-94.45812,41.77096],[-94.46228,41.77096],[-94.46228,41.78763],[-94.47062,41.78763],[-94.47062,41.7918],[-94.48729,41.7918],[-94.48729,41.79596],[-94.49145,41.79596],[-94.49145,41.8043],[-94.49979,41.8043],[-94.49979,41.80846],[-94.50812,41.80846],[-94.50812,41.81263],[-94.51229,41.81263],[-94.51229,41.80846],[-94.51646,41.80846],[-94.51646,41.8043],[-94.52062,41.8043],[-94.52062,41.81263],[-94.52479,41.81263],[-94.52479,41.82097],[-94.52062,41.82097],[-94.52062,41.83763],[-94.52479,41.83763],[-94.52479,41.84597],[-94.53729,41.84597],[-94.53729,41.85847],[-94.54146,41.85847],[-94.54146,41.86264],[-94.53729,41.86264],[-94.53729,41.8668],[-94.54146,41.8668],[-94.54146,41.87514],[-94.53729,41.87514],[-94.53729,41.8793],[-94.54146,41.8793],[-94.54146,41.88764],[-94.53729,41.88764],[-94.53729,41.89597],[-94.53312,41.89597],[-94.53312,41.90014],[-94.52479,41.90014],[-94.52479,41.90431],[-94.52062,41.90431],[-94.52062,41.90847],[-94.51646,41.90847],[-94.51646,41.91681],[-94.51229,41.91681],[-94.51229,41.92097],[-94.50812,41.92097],[-94.50812,41.92514],[-94.50395,41.92514],[-94.50395,41.93764],[-94.50812,41.93764],[-94.50812,41.94181],[-94.51646,41.94181],[-94.51646,41.95431],[-94.52062,41.95431],[-94.52062,41.95014],[-94.52479,41.95014],[-94.52479,41.95431],[-94.53312,41.95431],[-94.53312,41.96681],[-94.53729,41.96681],[-94.53729,41.97098],[-94.54563,41.97098],[-94.54563,41.97514],[-94.54979,41.97514],[-94.54979,41.97931],[-94.55396,41.97931],[-94.55396,41.98765],[-94.56229,41.98765],[-94.56229,41.99181],[-94.56646,41.99181],[-94.56646,42.00431],[-94.57063,42.00431],[-94.57063,42.00848],[-94.57479,42.00848],[-94.57479,42.01265],[-94.57896,42.01265],[-94.57896,42.02932],[-94.58313,42.02932],[-94.58313,42.03348],[-94.58729,42.03348],[-94.58729,42.03765],[-94.59563,42.03765],[-94.59563,42.04182],[-94.60813,42.04182],[-94.60813,42.03765],[-94.6123,42.03765],[-94.6123,42.03348],[-94.61646,42.03348],[-94.61646,42.02932],[-94.62063,42.02932],[-94.62063,42.02515],[-94.6248,42.02515],[-94.6248,42.02098],[-94.62896,42.02098],[-94.62896,42.01681],[-94.6373,42.01681],[-94.6373,42.01265],[-94.64147,42.01265],[-94.64147,42.00848],[-94.64563,42.00848],[-94.64563,42.01681],[-94.65397,42.01681],[-94.65397,42.02515],[-94.65813,42.02515],[-94.65813,42.03348],[-94.6623,42.03348],[-94.6623,42.03765],[-94.66647,42.03765],[-94.66647,42.04598],[-94.67063,42.04598],[-94.67063,42.05015],[-94.67897,42.05015],[-94.67897,42.05432],[-94.68314,42.05432],[-94.68314,42.04598],[-94.6873,42.04598],[-94.6873,42.05015],[-94.69564,42.05015],[-94.69564,42.05432],[-94.6998,42.05432],[-94.6998,42.05848],[-94.70397,42.05848],[-94.70397,42.06265],[-94.70814,42.06265],[-94.70814,42.06682],[-94.71231,42.06682],[-94.71231,42.07099],[-94.71647,42.07099],[-94.71647,42.07515],[-94.72064,42.07515],[-94.72064,42.07099],[-94.72481,42.07099],[-94.72481,42.07515],[-94.72897,42.07515],[-94.72897,42.07932],[-94.73314,42.07932],[-94.73314,42.07515],[-94.74147,42.07515],[-94.74147,42.08349],[-94.73731,42.08349],[-94.73731,42.08765],[-94.73314,42.08765],[-94.73314,42.09182],[-94.72064,42.09182],[-94.72064,42.10015],[-94.72897,42.10015],[-94.72897,42.10849],[-94.73731,42.10849],[-94.73731,42.11682],[-94.74981,42.11682],[-94.74981,42.12099],[-94.75814,42.12099],[-94.75814,42.11682],[-94.76648,42.11682],[-94.76648,42.12099],[-94.77898,42.12099],[-94.77898,42.11682],[-94.78314,42.11682],[-94.78314,42.12099],[-94.78731,42.12099],[-94.78731,42.12516],[-94.78314,42.12516],[-94.78314,42.12932],[-94.78731,42.12932],[-94.78731,42.13766],[-94.79148,42.13766],[-94.79148,42.14182],[-94.79981,42.14182],[-94.79981,42.14599],[-94.80815,42.14599],[-94.80815,42.15433],[-94.81648,42.15433],[-94.81648,42.15849],[-94.82065,42.15849],[-94.82065,42.16266],[-94.82481,42.16266],[-94.82481,42.16683],[-94.82898,42.16683],[-94.82898,42.16266],[-94.84565,42.16266],[-94.84565,42.16683],[-94.85398,42.16683],[-94.85398,42.17099],[-94.86648,42.17099],[-94.86648,42.17516],[-94.87482,42.17516],[-94.87482,42.17933],[-94.88315,42.17933],[-94.88315,42.18349],[-94.88732,42.18349],[-94.88732,42.18766],[-94.89149,42.18766],[-94.89149,42.19183],[-94.90399,42.19183],[-94.90399,42.196],[-94.90815,42.196],[-94.90815,42.20016],[-94.91232,42.20016],[-94.91232,42.20433],[-94.91649,42.20433],[-94.91649,42.2085],[-94.92065,42.2085],[-94.92065,42.21683],[-94.92482,42.21683],[-94.92482,42.221],[-94.93316,42.221],[-94.93316,42.22516],[-94.94149,42.22516],[-94.94149,42.22933],[-94.94982,42.22933],[-94.94982,42.2335],[-94.95399,42.2335]]]}}]}