{"type":"FeatureCollection","features":[{"type":"Feature","properties":{},"geometry":{"type":"Polygon","coordinates":[[[-95.30402,42.7252],[-95.30402,42.72104],[-95.30819,42.72104],[-95.30819,42.7127],[-95.31235,42.7127],[-95.31235,42.70854],[-95.31652,42.70854],[-95.31652,42.69604],[-95.31235,42.69604],[-95.31235,42.68353],[-95.31652,42.68353],[-95.31652,42.67937],[-95.30819,42.67937],[-95.30819,42.67103],[-95.30402,42.67103],[-95.30402,42.66687],[-95.29985,42.66687],[-95.29985,42.65853],[-95.28735,42.65853],[-95.28735,42.64603],[-95.28318,42.64603],[-95.28318,42.6502],[-95.27902,42.6502],[-95.27902,42.64603],[-95.27068,42.64603],[-95.27068,42.6502],[-95.26652,42.6502],[-95.26652,42.64603],[-95.25401,42.64603],[-95.25401,42.6502],[-95.24985,42.6502],[-95.24985,42.65437],[-95.25401,42.65437],[-95.25401,42.65853],[-95.24985,42.65853],[-95.24985,42.6627],[-95.24568,42.6627],[-95.24568,42.67103],[-95.24985,42.67103],[-95.24985,42.6752],[-95.25401,42.6752],[-95.25401,42.67937],[-95.25818,42.67937],[-95.25818,42.68353],[-95.26235,42.68353],[-95.26235,42.6877],[-95.26652,42.6877],[-95.26652,42.69187],[-95.27068,42.69187],[-95.27068,42.69604],[-95.27902,42.69604],[-95.27902,42.70437],[-95.28318,42.70437],[-95.28318,42.7127],[-95.28735,42.7127],[-95.28735,42.71687],[-95.29152,42.71687],[-95.29152,42.7252],[-95.30402,42.7252]]]}}]}