{"type":"FeatureCollection","features":[{"type":"Feature","properties":{},"geometry":{"type":"Polygon","coordinates":[[[-92.48881,42.64008],[-92.49002,42.6439],[-92.48906,42.64505],[-92.49218,42.64969],[-92.48971,42.65362],[-92.49309,42.65833],[-92.4965,42.65984],[-92.49809,42.66397],[-92.49728,42.66614],[-92.49987,42.66936],[-92.49599,42.6699],[-92.4904,42.6679],[-92.48294,42.66972],[-92.48531,42.67133],[-92.48399,42.6761],[-92.48767,42.68461],[-92.485,42.69042],[-92.48158,42.69247],[-92.47977,42.69914],[-92.48505,42.70135],[-92.48796,42.70836],[-92.50356,42.71697],[-92.50787,42.72442],[-92.51118,42.7269],[-92.5131,42.73171],[-92.51225,42.74106],[-92.50874,42.74282],[-92.5099,42.74527],[-92.5087,42.74664],[-92.5131,42.75682],[-92.52154,42.76285],[-92.52521,42.76068],[-92.5298,42.76292],[-92.53413,42.77662],[-92.54684,42.78072],[-92.54504,42.7839],[-92.54733,42.78973],[-92.54634,42.79275],[-92.54909,42.79822],[-92.54264,42.80487],[-92.54373,42.80926],[-92.54228,42.81283],[-92.54487,42.81503],[-92.54471,42.82337],[-92.54854,42.82669],[-92.5498,42.83137],[-92.554,42.83705],[-92.55949,42.838],[-92.56667,42.84572],[-92.56999,42.85371],[-92.57148,42.86607],[-92.57361,42.86801],[-92.58157,42.86948],[-92.57849,42.87427],[-92.57898,42.87916],[-92.58279,42.88425],[-92.58058,42.88663],[-92.5787,42.89347],[-92.58274,42.89799],[-92.58709,42.89972],[-92.58728,42.90974],[-92.59085,42.9116],[-92.59189,42.91628],[-92.59656,42.9177],[-92.59603,42.9192],[-92.59999,42.92662],[-92.59664,42.92818],[-92.59813,42.93032],[-92.59367,42.9332],[-92.59289,42.93963],[-92.5968,42.94344],[-92.59508,42.94923],[-92.59835,42.95299],[-92.60116,42.96113],[-92.60037,42.96507],[-92.60152,42.96744],[-92.59666,42.96924],[-92.59304,42.97403],[-92.60744,42.97882],[-92.60327,42.98087],[-92.60483,42.98325],[-92.60286,42.98504],[-92.60748,42.98797],[-92.61231,42.99474],[-92.61642,42.99567],[-92.62173,43.0003],[-92.62768,42.99699],[-92.627,42.99312],[-92.62992,42.98774],[-92.63518,42.98701],[-92.64008,42.98842],[-92.64565,42.98442],[-92.65215,42.98362],[-92.65524,42.98516],[-92.6637,42.98548],[-92.67075,42.99258],[-92.67724,42.99615],[-92.67772,43.00011],[-92.68962,43.00692],[-92.69432,43.01506],[-92.70256,43.01726],[-92.70773,43.02108],[-92.70853,43.0226],[-92.70618,43.02508],[-92.707,43.02854],[-92.71422,43.03249],[-92.71063,43.03622],[-92.71635,43.04221],[-92.72449,43.04418],[-92.73041,43.04892],[-92.73739,43.05161],[-92.73989,43.05919],[-92.74517,43.06003],[-92.75018,43.06321],[-92.7585,43.05957],[-92.76475,43.06114],[-92.77026,43.06507],[-92.77494,43.06619],[-92.7771,43.07019],[-92.79175,43.07421],[-92.80127,43.07968],[-92.80577,43.08387],[-92.80895,43.09019],[-92.82135,43.09344],[-92.82595,43.09141],[-92.83408,43.09733],[-92.84425,43.09856],[-92.84483,43.10131],[-92.84998,43.10424],[-92.85188,43.11127],[-92.85577,43.11786],[-92.86705,43.12468],[-92.86679,43.12751],[-92.87038,43.13132],[-92.87022,43.13338],[-92.87363,43.13565],[-92.87423,43.14103],[-92.86961,43.14981],[-92.87693,43.15281],[-92.88191,43.15698],[-92.87998,43.15973],[-92.88075,43.16321],[-92.87842,43.16846],[-92.89278,43.17624],[-92.89371,43.18067],[-92.89837,43.18751],[-92.91345,43.19295],[-92.91633,43.19911],[-92.92795,43.20231],[-92.92994,43.2055],[-92.93743,43.20989],[-92.9418,43.21188],[-92.9496,43.21179],[-92.9521,43.21541],[-92.96091,43.21859],[-92.96602,43.21835],[-92.97588,43.22676],[-92.97484,43.23042],[-92.97127,43.23406],[-92.97298,43.23733],[-92.9807,43.23912],[-92.98264,43.24478],[-92.99036,43.24767],[-92.99116,43.25227],[-93.00876,43.25797],[-93.00736,43.26218],[-93.01071,43.26545],[-93.01928,43.26612],[-93.02335,43.27034],[-93.02824,43.27169],[-93.02944,43.275],[-93.02241,43.28121],[-93.02674,43.28962],[-93.02568,43.29303],[-93.02249,43.29491],[-93.02797,43.30137],[-93.02798,43.30552],[-93.03294,43.31262],[-93.03185,43.31521],[-93.04152,43.31858],[-93.04681,43.31797],[-93.05422,43.3243],[-93.06215,43.32766],[-93.07011,43.32877],[-93.06834,43.33698],[-93.06935,43.33947],[-93.06343,43.34242],[-93.06309,43.34502],[-93.07037,43.35155],[-93.07567,43.36046],[-93.08521,43.36728],[-93.09595,43.36713],[-93.09906,43.37046],[-93.09843,43.37697],[-93.11264,43.37689],[-93.12057,43.37331],[-93.13668,43.37879],[-93.13759,43.38263],[-93.1314,43.38373],[-93.13152,43.38706],[-93.1397,43.3902],[-93.14137,43.39323],[-93.15133,43.39869],[-93.15931,43.40111],[-93.16189,43.40523],[-93.17022,43.41109],[-93.17124,43.415],[-93.17581,43.4188],[-93.1787,43.42432],[-93.18336,43.42673],[-93.18688,43.43392],[-93.19274,43.43615],[-93.20049,43.4428],[-93.20754,43.44466],[-93.20896,43.44935],[-93.21474,43.4492],[-93.22157,43.44578],[-93.22519,43.44689],[-93.22401,43.44892],[-93.22138,43.4492],[-93.22168,43.45149],[-93.22849,43.45384],[-93.22542,43.46116],[-93.22726,43.4709],[-93.22237,43.475],[-93.20657,43.47784],[-93.20577,43.48107],[-93.20904,43.48509],[-93.20767,43.48739],[-93.20871,43.48968],[-93.2063,43.49143],[-93.20159,43.49077],[-93.19881,43.49235],[-93.20352,43.49764],[-93.20465,43.50189],[-93.21134,43.5056],[-93.21385,43.50518],[-93.21676,43.5094],[-93.22893,43.50672],[-93.22903,43.514],[-93.22351,43.5134],[-93.21845,43.51785],[-93.21491,43.51622],[-93.21285,43.51866],[-93.21827,43.52306],[-93.21927,43.53016],[-93.22346,43.53306],[-93.22703,43.53345],[-93.2312,43.53955],[-93.22969,43.54299],[-93.23239,43.54711],[-93.22738,43.54729],[-93.22575,43.55103],[-93.22272,43.55267],[-93.22592,43.55683],[-93.22553,43.55988],[-93.22296,43.56088],[-93.22323,43.56288],[-93.21795,43.56267],[-93.21621,43.56489],[-93.21233,43.56591],[-93.20588,43.57268],[-93.19911,43.57389],[-93.19605,43.57807],[-93.19364,43.57895],[-93.18738,43.57699],[-93.18277,43.58195],[-93.18428,43.58877],[-93.18224,43.59254],[-93.18629,43.5975],[-93.1784,43.59976],[-93.17813,43.60539],[-93.17992,43.6079],[-93.18877,43.61111],[-93.18831,43.61472],[-93.178,43.61749],[-93.17155,43.61597],[-93.16693,43.61771],[-93.15985,43.61387],[-93.15617,43.61811],[-93.15825,43.62236],[-93.15577,43.62365],[-93.15595,43.62542],[-93.15198,43.62631],[-93.14292,43.62373],[-93.13569,43.62397],[-93.13901,43.62686],[-93.13941,43.62989],[-93.14844,43.63534],[-93.14661,43.63836],[-93.14404,43.63762],[-93.14293,43.64012],[-93.14696,43.64417],[-93.1458,43.64638],[-93.14947,43.6472],[-93.15107,43.65067],[-93.15474,43.65293],[-93.14941,43.65908],[-93.15627,43.65994],[-93.16099,43.66319],[-93.16123,43.66581],[-93.16415,43.668],[-93.16788,43.66825],[-93.16777,43.66985],[-93.17005,43.67045],[-93.16846,43.67378],[-93.16947,43.67529],[-93.17877,43.67225],[-93.18107,43.67344],[-93.18806,43.67222],[-93.19577,43.67287],[-93.20185,43.67542],[-93.20852,43.67123],[-93.20994,43.66601],[-93.21475,43.66492],[-93.21613,43.66241],[-93.21993,43.66269],[-93.22521,43.66684],[-93.22829,43.67364],[-93.23185,43.6753],[-93.22551,43.68923],[-93.23221,43.693],[-93.23458,43.69169],[-93.23847,43.69232],[-93.24467,43.68792],[-93.25716,43.68813],[-93.26682,43.69317],[-93.27469,43.7018],[-93.27881,43.70179],[-93.27991,43.70277],[-93.27821,43.70547],[-93.28055,43.7061],[-93.28566,43.70308],[-93.29287,43.7065],[-93.29526,43.70941],[-93.29861,43.70974],[-93.29954,43.71259],[-93.29835,43.71659],[-93.2925,43.72278],[-93.29397,43.72425],[-93.29242,43.7272],[-93.29992,43.72481],[-93.30331,43.72791],[-93.30583,43.7279],[-93.30708,43.73127],[-93.31185,43.73371],[-93.30988,43.73534],[-93.31088,43.73785],[-93.3092,43.73948],[-93.30942,43.74318],[-93.31243,43.74578],[-93.31287,43.75332],[-93.3146,43.75358],[-93.31519,43.75897],[-93.31729,43.76025],[-93.3225,43.75975],[-93.32875,43.76426],[-93.33271,43.76264],[-93.33659,43.76365],[-93.34581,43.76837],[-93.34619,43.76987],[-93.34102,43.77264],[-93.34575,43.7772],[-93.34815,43.77699],[-93.35187,43.78104],[-93.35642,43.78166],[-93.36001,43.78829],[-93.37088,43.78797],[-93.36939,43.78951],[-93.36895,43.79611],[-93.36627,43.79876],[-93.36277,43.79942],[-93.36386,43.80061],[-93.36194,43.8016],[-93.36355,43.80316],[-93.36285,43.806],[-93.35915,43.80658],[-93.3585,43.81018],[-93.35367,43.81503],[-93.34964,43.82386],[-93.34405,43.82367],[-93.343,43.82575],[-93.34715,43.82946],[-93.34641,43.8341],[-93.34201,43.83565],[-93.33785,43.83344],[-93.33289,43.8339],[-93.33101,43.83578],[-93.33264,43.83724],[-93.32987,43.83722],[-93.32933,43.84056],[-93.32305,43.84156],[-93.32132,43.84417],[-93.32556,43.8449],[-93.32534,43.84822],[-93.31986,43.84927],[-93.313,43.84584],[-93.30974,43.84755],[-93.30919,43.83775],[-93.30047,43.83432],[-93.29338,43.8351],[-93.29303,43.83255],[-93.28918,43.83224],[-93.28859,43.82531],[-93.27921,43.8263],[-93.27937,43.82366],[-93.25923,43.82241],[-93.25094,43.82568],[-93.23969,43.82413],[-93.23875,43.82793],[-93.23204,43.82777],[-93.22676,43.82987],[-93.21974,43.82829],[-93.21735,43.83023],[-93.21818,43.83666],[-93.21419,43.83686],[-93.21128,43.83898],[-93.21061,43.8436],[-93.20479,43.84125],[-93.20451,43.83757],[-93.20626,43.835],[-93.20333,43.82919],[-93.17947,43.83069],[-93.17302,43.83358],[-93.16143,43.83357],[-93.15452,43.83907],[-93.15065,43.83657],[-93.1457,43.83684],[-93.1443,43.83439],[-93.13354,43.83229],[-93.12938,43.83376],[-93.12017,43.83331],[-93.11946,43.8282],[-93.11022,43.82919],[-93.10461,43.83418],[-93.1019,43.83386],[-93.10057,43.83016],[-93.0968,43.82925],[-93.09474,43.83032],[-93.09422,43.83376],[-93.09676,43.83708],[-93.08822,43.84043],[-93.09024,43.84878],[-93.09553,43.85016],[-93.09451,43.85273],[-93.09598,43.85559],[-93.08344,43.86038],[-93.08292,43.86375],[-93.07262,43.86749],[-93.0694,43.87271],[-93.07041,43.87539],[-93.06548,43.87923],[-93.06565,43.88594],[-93.07,43.88563],[-93.06811,43.88648],[-93.06844,43.88904],[-93.06554,43.89342],[-93.07008,43.90045],[-93.07784,43.90256],[-93.07873,43.90737],[-93.07431,43.91003],[-93.07328,43.91366],[-93.06562,43.91285],[-93.06527,43.9169],[-93.05543,43.92098],[-93.05549,43.92746],[-93.04355,43.92878],[-93.0345,43.9319],[-93.02846,43.93748],[-93.01645,43.94129],[-93.0171,43.94561],[-93.01497,43.94785],[-93.00671,43.94609],[-93.00017,43.95025],[-92.96369,43.94998],[-92.95743,43.94799],[-92.94593,43.93867],[-92.92255,43.94182],[-92.91093,43.93665],[-92.9005,43.92968],[-92.89466,43.92866],[-92.8868,43.92432],[-92.86441,43.91971],[-92.84589,43.9191],[-92.8315,43.91391],[-92.82367,43.91292],[-92.81915,43.91001],[-92.81868,43.89934],[-92.82106,43.89382],[-92.81896,43.88754],[-92.81911,43.88213],[-92.81272,43.8786],[-92.7998,43.87799],[-92.79551,43.87411],[-92.79937,43.86953],[-92.79896,43.85061],[-92.80547,43.84638],[-92.80491,43.838],[-92.80048,43.83163],[-92.80939,43.82539],[-92.8092,43.82406],[-92.7991,43.8211],[-92.79796,43.81783],[-92.79998,43.81481],[-92.80116,43.8054],[-92.79631,43.80502],[-92.79422,43.8011],[-92.78648,43.7947],[-92.78856,43.7927],[-92.78967,43.78583],[-92.79587,43.77824],[-92.7899,43.7744],[-92.78954,43.76948],[-92.79934,43.76629],[-92.80044,43.76504],[-92.79968,43.76085],[-92.79559,43.75778],[-92.79442,43.75344],[-92.78975,43.74904],[-92.78567,43.74826],[-92.7797,43.74441],[-92.78032,43.7405],[-92.7776,43.7369],[-92.77323,43.73675],[-92.76446,43.73207],[-92.7605,43.73175],[-92.75855,43.73411],[-92.75404,43.73522],[-92.75334,43.73713],[-92.74952,43.73729],[-92.74853,43.73062],[-92.74642,43.72922],[-92.74811,43.71977],[-92.73283,43.71787],[-92.72736,43.71456],[-92.71962,43.71665],[-92.71332,43.71478],[-92.69937,43.71425],[-92.69789,43.71206],[-92.69919,43.7091],[-92.69763,43.70815],[-92.68774,43.70724],[-92.68466,43.70313],[-92.68677,43.69988],[-92.68419,43.69558],[-92.68687,43.6865],[-92.68961,43.68261],[-92.68939,43.67731],[-92.68477,43.67631],[-92.68367,43.66786],[-92.67708,43.665],[-92.67592,43.66265],[-92.6759,43.66015],[-92.67909,43.65535],[-92.67596,43.64964],[-92.66915,43.64742],[-92.66447,43.64347],[-92.6626,43.63657],[-92.66825,43.62694],[-92.64447,43.62025],[-92.64075,43.61854],[-92.63627,43.61313],[-92.64746,43.60732],[-92.65114,43.59844],[-92.65625,43.594],[-92.6575,43.58364],[-92.65546,43.57972],[-92.65501,43.57352],[-92.66597,43.56417],[-92.6664,43.56198],[-92.66372,43.56103],[-92.6601,43.55542],[-92.66046,43.55376],[-92.66582,43.55306],[-92.6677,43.54787],[-92.67214,43.54581],[-92.67684,43.53911],[-92.68557,43.54043],[-92.69542,43.5388],[-92.70303,43.53555],[-92.71022,43.53565],[-92.71227,43.53166],[-92.70812,43.52484],[-92.70167,43.51999],[-92.68916,43.50042],[-92.6826,43.4973],[-92.68111,43.49389],[-92.6662,43.47932],[-92.65222,43.47045],[-92.65302,43.46533],[-92.65606,43.46377],[-92.65584,43.46152],[-92.6506,43.45858],[-92.64828,43.45114],[-92.66076,43.44495],[-92.6623,43.44294],[-92.65903,43.43995],[-92.66329,43.43442],[-92.65211,43.43193],[-92.64238,43.42771],[-92.62745,43.41672],[-92.62382,43.41137],[-92.62557,43.40687],[-92.62363,43.40007],[-92.61402,43.39516],[-92.61348,43.38585],[-92.61172,43.38299],[-92.60899,43.37979],[-92.60277,43.37775],[-92.60068,43.37474],[-92.60074,43.36594],[-92.59926,43.36258],[-92.6004,43.35779],[-92.59444,43.34728],[-92.59655,43.34531],[-92.59451,43.33713],[-92.59685,43.33511],[-92.59774,43.3279],[-92.59356,43.31905],[-92.59501,43.31524],[-92.59411,43.31201],[-92.58369,43.30129],[-92.5846,43.29956],[-92.58331,43.29798],[-92.57605,43.29398],[-92.58482,43.28561],[-92.58352,43.28243],[-92.58982,43.27818],[-92.5899,43.27344],[-92.58459,43.26825],[-92.57513,43.26679],[-92.57254,43.26338],[-92.57511,43.26062],[-92.57087,43.25408],[-92.57129,43.24451],[-92.56904,43.24253],[-92.56798,43.23744],[-92.56895,43.23519],[-92.5673,43.23111],[-92.56992,43.22905],[-92.57238,43.22191],[-92.56873,43.21717],[-92.56494,43.21635],[-92.56393,43.21453],[-92.56633,43.20537],[-92.58131,43.19572],[-92.58432,43.18747],[-92.57544,43.17914],[-92.56108,43.17491],[-92.55653,43.17169],[-92.55416,43.16706],[-92.54308,43.16272],[-92.54399,43.15995],[-92.54095,43.15676],[-92.53867,43.14992],[-92.54018,43.14693],[-92.53301,43.135],[-92.52868,43.13255],[-92.52762,43.1278],[-92.52346,43.12543],[-92.52194,43.12186],[-92.52213,43.11504],[-92.51987,43.11132],[-92.51431,43.10391],[-92.50604,43.09829],[-92.50535,43.0905],[-92.50164,43.09012],[-92.49596,43.08568],[-92.49604,43.07682],[-92.49075,43.07157],[-92.49247,43.07],[-92.49145,43.06772],[-92.47662,43.05802],[-92.47178,43.04561],[-92.47365,43.03952],[-92.4663,43.03283],[-92.46166,43.03182],[-92.46269,43.02942],[-92.4608,43.02692],[-92.45338,43.02686],[-92.44846,43.02535],[-92.44568,43.02237],[-92.43852,43.02098],[-92.4404,43.01747],[-92.43938,43.0108],[-92.43628,43.00859],[-92.4352,43.00363],[-92.42967,42.9987],[-92.42991,42.99414],[-92.4195,42.98181],[-92.41987,42.97955],[-92.41665,42.97603],[-92.41658,42.97281],[-92.40874,42.96695],[-92.40745,42.94918],[-92.40249,42.94501],[-92.39898,42.93821],[-92.40278,42.93379],[-92.40243,42.93008],[-92.40542,42.92518],[-92.39983,42.91081],[-92.40105,42.90559],[-92.39855,42.90067],[-92.39417,42.89761],[-92.39387,42.895],[-92.38969,42.89253],[-92.39377,42.88359],[-92.39378,42.86587],[-92.39755,42.8554],[-92.39319,42.85235],[-92.38184,42.84871],[-92.38518,42.84788],[-92.38462,42.84587],[-92.38222,42.84283],[-92.3771,42.84091],[-92.3755,42.8287],[-92.36496,42.81459],[-92.35868,42.81203],[-92.35805,42.80567],[-92.34641,42.79914],[-92.34162,42.7943],[-92.34108,42.78864],[-92.33813,42.78443],[-92.33228,42.78346],[-92.3293,42.78135],[-92.32549,42.76854],[-92.32134,42.76418],[-92.31937,42.75819],[-92.31522,42.75572],[-92.31637,42.74807],[-92.31483,42.7421],[-92.30662,42.73737],[-92.3004,42.7291],[-92.2985,42.72501],[-92.29774,42.71441],[-92.2929,42.71107],[-92.29211,42.70743],[-92.28784,42.70376],[-92.29793,42.69437],[-92.29821,42.68901],[-92.29415,42.6867],[-92.29316,42.68287],[-92.28701,42.67592],[-92.28603,42.67251],[-92.28782,42.66654],[-92.28304,42.65789],[-92.28372,42.65464],[-92.28609,42.65431],[-92.29729,42.65874],[-92.30061,42.65791],[-92.30813,42.64609],[-92.30604,42.6359],[-92.30375,42.63379],[-92.30406,42.63194],[-92.29853,42.6216],[-92.29797,42.61807],[-92.30064,42.61381],[-92.29815,42.61151],[-92.2979,42.60155],[-92.30449,42.60279],[-92.30656,42.60168],[-92.31474,42.60482],[-92.32417,42.60271],[-92.32738,42.60505],[-92.33653,42.60362],[-92.35081,42.60548],[-92.36346,42.6115],[-92.36494,42.61579],[-92.37285,42.61509],[-92.37614,42.61814],[-92.37423,42.62058],[-92.37721,42.62327],[-92.38149,42.62402],[-92.4013,42.62018],[-92.40448,42.6268],[-92.40821,42.62895],[-92.40787,42.63334],[-92.4051,42.63545],[-92.40069,42.64621],[-92.40645,42.65383],[-92.41836,42.66067],[-92.41996,42.65872],[-92.42395,42.65848],[-92.42887,42.65917],[-92.43191,42.66234],[-92.43411,42.66142],[-92.44679,42.6632],[-92.44978,42.65857],[-92.44893,42.65503],[-92.45568,42.65121],[-92.45793,42.64714],[-92.46026,42.64686],[-92.46204,42.64502],[-92.46099,42.64283],[-92.47315,42.64094],[-92.48306,42.6424],[-92.48338,42.63912],[-92.48729,42.6381],[-92.48881,42.64008]]]}}]}