{"type":"FeatureCollection","features":[{"type":"Feature","properties":{},"geometry":{"type":"Polygon","coordinates":[[[-92.03601,41.51706],[-92.04268,41.52445],[-92.05143,41.52648],[-92.06425,41.52077],[-92.06884,41.52337],[-92.07036,41.52063],[-92.07549,41.52116],[-92.08225,41.51555],[-92.08875,41.51578],[-92.09189,41.51252],[-92.09627,41.51241],[-92.09613,41.50561],[-92.10089,41.50089],[-92.10656,41.50332],[-92.11069,41.50244],[-92.11159,41.50397],[-92.11834,41.50404],[-92.12836,41.49874],[-92.14635,41.49809],[-92.15211,41.49512],[-92.1664,41.49807],[-92.1733,41.49568],[-92.1828,41.49822],[-92.18692,41.50101],[-92.18943,41.4998],[-92.20459,41.5032],[-92.20794,41.50169],[-92.21524,41.50417],[-92.22445,41.50122],[-92.23809,41.50127],[-92.24141,41.50479],[-92.24078,41.5076],[-92.24398,41.50877],[-92.2551,41.50636],[-92.26006,41.50913],[-92.27405,41.50973],[-92.27856,41.51272],[-92.28331,41.51206],[-92.29055,41.51372],[-92.29319,41.51248],[-92.29628,41.51411],[-92.2966,41.51756],[-92.29412,41.52068],[-92.29435,41.52472],[-92.29154,41.52785],[-92.29284,41.53057],[-92.30988,41.5385],[-92.32286,41.53857],[-92.32642,41.54012],[-92.32719,41.54607],[-92.32484,41.54791],[-92.3254,41.54909],[-92.33238,41.55021],[-92.33831,41.55353],[-92.35578,41.55196],[-92.36327,41.55673],[-92.3761,41.55801],[-92.37822,41.55951],[-92.38201,41.55887],[-92.38694,41.56169],[-92.3938,41.56242],[-92.40027,41.56677],[-92.40554,41.56677],[-92.40738,41.56939],[-92.41289,41.57208],[-92.42022,41.57247],[-92.42152,41.57536],[-92.43519,41.57545],[-92.44109,41.57393],[-92.45136,41.58162],[-92.46415,41.57975],[-92.46837,41.58168],[-92.4771,41.58108],[-92.48052,41.58468],[-92.48887,41.58507],[-92.49457,41.58843],[-92.50966,41.5918],[-92.51252,41.59006],[-92.51681,41.59023],[-92.51893,41.59136],[-92.51856,41.59886],[-92.52487,41.60554],[-92.53294,41.6089],[-92.5342,41.61269],[-92.53897,41.61546],[-92.54151,41.61906],[-92.5507,41.62285],[-92.55865,41.62196],[-92.56363,41.61938],[-92.57489,41.61915],[-92.58845,41.6249],[-92.59258,41.62483],[-92.59932,41.62922],[-92.59916,41.63236],[-92.60967,41.63626],[-92.61579,41.64307],[-92.62002,41.64411],[-92.62098,41.64528],[-92.61967,41.6474],[-92.62236,41.64998],[-92.62612,41.65176],[-92.63258,41.65197],[-92.63493,41.65373],[-92.64378,41.65217],[-92.64654,41.65736],[-92.66014,41.66363],[-92.66487,41.66299],[-92.6709,41.66861],[-92.68901,41.66962],[-92.69381,41.67177],[-92.70051,41.68035],[-92.70787,41.68245],[-92.71466,41.68701],[-92.7252,41.68798],[-92.73323,41.69345],[-92.7402,41.69311],[-92.74127,41.69402],[-92.73945,41.69827],[-92.742,41.70213],[-92.7337,41.70832],[-92.7361,41.71133],[-92.73343,41.71447],[-92.72357,41.71635],[-92.72173,41.71863],[-92.72034,41.72193],[-92.72167,41.72721],[-92.71821,41.72998],[-92.7157,41.73576],[-92.6991,41.73073],[-92.68799,41.72948],[-92.68693,41.72795],[-92.6879,41.72567],[-92.68533,41.72452],[-92.67,41.7242],[-92.66782,41.71747],[-92.66608,41.71651],[-92.65742,41.71661],[-92.65565,41.71436],[-92.64991,41.71969],[-92.64018,41.71852],[-92.63022,41.71142],[-92.62937,41.70911],[-92.63275,41.7073],[-92.62924,41.70243],[-92.62069,41.70238],[-92.60377,41.69644],[-92.59098,41.69898],[-92.59063,41.69611],[-92.577,41.6959],[-92.56946,41.69331],[-92.56636,41.68974],[-92.56313,41.69016],[-92.55811,41.68764],[-92.53749,41.6915],[-92.53055,41.68864],[-92.52148,41.68921],[-92.51137,41.68504],[-92.50835,41.68738],[-92.49889,41.68765],[-92.4954,41.69212],[-92.47393,41.68563],[-92.4712,41.68931],[-92.45947,41.69215],[-92.45611,41.6952],[-92.45809,41.697],[-92.45821,41.69961],[-92.45387,41.70107],[-92.45156,41.70406],[-92.44042,41.69931],[-92.41183,41.69507],[-92.40628,41.69138],[-92.4026,41.69289],[-92.3908,41.69045],[-92.38385,41.69234],[-92.37782,41.6894],[-92.37895,41.68632],[-92.37501,41.68464],[-92.36866,41.68688],[-92.36181,41.68493],[-92.35866,41.68752],[-92.35343,41.68334],[-92.34919,41.68349],[-92.34629,41.68594],[-92.32696,41.68569],[-92.32251,41.68407],[-92.31767,41.67937],[-92.31477,41.67902],[-92.31305,41.67651],[-92.30322,41.67506],[-92.29957,41.67134],[-92.29161,41.67641],[-92.29207,41.68127],[-92.2847,41.68236],[-92.2852,41.68583],[-92.28273,41.68695],[-92.28209,41.68907],[-92.27697,41.69047],[-92.27441,41.69369],[-92.26452,41.69611],[-92.25558,41.69476],[-92.25356,41.69177],[-92.24726,41.69055],[-92.23958,41.6914],[-92.2385,41.6924],[-92.23966,41.694],[-92.23417,41.6948],[-92.23323,41.69317],[-92.22739,41.69237],[-92.22603,41.68966],[-92.22761,41.6827],[-92.22432,41.67951],[-92.22425,41.67733],[-92.21259,41.67444],[-92.20484,41.67455],[-92.19745,41.67191],[-92.19343,41.6741],[-92.1837,41.6735],[-92.18228,41.66356],[-92.17503,41.66465],[-92.1718,41.66295],[-92.16867,41.66363],[-92.16178,41.66033],[-92.15636,41.66478],[-92.15172,41.66486],[-92.14072,41.66067],[-92.13762,41.65877],[-92.1356,41.65466],[-92.12357,41.64912],[-92.1151,41.64922],[-92.10851,41.64504],[-92.10063,41.64816],[-92.0963,41.64716],[-92.09091,41.64182],[-92.09218,41.63735],[-92.08995,41.63267],[-92.08165,41.63069],[-92.07655,41.632],[-92.06781,41.6261],[-92.06915,41.62421],[-92.06827,41.62172],[-92.07273,41.61864],[-92.07071,41.61557],[-92.0722,41.61354],[-92.07041,41.61196],[-92.06222,41.60949],[-92.05885,41.60463],[-92.04404,41.6062],[-92.04272,41.60429],[-92.03786,41.60344],[-92.03623,41.59734],[-92.03053,41.59644],[-92.0281,41.59162],[-92.02473,41.59009],[-92.02287,41.58706],[-92.01744,41.58898],[-92.01581,41.58625],[-92.00487,41.58364],[-92.00656,41.57767],[-92.00254,41.57403],[-92.00698,41.56683],[-92.00716,41.56252],[-92.00399,41.56117],[-92.00224,41.5585],[-92.00306,41.5563],[-91.99895,41.55096],[-92.00194,41.54665],[-92.00233,41.53902],[-92.00134,41.53597],[-91.99625,41.53354],[-91.9962,41.53051],[-91.99317,41.52801],[-91.99904,41.52121],[-91.99856,41.51838],[-92.00144,41.51646],[-92.01305,41.51629],[-92.01434,41.5182],[-92.02746,41.52039],[-92.03601,41.51706]]]}}]}