{"type":"FeatureCollection","features":[{"type":"Feature","properties":{},"geometry":{"type":"Polygon","coordinates":[[[-95.43736,42.30017],[-95.43736,42.296],[-95.44153,42.296],[-95.44153,42.29184],[-95.4582,42.29184],[-95.4582,42.2835],[-95.47487,42.2835],[-95.47487,42.28767],[-95.47903,42.28767],[-95.47903,42.29184],[-95.48737,42.29184],[-95.48737,42.28767],[-95.49153,42.28767],[-95.49153,42.29184],[-95.4957,42.29184],[-95.4957,42.296],[-95.49987,42.296],[-95.49987,42.29184],[-95.51237,42.29184],[-95.51237,42.296],[-95.53737,42.296],[-95.53737,42.28767],[-95.54154,42.28767],[-95.54154,42.2835],[-95.54987,42.2835],[-95.54987,42.28767],[-95.55821,42.28767],[-95.55821,42.26683],[-95.57071,42.26683],[-95.57071,42.26267],[-95.58321,42.26267],[-95.58321,42.2585],[-95.58737,42.2585],[-95.58737,42.25433],[-95.59154,42.25433],[-95.59154,42.246],[-95.60404,42.246],[-95.60404,42.25017],[-95.61238,42.25017],[-95.61238,42.246],[-95.62071,42.246],[-95.62071,42.2335],[-95.62488,42.2335],[-95.62488,42.221],[-95.63321,42.221],[-95.63321,42.21683],[-95.64571,42.21683],[-95.64571,42.21266],[-95.66655,42.21266],[-95.66655,42.2085],[-95.67072,42.2085],[-95.67072,42.21266],[-95.67488,42.21266],[-95.67488,42.2085],[-95.68322,42.2085],[-95.68322,42.20433],[-95.68738,42.20433],[-95.68738,42.196],[-95.69988,42.196],[-95.69988,42.18349],[-95.70822,42.18349],[-95.70822,42.17933],[-95.71238,42.17933],[-95.71238,42.17516],[-95.71655,42.17516],[-95.71655,42.17099],[-95.72905,42.17099],[-95.72905,42.17516],[-95.73322,42.17516],[-95.73322,42.15849],[-95.73739,42.15849],[-95.73739,42.15016],[-95.74155,42.15016],[-95.74155,42.14599],[-95.74572,42.14599],[-95.74572,42.13766],[-95.74989,42.13766],[-95.74989,42.12932],[-95.75405,42.12932],[-95.75405,42.12516],[-95.75822,42.12516],[-95.75822,42.11682],[-95.76239,42.11682],[-95.76239,42.10015],[-95.76656,42.10015],[-95.76656,42.09182],[-95.77489,42.09182],[-95.77489,42.08765],[-95.80823,42.08765],[-95.80823,42.08349],[-95.81656,42.08349],[-95.81656,42.07932],[-95.82906,42.07932],[-95.82906,42.07099],[-95.83323,42.07099],[-95.83323,42.06682],[-95.84156,42.06682],[-95.84156,42.06265],[-95.8374,42.06265],[-95.8374,42.04182],[-95.84573,42.04182],[-95.84573,42.02932],[-95.85406,42.02932],[-95.85406,42.00848],[-95.85823,42.00848],[-95.85823,42.00431],[-95.8624,42.00431],[-95.8624,41.99598],[-95.87073,41.99598],[-95.87073,41.97931],[-95.8874,41.97931],[-95.8874,41.97514],[-95.89573,41.97514],[-95.89573,41.97098],[-95.92073,41.97098],[-95.92073,41.96681],[-95.91657,41.96681],[-95.91657,41.95014],[-95.9124,41.95014],[-95.9124,41.94181],[-95.92073,41.94181],[-95.92073,41.92931],[-95.9249,41.92931],[-95.9249,41.91681],[-95.9374,41.91681],[-95.9374,41.92097],[-95.94574,41.92097],[-95.94574,41.91681],[-95.9499,41.91681],[-95.9499,41.90431],[-95.95407,41.90431],[-95.95407,41.90014],[-95.95824,41.90014],[-95.95824,41.89597],[-95.95407,41.89597],[-95.95407,41.87097],[-95.95824,41.87097],[-95.95824,41.8543],[-95.95407,41.8543],[-95.95407,41.85013],[-95.9499,41.85013],[-95.9499,41.84597],[-95.94574,41.84597],[-95.94574,41.8418],[-95.9374,41.8418],[-95.9374,41.8293],[-95.93324,41.8293],[-95.93324,41.83347],[-95.9249,41.83347],[-95.9249,41.82513],[-95.92907,41.82513],[-95.92907,41.82097],[-95.9249,41.82097],[-95.9249,41.8168],[-95.91657,41.8168],[-95.91657,41.80846],[-95.9124,41.80846],[-95.9124,41.80013],[-95.90823,41.80013],[-95.90823,41.7918],[-95.89157,41.7918],[-95.89157,41.79596],[-95.8874,41.79596],[-95.8874,41.80013],[-95.88323,41.80013],[-95.88323,41.8043],[-95.87906,41.8043],[-95.87906,41.80846],[-95.8624,41.80846],[-95.8624,41.8043],[-95.8499,41.8043],[-95.8499,41.80846],[-95.84573,41.80846],[-95.84573,41.81263],[-95.84156,41.81263],[-95.84156,41.8168],[-95.83323,41.8168],[-95.83323,41.82513],[-95.82906,41.82513],[-95.82906,41.83347],[-95.82489,41.83347],[-95.82489,41.8418],[-95.82073,41.8418],[-95.82073,41.84597],[-95.81239,41.84597],[-95.81239,41.85013],[-95.80823,41.85013],[-95.80823,41.8543],[-95.79572,41.8543],[-95.79572,41.85013],[-95.78322,41.85013],[-95.78322,41.85847],[-95.77489,41.85847],[-95.77489,41.86264],[-95.77072,41.86264],[-95.77072,41.8668],[-95.76239,41.8668],[-95.76239,41.87097],[-95.75822,41.87097],[-95.75822,41.87514],[-95.75405,41.87514],[-95.75405,41.88764],[-95.74989,41.88764],[-95.74989,41.91264],[-95.75405,41.91264],[-95.75405,41.91681],[-95.74572,41.91681],[-95.74572,41.92097],[-95.74155,41.92097],[-95.74155,41.92931],[-95.73322,41.92931],[-95.73322,41.93347],[-95.72489,41.93347],[-95.72489,41.93764],[-95.71238,41.93764],[-95.71238,41.94181],[-95.70822,41.94181],[-95.70822,41.95014],[-95.70405,41.95014],[-95.70405,41.96681],[-95.69572,41.96681],[-95.69572,41.98348],[-95.69155,41.98348],[-95.69155,41.98765],[-95.68738,41.98765],[-95.68738,41.99598],[-95.68322,41.99598],[-95.68322,42.00015],[-95.67905,42.00015],[-95.67905,42.00848],[-95.67072,42.00848],[-95.67072,42.01265],[-95.66238,42.01265],[-95.66238,42.01681],[-95.64988,42.01681],[-95.64988,42.02098],[-95.64155,42.02098],[-95.64155,42.01681],[-95.63738,42.01681],[-95.63738,42.02098],[-95.62904,42.02098],[-95.62904,42.02932],[-95.62071,42.02932],[-95.62071,42.03765],[-95.61654,42.03765],[-95.61654,42.04182],[-95.59988,42.04182],[-95.59988,42.03765],[-95.58737,42.03765],[-95.58737,42.03348],[-95.5457,42.03348],[-95.5457,42.03765],[-95.53737,42.03765],[-95.53737,42.04182],[-95.5332,42.04182],[-95.5332,42.05432],[-95.52487,42.05432],[-95.52487,42.06265],[-95.51654,42.06265],[-95.51654,42.06682],[-95.51237,42.06682],[-95.51237,42.07099],[-95.5082,42.07099],[-95.5082,42.07515],[-95.50404,42.07515],[-95.50404,42.07932],[-95.4957,42.07932],[-95.4957,42.08349],[-95.49153,42.08349],[-95.49153,42.08765],[-95.4707,42.08765],[-95.4707,42.09182],[-95.46653,42.09182],[-95.46653,42.09599],[-95.44986,42.09599],[-95.44986,42.09182],[-95.4457,42.09182],[-95.4457,42.09599],[-95.44153,42.09599],[-95.44153,42.10432],[-95.43736,42.10432],[-95.43736,42.10849],[-95.42903,42.10849],[-95.42903,42.11682],[-95.42069,42.11682],[-95.42069,42.12099],[-95.41653,42.12099],[-95.41653,42.14182],[-95.42069,42.14182],[-95.42069,42.14599],[-95.42486,42.14599],[-95.42486,42.15849],[-95.42069,42.15849],[-95.42069,42.16266],[-95.42486,42.16266],[-95.42486,42.16683],[-95.42903,42.16683],[-95.42903,42.17099],[-95.4332,42.17099],[-95.4332,42.17933],[-95.42486,42.17933],[-95.42486,42.19183],[-95.42069,42.19183],[-95.42069,42.20016],[-95.40403,42.20016],[-95.40403,42.20433],[-95.39986,42.20433],[-95.39986,42.2085],[-95.39153,42.2085],[-95.39153,42.21683],[-95.38736,42.21683],[-95.38736,42.22516],[-95.38319,42.22516],[-95.38319,42.22933],[-95.37902,42.22933],[-95.37902,42.2335],[-95.36652,42.2335],[-95.36652,42.23767],[-95.36236,42.23767],[-95.36236,42.24183],[-95.35819,42.24183],[-95.35819,42.246],[-95.35402,42.246],[-95.35402,42.2585],[-95.34986,42.2585],[-95.34986,42.26267],[-95.34152,42.26267],[-95.34152,42.26683],[-95.33736,42.26683],[-95.33736,42.271],[-95.33319,42.271],[-95.33319,42.27934],[-95.34152,42.27934],[-95.34152,42.2835],[-95.34986,42.2835],[-95.34986,42.28767],[-95.37486,42.28767],[-95.37486,42.2835],[-95.38319,42.2835],[-95.38319,42.27934],[-95.39153,42.27934],[-95.39153,42.27517],[-95.39986,42.27517],[-95.39986,42.27934],[-95.40403,42.27934],[-95.40403,42.296],[-95.4332,42.296],[-95.4332,42.30017],[-95.43736,42.30017]]]}}]}