{"type":"FeatureCollection","features":[{"type":"Feature","properties":{},"geometry":{"type":"Polygon","coordinates":[[[-95.99909,41.89293],[-96.00524,41.89705],[-96.00146,41.89846],[-96.00439,41.90246],[-96.00442,41.90616],[-96.00655,41.90677],[-96.00473,41.91366],[-96.00169,41.91463],[-96.00188,41.92169],[-96.02068,41.92151],[-96.02114,41.92288],[-96.02147,41.96494],[-96.06002,41.9652],[-96.0597,41.97692],[-96.05414,41.97815],[-96.04957,41.98399],[-96.0496,41.99599],[-96.06562,42.00693],[-96.07955,42.00871],[-96.08237,42.01163],[-96.08281,42.01679],[-96.0913,42.01804],[-96.09179,42.02845],[-96.10707,42.02885],[-96.10545,42.03811],[-96.10155,42.04679],[-96.1037,42.05839],[-96.10174,42.06125],[-96.12816,42.09753],[-96.12555,42.09791],[-96.1264,42.11969],[-96.1362,42.1249],[-96.13663,42.12713],[-96.14102,42.12739],[-96.14364,42.12989],[-96.13849,42.14065],[-96.1427,42.14603],[-96.15097,42.15158],[-96.14949,42.15957],[-96.14714,42.16353],[-96.1489,42.16971],[-96.15464,42.17318],[-96.155,42.18504],[-96.17099,42.18595],[-96.176,42.1897],[-96.17938,42.20017],[-96.19384,42.20065],[-96.1938,42.22845],[-96.22592,42.2284],[-96.26936,42.28667],[-96.29471,42.28673],[-96.30966,42.29945],[-96.30994,42.31683],[-96.31436,42.32629],[-96.32574,42.33759],[-96.31777,42.33825],[-96.31126,42.34135],[-96.30958,42.34762],[-96.31124,42.35421],[-96.3206,42.36575],[-96.33213,42.37048],[-96.36003,42.40879],[-96.35727,42.41062],[-96.3482,42.40951],[-96.34704,42.41096],[-96.34979,42.42125],[-96.34508,42.4232],[-96.34468,42.43052],[-96.34107,42.43245],[-96.34095,42.43711],[-96.34321,42.44131],[-96.34728,42.44252],[-96.34638,42.44628],[-96.34337,42.44806],[-96.34679,42.45453],[-96.34565,42.45658],[-96.34773,42.46027],[-96.34598,42.46359],[-96.34173,42.46466],[-96.3441,42.46835],[-96.34346,42.47028],[-96.33798,42.47105],[-96.33669,42.47275],[-96.33753,42.47865],[-96.33093,42.47924],[-96.32573,42.48524],[-96.31812,42.48638],[-96.31175,42.48444],[-96.31074,42.48836],[-96.30704,42.48977],[-96.30527,42.49242],[-96.30964,42.49894],[-96.31005,42.50267],[-96.30381,42.50368],[-96.30311,42.50646],[-96.29666,42.51017],[-96.29506,42.50787],[-96.29075,42.50771],[-96.28855,42.50987],[-96.28964,42.51125],[-96.28679,42.51306],[-96.28702,42.51503],[-96.28242,42.51647],[-96.28305,42.52472],[-96.27884,42.52432],[-96.2798,42.52652],[-96.27776,42.52665],[-96.27697,42.52868],[-96.27283,42.52895],[-96.2731,42.53121],[-96.27712,42.53473],[-96.27456,42.53967],[-96.27584,42.54195],[-96.28152,42.54486],[-96.2789,42.54808],[-96.28212,42.55389],[-96.27931,42.55547],[-96.27846,42.55846],[-96.26228,42.55506],[-96.25807,42.5564],[-96.25627,42.56075],[-96.25252,42.56345],[-96.24355,42.56229],[-96.24447,42.56371],[-96.24033,42.56799],[-96.24337,42.57044],[-96.23971,42.57235],[-96.24007,42.57485],[-96.23408,42.57683],[-96.23385,42.58122],[-96.22953,42.58384],[-96.23328,42.58722],[-96.23327,42.59029],[-96.22364,42.598],[-96.22511,42.59976],[-96.22439,42.60272],[-96.22071,42.6054],[-96.21691,42.61306],[-96.21853,42.61522],[-96.21623,42.61621],[-96.21598,42.61966],[-96.21754,42.62134],[-96.21157,42.62643],[-96.21343,42.62821],[-96.2138,42.63016],[-96.21181,42.63156],[-96.21326,42.6332],[-96.20705,42.63662],[-96.20983,42.63997],[-96.20988,42.64143],[-96.20687,42.64316],[-96.20822,42.64552],[-96.20409,42.6465],[-96.20441,42.64804],[-96.20072,42.64951],[-96.20428,42.65492],[-96.20207,42.65696],[-96.20278,42.65872],[-96.20042,42.65943],[-96.20191,42.66219],[-96.19694,42.66394],[-96.19556,42.66781],[-96.19328,42.66743],[-96.19112,42.66959],[-96.1928,42.67457],[-96.18946,42.67806],[-96.1908,42.67953],[-96.18566,42.68282],[-96.18736,42.68618],[-96.18231,42.68781],[-96.18012,42.68931],[-96.18135,42.69095],[-96.17726,42.69233],[-96.1786,42.69472],[-96.17232,42.69488],[-96.16718,42.69862],[-96.16072,42.6963],[-96.1547,42.6896],[-96.15072,42.69131],[-96.15136,42.6934],[-96.14908,42.69468],[-96.14624,42.69353],[-96.14122,42.69486],[-96.14032,42.69976],[-96.13592,42.70073],[-96.13546,42.70268],[-96.13202,42.70422],[-96.12655,42.71035],[-96.12003,42.70736],[-96.11631,42.7102],[-96.10506,42.70998],[-96.09597,42.71322],[-96.09418,42.71652],[-96.09665,42.71828],[-96.09668,42.72005],[-96.09089,42.72547],[-96.09122,42.72741],[-96.08795,42.73224],[-96.08459,42.73147],[-96.07731,42.73529],[-96.07485,42.73825],[-96.0694,42.73949],[-96.06695,42.74246],[-96.06049,42.743],[-96.058,42.74593],[-96.05213,42.74644],[-96.0481,42.74449],[-96.03594,42.74987],[-96.03497,42.76176],[-96.02872,42.7642],[-96.02985,42.76651],[-96.01481,42.77704],[-96.01439,42.78088],[-96.00915,42.78578],[-95.99606,42.78009],[-95.9802,42.78058],[-95.97749,42.78213],[-95.97253,42.7794],[-95.96958,42.77951],[-95.96651,42.78136],[-95.96109,42.78154],[-95.96063,42.79094],[-95.95799,42.79165],[-95.9576,42.79646],[-95.9478,42.80409],[-95.94559,42.80409],[-95.94025,42.79744],[-95.93626,42.79503],[-95.92888,42.79558],[-95.92272,42.79414],[-95.92259,42.79628],[-95.92547,42.79979],[-95.92098,42.80208],[-95.92124,42.80434],[-95.91976,42.80488],[-95.91759,42.81067],[-95.91422,42.81293],[-95.91606,42.81562],[-95.91052,42.8183],[-95.9086,42.82229],[-95.90893,42.82576],[-95.89762,42.83119],[-95.89386,42.83985],[-95.89506,42.84323],[-95.89033,42.8455],[-95.88933,42.8479],[-95.88567,42.84878],[-95.88506,42.85201],[-95.88701,42.85722],[-95.88561,42.85997],[-95.88113,42.86238],[-95.88244,42.8677],[-95.87727,42.86863],[-95.87343,42.87174],[-95.87035,42.87792],[-95.87149,42.88312],[-95.86944,42.88485],[-95.8605,42.88488],[-95.85687,42.8879],[-95.83923,42.89253],[-95.82955,42.88346],[-95.80925,42.87994],[-95.80682,42.87171],[-95.79965,42.86664],[-95.79269,42.8712],[-95.78525,42.87332],[-95.76431,42.86574],[-95.73991,42.86613],[-95.72697,42.85966],[-95.71956,42.86555],[-95.71126,42.8618],[-95.70963,42.85694],[-95.7167,42.85187],[-95.71238,42.84703],[-95.7117,42.83979],[-95.71552,42.83732],[-95.71325,42.8331],[-95.71786,42.83064],[-95.71327,42.8264],[-95.71324,42.82349],[-95.71827,42.8191],[-95.72322,42.81936],[-95.72475,42.81382],[-95.72642,42.81267],[-95.72556,42.80848],[-95.72718,42.80757],[-95.7248,42.80464],[-95.73297,42.79889],[-95.7333,42.79532],[-95.73536,42.79403],[-95.73257,42.79108],[-95.73278,42.78906],[-95.74179,42.78522],[-95.73763,42.7743],[-95.7406,42.76921],[-95.73988,42.76411],[-95.74153,42.76074],[-95.74875,42.75876],[-95.7477,42.75603],[-95.74869,42.7529],[-95.75282,42.75086],[-95.75652,42.75206],[-95.75911,42.74857],[-95.75747,42.74358],[-95.76541,42.73758],[-95.76193,42.731],[-95.76105,42.72093],[-95.75778,42.7184],[-95.75792,42.71165],[-95.75978,42.70963],[-95.75932,42.70416],[-95.76332,42.70187],[-95.76002,42.6973],[-95.76637,42.68708],[-95.76524,42.6796],[-95.76967,42.67692],[-95.77008,42.67446],[-95.77302,42.67346],[-95.77559,42.66754],[-95.78047,42.66756],[-95.78045,42.66394],[-95.78613,42.65992],[-95.78815,42.65494],[-95.79413,42.6484],[-95.79833,42.64728],[-95.80436,42.65025],[-95.80767,42.64987],[-95.80754,42.64605],[-95.81248,42.64075],[-95.81169,42.63727],[-95.82097,42.63379],[-95.82194,42.62692],[-95.81952,42.62466],[-95.82357,42.62332],[-95.82448,42.61834],[-95.83743,42.6158],[-95.84095,42.61344],[-95.84402,42.61405],[-95.84677,42.61181],[-95.85413,42.61316],[-95.86092,42.60853],[-95.85912,42.60603],[-95.86278,42.60284],[-95.86463,42.59448],[-95.87917,42.59401],[-95.88694,42.59602],[-95.89312,42.5919],[-95.89753,42.59119],[-95.8994,42.58343],[-95.89774,42.58086],[-95.90532,42.57349],[-95.9056,42.56858],[-95.90375,42.56413],[-95.90692,42.56271],[-95.91121,42.55386],[-95.91369,42.55323],[-95.91453,42.5505],[-95.91859,42.5488],[-95.92243,42.54445],[-95.92005,42.54173],[-95.92021,42.53373],[-95.90318,42.52357],[-95.90248,42.519],[-95.90467,42.51471],[-95.89439,42.51014],[-95.89393,42.5048],[-95.89073,42.50263],[-95.89577,42.49949],[-95.89859,42.5005],[-95.89881,42.49673],[-95.90149,42.49698],[-95.9047,42.49378],[-95.90873,42.49378],[-95.91518,42.48749],[-95.91572,42.48493],[-95.91156,42.48348],[-95.91279,42.48091],[-95.91586,42.48068],[-95.91825,42.47484],[-95.92235,42.47152],[-95.91486,42.4647],[-95.91514,42.46082],[-95.90878,42.46008],[-95.90774,42.45822],[-95.90107,42.45755],[-95.89814,42.4554],[-95.90479,42.4511],[-95.90343,42.44913],[-95.9047,42.44601],[-95.90036,42.44196],[-95.90226,42.44036],[-95.90169,42.4385],[-95.90477,42.4377],[-95.90574,42.43303],[-95.90389,42.42895],[-95.9059,42.4248],[-95.90296,42.42213],[-95.90468,42.42092],[-95.90394,42.41657],[-95.90517,42.41435],[-95.90261,42.4114],[-95.90235,42.40764],[-95.90524,42.40243],[-95.90282,42.39994],[-95.90443,42.39772],[-95.90276,42.39519],[-95.90463,42.39396],[-95.9024,42.38932],[-95.90808,42.38033],[-95.90853,42.37411],[-95.91123,42.37353],[-95.91273,42.36987],[-95.91073,42.3674],[-95.90768,42.36663],[-95.90784,42.35933],[-95.90992,42.35682],[-95.91267,42.35652],[-95.91116,42.35458],[-95.91222,42.3513],[-95.90786,42.34772],[-95.91139,42.34389],[-95.91066,42.34155],[-95.91271,42.34112],[-95.91752,42.33335],[-95.91656,42.32628],[-95.91896,42.32349],[-95.92068,42.32287],[-95.92221,42.32427],[-95.92911,42.31965],[-95.92802,42.31161],[-95.92509,42.30865],[-95.92533,42.30626],[-95.9284,42.30463],[-95.92715,42.3041],[-95.92621,42.29631],[-95.92843,42.29474],[-95.93208,42.29643],[-95.93363,42.29502],[-95.93829,42.29551],[-95.94049,42.29364],[-95.94376,42.29467],[-95.94708,42.29258],[-95.94818,42.28935],[-95.94588,42.28847],[-95.94535,42.28636],[-95.95034,42.28316],[-95.94892,42.27863],[-95.94689,42.27761],[-95.9469,42.27445],[-95.95017,42.27132],[-95.94864,42.2693],[-95.95479,42.26547],[-95.95479,42.2623],[-95.95209,42.25968],[-95.95446,42.25715],[-95.95942,42.25579],[-95.96159,42.25194],[-95.95851,42.24657],[-95.95857,42.24362],[-95.96005,42.24297],[-95.96198,42.23554],[-95.95901,42.23459],[-95.95646,42.23086],[-95.95982,42.2311],[-95.96395,42.22755],[-95.96614,42.22804],[-95.96982,42.22363],[-95.96838,42.22075],[-95.97072,42.21738],[-95.97864,42.21705],[-95.98131,42.21221],[-95.98892,42.20926],[-95.98973,42.20693],[-95.98794,42.20506],[-95.99356,42.20183],[-95.99579,42.19332],[-96.00091,42.19171],[-95.99962,42.18835],[-96.00608,42.18247],[-96.00932,42.18313],[-96.01009,42.17863],[-96.00838,42.1756],[-96.00994,42.17313],[-96.00948,42.16422],[-96.00672,42.16178],[-96.0053,42.15249],[-96.00311,42.14986],[-96.0055,42.14249],[-96.00518,42.12273],[-96.01678,42.11845],[-96.01591,42.11672],[-96.01715,42.11455],[-96.01116,42.11563],[-96.01001,42.11098],[-96.0075,42.11107],[-96.00349,42.1078],[-96.0031,42.10185],[-96.01102,42.09885],[-96.01575,42.09442],[-96.02964,42.09527],[-96.03414,42.09836],[-96.03678,42.0942],[-96.03526,42.09154],[-96.03869,42.08984],[-96.03834,42.07637],[-96.03506,42.07593],[-96.03649,42.07311],[-96.03356,42.07222],[-96.03396,42.06925],[-96.03177,42.06737],[-96.03525,42.06325],[-96.0353,42.05841],[-96.03115,42.0574],[-96.03002,42.05269],[-96.0191,42.0461],[-96.01825,42.04244],[-96.01166,42.03679],[-96.01131,42.03064],[-96.00663,42.03013],[-95.98505,42.01925],[-95.99291,42.02013],[-95.99369,42.01902],[-95.98979,42.01551],[-95.99089,42.01428],[-95.98906,42.00943],[-95.98542,42.00814],[-95.98545,42.00017],[-95.98796,41.99928],[-95.9909,41.99122],[-95.98842,41.99059],[-95.98786,41.99269],[-95.98475,41.99364],[-95.9836,41.98803],[-95.98405,41.98559],[-95.98965,41.98578],[-95.99163,41.97947],[-95.98871,41.97483],[-95.98579,41.97488],[-95.98603,41.97252],[-95.9822,41.96988],[-95.98232,41.96507],[-95.98888,41.96264],[-95.98725,41.96148],[-95.98339,41.94996],[-95.98069,41.94917],[-95.98033,41.94187],[-95.97486,41.94098],[-95.97524,41.93038],[-95.97778,41.93008],[-95.97926,41.92686],[-95.97529,41.92531],[-95.9761,41.92221],[-95.97487,41.9195],[-95.97524,41.91625],[-95.98133,41.91525],[-95.98179,41.90944],[-95.98397,41.90829],[-95.98012,41.90494],[-95.98114,41.90161],[-95.98645,41.90169],[-95.98805,41.89772],[-95.99435,41.89809],[-95.99909,41.89293]]]}}]}