{"type":"FeatureCollection","features":[{"type":"Feature","properties":{},"geometry":{"type":"Polygon","coordinates":[[[-91.53705,41.45844],[-91.53705,41.45427],[-91.54955,41.45427],[-91.54955,41.4501],[-91.56205,41.4501],[-91.56205,41.45427],[-91.56622,41.45427],[-91.56622,41.44594],[-91.57039,41.44594],[-91.57039,41.4501],[-91.58705,41.4501],[-91.58705,41.44594],[-91.59539,41.44594],[-91.59539,41.44177],[-91.60372,41.44177],[-91.60372,41.44594],[-91.61206,41.44594],[-91.61206,41.4501],[-91.62039,41.4501],[-91.62039,41.44594],[-91.63289,41.44594],[-91.63289,41.44177],[-91.63706,41.44177],[-91.63706,41.4376],[-91.64539,41.4376],[-91.64539,41.43343],[-91.64956,41.43343],[-91.64956,41.42093],[-91.65373,41.42093],[-91.65373,41.41677],[-91.66206,41.41677],[-91.66206,41.4126],[-91.66623,41.4126],[-91.66623,41.41677],[-91.67039,41.41677],[-91.67039,41.4126],[-91.67873,41.4126],[-91.67873,41.40843],[-91.70373,41.40843],[-91.70373,41.40427],[-91.71623,41.40427],[-91.71623,41.4001],[-91.71206,41.4001],[-91.71206,41.39593],[-91.69956,41.39593],[-91.69956,41.39176],[-91.6954,41.39176],[-91.6954,41.3876],[-91.68706,41.3876],[-91.68706,41.38343],[-91.67456,41.38343],[-91.67456,41.37926],[-91.67039,41.37926],[-91.67039,41.3751],[-91.65789,41.3751],[-91.65789,41.37926],[-91.64956,41.37926],[-91.64956,41.39176],[-91.64539,41.39176],[-91.64539,41.39593],[-91.63706,41.39593],[-91.63706,41.4001],[-91.62873,41.4001],[-91.62873,41.40427],[-91.61622,41.40427],[-91.61622,41.4001],[-91.60789,41.4001],[-91.60789,41.40427],[-91.60372,41.40427],[-91.60372,41.40843],[-91.59956,41.40843],[-91.59956,41.4126],[-91.59539,41.4126],[-91.59539,41.41677],[-91.58289,41.41677],[-91.58289,41.40843],[-91.57039,41.40843],[-91.57039,41.41677],[-91.56622,41.41677],[-91.56622,41.4126],[-91.56205,41.4126],[-91.56205,41.41677],[-91.55789,41.41677],[-91.55789,41.4126],[-91.54122,41.4126],[-91.54122,41.40843],[-91.53705,41.40843],[-91.53705,41.4126],[-91.53288,41.4126],[-91.53288,41.42093],[-91.52455,41.42093],[-91.52455,41.42927],[-91.51622,41.42927],[-91.51622,41.4376],[-91.51205,41.4376],[-91.51205,41.4501],[-91.51622,41.4501],[-91.51622,41.45427],[-91.52455,41.45427],[-91.52455,41.45844],[-91.53705,41.45844]]]}}]}