{"type":"FeatureCollection","features":[{"type":"Feature","properties":{},"geometry":{"type":"Polygon","coordinates":[[[-93.01217,43.95447],[-93.01217,43.9503],[-93.01634,43.9503],[-93.01634,43.94197],[-93.02884,43.94197],[-93.02884,43.9378],[-93.04134,43.9378],[-93.04134,43.94197],[-93.0455,43.94197],[-93.0455,43.9378],[-93.04967,43.9378],[-93.04967,43.94197],[-93.05384,43.94197],[-93.05384,43.93363],[-93.05801,43.93363],[-93.05801,43.9253],[-93.06217,43.9253],[-93.06217,43.92113],[-93.06634,43.92113],[-93.06634,43.91697],[-93.07467,43.91697],[-93.07467,43.9128],[-93.07884,43.9128],[-93.07884,43.90863],[-93.07051,43.90863],[-93.07051,43.9003],[-93.06634,43.9003],[-93.06634,43.89196],[-93.07051,43.89196],[-93.07051,43.8878],[-93.07467,43.8878],[-93.07467,43.88363],[-93.07051,43.88363],[-93.07051,43.86696],[-93.08301,43.86696],[-93.08301,43.8628],[-93.08718,43.8628],[-93.08718,43.85446],[-93.09134,43.85446],[-93.09134,43.84613],[-93.09551,43.84613],[-93.09551,43.84196],[-93.09968,43.84196],[-93.09968,43.83363],[-93.11634,43.83363],[-93.11634,43.82946],[-93.12468,43.82946],[-93.12468,43.83779],[-93.12884,43.83779],[-93.12884,43.84196],[-93.13301,43.84196],[-93.13301,43.83779],[-93.15385,43.83779],[-93.15385,43.83363],[-93.15801,43.83363],[-93.15801,43.83779],[-93.16218,43.83779],[-93.16218,43.83363],[-93.16635,43.83363],[-93.16635,43.83779],[-93.19135,43.83779],[-93.19135,43.83363],[-93.19552,43.83363],[-93.19552,43.82946],[-93.20385,43.82946],[-93.20385,43.82529],[-93.20802,43.82529],[-93.20802,43.84613],[-93.22885,43.84613],[-93.22885,43.85029],[-93.23719,43.85029],[-93.23719,43.84613],[-93.24552,43.84613],[-93.24552,43.84196],[-93.24135,43.84196],[-93.24135,43.83779],[-93.24552,43.83779],[-93.24552,43.83363],[-93.24969,43.83363],[-93.24969,43.82946],[-93.25802,43.82946],[-93.25802,43.82529],[-93.28302,43.82529],[-93.28302,43.82946],[-93.28719,43.82946],[-93.28719,43.83363],[-93.29136,43.83363],[-93.29136,43.83779],[-93.29969,43.83779],[-93.29969,43.81696],[-93.30803,43.81696],[-93.30803,43.81279],[-93.32053,43.81279],[-93.32053,43.80029],[-93.32886,43.80029],[-93.32886,43.79196],[-93.33303,43.79196],[-93.33303,43.78779],[-93.33719,43.78779],[-93.33719,43.77946],[-93.33303,43.77946],[-93.33303,43.77529],[-93.33719,43.77529],[-93.33719,43.77112],[-93.33303,43.77112],[-93.33303,43.76279],[-93.32053,43.76279],[-93.32053,43.74612],[-93.31219,43.74612],[-93.31219,43.73779],[-93.30803,43.73779],[-93.30803,43.72945],[-93.29552,43.72945],[-93.29552,43.70862],[-93.28719,43.70862],[-93.28719,43.71278],[-93.28302,43.71278],[-93.28302,43.70862],[-93.27886,43.70862],[-93.27886,43.70445],[-93.27469,43.70445],[-93.27469,43.70028],[-93.27052,43.70028],[-93.27052,43.69612],[-93.26636,43.69612],[-93.26636,43.69195],[-93.25386,43.69195],[-93.25386,43.68778],[-93.24552,43.68778],[-93.24552,43.68361],[-93.24135,43.68361],[-93.24135,43.67945],[-93.23719,43.67945],[-93.23719,43.67528],[-93.23302,43.67528],[-93.23302,43.67111],[-93.22469,43.67111],[-93.22469,43.66695],[-93.21635,43.66695],[-93.21635,43.67111],[-93.21218,43.67111],[-93.21218,43.67528],[-93.20802,43.67528],[-93.20802,43.67945],[-93.19968,43.67945],[-93.19968,43.67528],[-93.17885,43.67528],[-93.17885,43.67945],[-93.17051,43.67945],[-93.17051,43.67111],[-93.16218,43.67111],[-93.16218,43.66695],[-93.15801,43.66695],[-93.15801,43.65445],[-93.15385,43.65445],[-93.15385,43.65028],[-93.14968,43.65028],[-93.14968,43.63778],[-93.15385,43.63778],[-93.15385,43.62944],[-93.16218,43.62944],[-93.16218,43.62111],[-93.17468,43.62111],[-93.17468,43.62528],[-93.17885,43.62528],[-93.17885,43.62111],[-93.18718,43.62111],[-93.18718,43.60027],[-93.19135,43.60027],[-93.19135,43.59611],[-93.18718,43.59611],[-93.18718,43.58777],[-93.19135,43.58777],[-93.19135,43.58361],[-93.21218,43.58361],[-93.21218,43.57944],[-93.21635,43.57944],[-93.21635,43.57527],[-93.22052,43.57527],[-93.22052,43.57111],[-93.22469,43.57111],[-93.22469,43.56694],[-93.22885,43.56694],[-93.22885,43.56277],[-93.23302,43.56277],[-93.23302,43.55027],[-93.23719,43.55027],[-93.23719,43.54194],[-93.22885,43.54194],[-93.22885,43.53777],[-93.22469,43.53777],[-93.22469,43.52944],[-93.22052,43.52944],[-93.22052,43.52527],[-93.22469,43.52527],[-93.22469,43.51693],[-93.22885,43.51693],[-93.22885,43.4836],[-93.23302,43.4836],[-93.23302,43.47943],[-93.22885,43.47943],[-93.22885,43.47526],[-93.23302,43.47526],[-93.23302,43.4711],[-93.22885,43.4711],[-93.22885,43.45443],[-93.21635,43.45443],[-93.21635,43.45026],[-93.20802,43.45026],[-93.20802,43.4461],[-93.20385,43.4461],[-93.20385,43.44193],[-93.19135,43.44193],[-93.19135,43.43776],[-93.18718,43.43776],[-93.18718,43.43359],[-93.18302,43.43359],[-93.18302,43.42943],[-93.17885,43.42943],[-93.17885,43.42526],[-93.17468,43.42526],[-93.17468,43.42109],[-93.17051,43.42109],[-93.17051,43.41276],[-93.16635,43.41276],[-93.16635,43.40859],[-93.16218,43.40859],[-93.16218,43.40443],[-93.14968,43.40443],[-93.14968,43.40026],[-93.14551,43.40026],[-93.14551,43.39609],[-93.14135,43.39609],[-93.14135,43.38776],[-93.13301,43.38776],[-93.13301,43.38359],[-93.12884,43.38359],[-93.12884,43.37942],[-93.10384,43.37942],[-93.10384,43.37526],[-93.09551,43.37526],[-93.09551,43.37109],[-93.08718,43.37109],[-93.08718,43.36276],[-93.07467,43.36276],[-93.07467,43.35025],[-93.07051,43.35025],[-93.07051,43.34609],[-93.06634,43.34609],[-93.06634,43.34192],[-93.07051,43.34192],[-93.07051,43.33775],[-93.06634,43.33775],[-93.06634,43.33359],[-93.05801,43.33359],[-93.05801,43.32942],[-93.05384,43.32942],[-93.05384,43.32525],[-93.04967,43.32525],[-93.04967,43.32109],[-93.04134,43.32109],[-93.04134,43.31692],[-93.03717,43.31692],[-93.03717,43.31275],[-93.033,43.31275],[-93.033,43.30442],[-93.02884,43.30442],[-93.02884,43.27942],[-93.033,43.27942],[-93.033,43.27525],[-93.02467,43.27525],[-93.02467,43.27108],[-93.01634,43.27108],[-93.01634,43.26691],[-93.01217,43.26691],[-93.01217,43.26275],[-93.008,43.26275],[-93.008,43.25858],[-92.99967,43.25858],[-92.99967,43.25441],[-92.9955,43.25441],[-92.9955,43.25025],[-92.98717,43.25025],[-92.98717,43.24191],[-92.97467,43.24191],[-92.97467,43.23775],[-92.97883,43.23775],[-92.97883,43.22941],[-92.9705,43.22941],[-92.9705,43.22108],[-92.958,43.22108],[-92.958,43.21691],[-92.9455,43.21691],[-92.9455,43.21274],[-92.93716,43.21274],[-92.93716,43.20858],[-92.92883,43.20858],[-92.92883,43.20441],[-92.9205,43.20441],[-92.9205,43.20024],[-92.91633,43.20024],[-92.91633,43.19608],[-92.90799,43.19608],[-92.90799,43.19191],[-92.89966,43.19191],[-92.89966,43.17941],[-92.89133,43.17941],[-92.89133,43.17524],[-92.88299,43.17524],[-92.88299,43.17107],[-92.87466,43.17107],[-92.87466,43.17524],[-92.84966,43.17524],[-92.84966,43.17107],[-92.84132,43.17107],[-92.84132,43.16691],[-92.83299,43.16691],[-92.83299,43.17941],[-92.82882,43.17941],[-92.82882,43.18357],[-92.82465,43.18357],[-92.82465,43.17941],[-92.82049,43.17941],[-92.82049,43.18357],[-92.79132,43.18357],[-92.79132,43.17941],[-92.78715,43.17941],[-92.78715,43.18357],[-92.78298,43.18357],[-92.78298,43.19191],[-92.77882,43.19191],[-92.77882,43.19608],[-92.77465,43.19608],[-92.77465,43.20024],[-92.76215,43.20024],[-92.76215,43.20441],[-92.75798,43.20441],[-92.75798,43.20858],[-92.75382,43.20858],[-92.75382,43.20441],[-92.74548,43.20441],[-92.74548,43.20024],[-92.74131,43.20024],[-92.74131,43.19608],[-92.72465,43.19608],[-92.72465,43.20024],[-92.72048,43.20024],[-92.72048,43.20441],[-92.71631,43.20441],[-92.71631,43.20858],[-92.71214,43.20858],[-92.71214,43.22941],[-92.72048,43.22941],[-92.72048,43.23775],[-92.72465,43.23775],[-92.72465,43.24608],[-92.72048,43.24608],[-92.72048,43.26275],[-92.71214,43.26275],[-92.71214,43.26691],[-92.70798,43.26691],[-92.70798,43.27108],[-92.70381,43.27108],[-92.70381,43.28775],[-92.69964,43.28775],[-92.69964,43.30025],[-92.70381,43.30025],[-92.70381,43.30858],[-92.72048,43.30858],[-92.72048,43.31275],[-92.73715,43.31275],[-92.73715,43.30858],[-92.74548,43.30858],[-92.74548,43.31275],[-92.74965,43.31275],[-92.74965,43.32109],[-92.75798,43.32109],[-92.75798,43.32942],[-92.76215,43.32942],[-92.76215,43.33359],[-92.76632,43.33359],[-92.76632,43.33775],[-92.78298,43.33775],[-92.78298,43.34192],[-92.78715,43.34192],[-92.78715,43.34609],[-92.79965,43.34609],[-92.79965,43.35025],[-92.80382,43.35025],[-92.80382,43.35442],[-92.80799,43.35442],[-92.80799,43.35859],[-92.81215,43.35859],[-92.81215,43.35442],[-92.81632,43.35442],[-92.81632,43.35859],[-92.82882,43.35859],[-92.82882,43.36276],[-92.83715,43.36276],[-92.83715,43.37109],[-92.83299,43.37109],[-92.83299,43.37526],[-92.83715,43.37526],[-92.83715,43.38359],[-92.84549,43.38359],[-92.84549,43.40443],[-92.84966,43.40443],[-92.84966,43.40859],[-92.85382,43.40859],[-92.85382,43.41693],[-92.85799,43.41693],[-92.85799,43.42526],[-92.84132,43.42526],[-92.84132,43.42943],[-92.83299,43.42943],[-92.83299,43.43359],[-92.82882,43.43359],[-92.82882,43.43776],[-92.82465,43.43776],[-92.82465,43.4711],[-92.82882,43.4711],[-92.82882,43.4836],[-92.82465,43.4836],[-92.82465,43.48777],[-92.80799,43.48777],[-92.80799,43.4961],[-92.80382,43.4961],[-92.80382,43.50443],[-92.80799,43.50443],[-92.80799,43.51277],[-92.81215,43.51277],[-92.81215,43.52527],[-92.80799,43.52527],[-92.80799,43.5461],[-92.80382,43.5461],[-92.80382,43.56277],[-92.79965,43.56277],[-92.79965,43.57944],[-92.77882,43.57944],[-92.77882,43.60027],[-92.78298,43.60027],[-92.78298,43.60444],[-92.77882,43.60444],[-92.77882,43.61694],[-92.78298,43.61694],[-92.78298,43.62111],[-92.77882,43.62111],[-92.77882,43.63778],[-92.78298,43.63778],[-92.78298,43.65028],[-92.77882,43.65028],[-92.77882,43.65445],[-92.77465,43.65445],[-92.77465,43.65861],[-92.77048,43.65861],[-92.77048,43.66278],[-92.76215,43.66278],[-92.76215,43.66695],[-92.75798,43.66695],[-92.75798,43.66278],[-92.75382,43.66278],[-92.75382,43.65445],[-92.72881,43.65445],[-92.72881,43.65028],[-92.72465,43.65028],[-92.72465,43.64611],[-92.71631,43.64611],[-92.71631,43.64194],[-92.70798,43.64194],[-92.70798,43.63778],[-92.70381,43.63778],[-92.70381,43.63361],[-92.68714,43.63361],[-92.68714,43.63778],[-92.68298,43.63778],[-92.68298,43.63361],[-92.67047,43.63361],[-92.67047,43.65028],[-92.67464,43.65028],[-92.67464,43.65445],[-92.67881,43.65445],[-92.67881,43.67111],[-92.68714,43.67111],[-92.68714,43.67945],[-92.69131,43.67945],[-92.69131,43.69612],[-92.68714,43.69612],[-92.68714,43.70862],[-92.69131,43.70862],[-92.69131,43.71278],[-92.69964,43.71278],[-92.69964,43.71695],[-92.70798,43.71695],[-92.70798,43.72112],[-92.73298,43.72112],[-92.73298,43.72528],[-92.75382,43.72528],[-92.75382,43.74195],[-92.77465,43.74195],[-92.77465,43.73779],[-92.77882,43.73779],[-92.77882,43.74195],[-92.78298,43.74195],[-92.78298,43.74612],[-92.78715,43.74612],[-92.78715,43.75029],[-92.79132,43.75029],[-92.79132,43.75445],[-92.79548,43.75445],[-92.79548,43.76279],[-92.79965,43.76279],[-92.79965,43.76695],[-92.80382,43.76695],[-92.80382,43.77112],[-92.79548,43.77112],[-92.79548,43.78779],[-92.79132,43.78779],[-92.79132,43.79196],[-92.79548,43.79196],[-92.79548,43.79612],[-92.79132,43.79612],[-92.79132,43.80029],[-92.79548,43.80029],[-92.79548,43.80446],[-92.79965,43.80446],[-92.79965,43.80862],[-92.80382,43.80862],[-92.80382,43.82946],[-92.80799,43.82946],[-92.80799,43.83363],[-92.80382,43.83363],[-92.80382,43.83779],[-92.79965,43.83779],[-92.79965,43.84196],[-92.79132,43.84196],[-92.79132,43.84613],[-92.79548,43.84613],[-92.79548,43.85029],[-92.79965,43.85029],[-92.79965,43.87946],[-92.81632,43.87946],[-92.81632,43.88363],[-92.82049,43.88363],[-92.82049,43.8878],[-92.82465,43.8878],[-92.82465,43.89196],[-92.82049,43.89196],[-92.82049,43.9003],[-92.82465,43.9003],[-92.82465,43.9128],[-92.82882,43.9128],[-92.82882,43.91697],[-92.84549,43.91697],[-92.84549,43.92113],[-92.86632,43.92113],[-92.86632,43.9253],[-92.87882,43.9253],[-92.87882,43.92947],[-92.89966,43.92947],[-92.89966,43.93363],[-92.90799,43.93363],[-92.90799,43.9378],[-92.9205,43.9378],[-92.9205,43.93363],[-92.92466,43.93363],[-92.92466,43.9378],[-92.933,43.9378],[-92.933,43.94197],[-92.9455,43.94197],[-92.9455,43.94614],[-92.96216,43.94614],[-92.96216,43.95447],[-92.97883,43.95447],[-92.97883,43.9503],[-92.983,43.9503],[-92.983,43.95447],[-93.01217,43.95447]]]}}]}