{"type":"FeatureCollection","features":[{"type":"Feature","properties":{},"geometry":{"type":"Polygon","coordinates":[[[-93.55388,42.47935],[-93.55388,42.46685],[-93.55805,42.46685],[-93.55805,42.44185],[-93.56221,42.44185],[-93.56221,42.43768],[-93.55805,42.43768],[-93.55805,42.43351],[-93.56221,42.43351],[-93.56221,42.42935],[-93.56638,42.42935],[-93.56638,42.40851],[-93.57055,42.40851],[-93.57055,42.40018],[-93.56638,42.40018],[-93.56638,42.39601],[-93.56221,42.39601],[-93.56221,42.38768],[-93.54554,42.38768],[-93.54554,42.39184],[-93.54138,42.39184],[-93.54138,42.38351],[-93.52888,42.38351],[-93.52888,42.37934],[-93.52471,42.37934],[-93.52471,42.37518],[-93.49971,42.37518],[-93.49971,42.37101],[-93.49554,42.37101],[-93.49554,42.36684],[-93.49137,42.36684],[-93.49137,42.35851],[-93.48304,42.35851],[-93.48304,42.35434],[-93.4622,42.35434],[-93.4622,42.35017],[-93.45804,42.35017],[-93.45804,42.35434],[-93.4497,42.35434],[-93.4497,42.35017],[-93.43304,42.35017],[-93.43304,42.35851],[-93.4247,42.35851],[-93.4247,42.36268],[-93.42054,42.36268],[-93.42054,42.36684],[-93.41637,42.36684],[-93.41637,42.37101],[-93.4122,42.37101],[-93.4122,42.37518],[-93.3872,42.37518],[-93.3872,42.36268],[-93.38303,42.36268],[-93.38303,42.35851],[-93.3747,42.35851],[-93.3747,42.35434],[-93.37053,42.35434],[-93.37053,42.35851],[-93.36636,42.35851],[-93.36636,42.35434],[-93.3622,42.35434],[-93.3622,42.35017],[-93.35803,42.35017],[-93.35803,42.33767],[-93.3497,42.33767],[-93.3497,42.33351],[-93.33719,42.33351],[-93.33719,42.33767],[-93.32053,42.33767],[-93.32053,42.32934],[-93.30803,42.32934],[-93.30803,42.32517],[-93.29552,42.32517],[-93.29552,42.32101],[-93.28719,42.32101],[-93.28719,42.3085],[-93.28302,42.3085],[-93.28302,42.30434],[-93.27886,42.30434],[-93.27886,42.3085],[-93.27052,42.3085],[-93.27052,42.31267],[-93.26219,42.31267],[-93.26219,42.3085],[-93.25802,42.3085],[-93.25802,42.31267],[-93.25386,42.31267],[-93.25386,42.31684],[-93.24969,42.31684],[-93.24969,42.32101],[-93.25386,42.32101],[-93.25386,42.32517],[-93.24969,42.32517],[-93.24969,42.32934],[-93.24552,42.32934],[-93.24552,42.33351],[-93.25802,42.33351],[-93.25802,42.34184],[-93.25386,42.34184],[-93.25386,42.35017],[-93.25802,42.35017],[-93.25802,42.35434],[-93.26219,42.35434],[-93.26219,42.35851],[-93.27469,42.35851],[-93.27469,42.35434],[-93.27886,42.35434],[-93.27886,42.35017],[-93.29136,42.35017],[-93.29136,42.35851],[-93.29552,42.35851],[-93.29552,42.36268],[-93.29136,42.36268],[-93.29136,42.37101],[-93.30803,42.37101],[-93.30803,42.37518],[-93.31219,42.37518],[-93.31219,42.37934],[-93.32886,42.37934],[-93.32886,42.38351],[-93.3497,42.38351],[-93.3497,42.39184],[-93.35386,42.39184],[-93.35386,42.39601],[-93.37053,42.39601],[-93.37053,42.40435],[-93.3747,42.40435],[-93.3747,42.40851],[-93.37886,42.40851],[-93.37886,42.41268],[-93.39137,42.41268],[-93.39137,42.42101],[-93.39553,42.42101],[-93.39553,42.42518],[-93.3997,42.42518],[-93.3997,42.42935],[-93.40387,42.42935],[-93.40387,42.43351],[-93.41637,42.43351],[-93.41637,42.43768],[-93.42054,42.43768],[-93.42054,42.44185],[-93.4372,42.44185],[-93.4372,42.44602],[-93.4497,42.44602],[-93.4497,42.45018],[-93.45387,42.45018],[-93.45387,42.44602],[-93.45804,42.44602],[-93.45804,42.43351],[-93.4622,42.43351],[-93.4622,42.42518],[-93.47054,42.42518],[-93.47054,42.42935],[-93.47471,42.42935],[-93.47471,42.43351],[-93.47887,42.43351],[-93.47887,42.44602],[-93.49137,42.44602],[-93.49137,42.45018],[-93.49554,42.45018],[-93.49554,42.45852],[-93.49971,42.45852],[-93.49971,42.46268],[-93.50387,42.46268],[-93.50387,42.45852],[-93.51221,42.45852],[-93.51221,42.46268],[-93.52054,42.46268],[-93.52054,42.46685],[-93.53304,42.46685],[-93.53304,42.47102],[-93.53721,42.47102],[-93.53721,42.47518],[-93.54138,42.47518],[-93.54138,42.47935],[-93.55388,42.47935]]]}}]}