{"type":"FeatureCollection","features":[{"type":"Feature","properties":{},"geometry":{"type":"Polygon","coordinates":[[[-92.51069,43.07291],[-92.51368,43.06738],[-92.51375,43.06385],[-92.52884,43.06091],[-92.52906,43.06572],[-92.53506,43.07126],[-92.53466,43.07543],[-92.53792,43.07647],[-92.5472,43.08425],[-92.54637,43.08622],[-92.54886,43.09126],[-92.55402,43.09602],[-92.55328,43.09774],[-92.55741,43.1021],[-92.55589,43.10409],[-92.55773,43.10834],[-92.55585,43.11119],[-92.5589,43.11692],[-92.56296,43.12173],[-92.57138,43.12692],[-92.57307,43.13356],[-92.57828,43.13731],[-92.57939,43.14046],[-92.58384,43.14432],[-92.5828,43.15087],[-92.5896,43.15252],[-92.59347,43.15541],[-92.59465,43.15871],[-92.59316,43.16153],[-92.60215,43.16809],[-92.6023,43.1727],[-92.59979,43.17934],[-92.59634,43.18251],[-92.59018,43.18381],[-92.58432,43.18747],[-92.57544,43.17914],[-92.56108,43.17491],[-92.55653,43.17169],[-92.55416,43.16706],[-92.54308,43.16272],[-92.54399,43.15995],[-92.54095,43.15676],[-92.53867,43.14992],[-92.54018,43.14693],[-92.53301,43.135],[-92.52868,43.13255],[-92.52762,43.1278],[-92.52346,43.12543],[-92.52194,43.12186],[-92.52213,43.11504],[-92.51987,43.11132],[-92.51431,43.10391],[-92.50604,43.09829],[-92.50535,43.0905],[-92.50164,43.09012],[-92.49596,43.08568],[-92.49604,43.07682],[-92.50443,43.07586],[-92.51069,43.07291]]]}}]}