{"type":"FeatureCollection","features":[{"type":"Feature","properties":{},"geometry":{"type":"Polygon","coordinates":[[[-93.38884,42.38036],[-93.42782,42.39143],[-93.43213,42.39444],[-93.43162,42.39787],[-93.42885,42.39952],[-93.42816,42.40193],[-93.433,42.40455],[-93.43392,42.40837],[-93.42996,42.41438],[-93.43331,42.41712],[-93.42934,42.42237],[-93.4267,42.42267],[-93.42048,42.42833],[-93.41752,42.42919],[-93.41572,42.43224],[-93.41291,42.43266],[-93.41041,42.42815],[-93.40311,42.42948],[-93.40093,42.42667],[-93.39759,42.42635],[-93.39475,42.42361],[-93.39497,42.41855],[-93.39029,42.41835],[-93.38556,42.41491],[-93.38427,42.40755],[-93.37804,42.40785],[-93.3746,42.40405],[-93.36827,42.40426],[-93.36684,42.39951],[-93.36982,42.39954],[-93.37546,42.39274],[-93.38291,42.39007],[-93.38267,42.38828],[-93.38731,42.38427],[-93.38884,42.38036]]]}}]}