{"type":"FeatureCollection","features":[{"type":"Feature","properties":{},"geometry":{"type":"Polygon","coordinates":[[[-95.52599,40.64872],[-95.5255,40.65494],[-95.53014,40.6591],[-95.53636,40.66841],[-95.55574,40.67253],[-95.55671,40.67426],[-95.56188,40.67407],[-95.56698,40.67168],[-95.56987,40.66493],[-95.58008,40.66538],[-95.58133,40.66901],[-95.5841,40.66944],[-95.58752,40.67303],[-95.59317,40.67094],[-95.59941,40.66437],[-95.60243,40.66708],[-95.59547,40.67181],[-95.59315,40.6767],[-95.58573,40.68033],[-95.58115,40.68496],[-95.58027,40.69354],[-95.57254,40.69762],[-95.56747,40.69669],[-95.56454,40.6992],[-95.56259,40.69853],[-95.56107,40.70442],[-95.56263,40.70997],[-95.55796,40.71218],[-95.55834,40.71639],[-95.55583,40.71772],[-95.55384,40.72161],[-95.54598,40.72648],[-95.54358,40.73193],[-95.54065,40.73242],[-95.53847,40.73595],[-95.5252,40.73938],[-95.52532,40.74564],[-95.52139,40.74888],[-95.52064,40.75192],[-95.52224,40.75303],[-95.51842,40.75929],[-95.51501,40.76089],[-95.51065,40.75963],[-95.50857,40.76182],[-95.50491,40.75766],[-95.49849,40.75754],[-95.49386,40.76689],[-95.48985,40.76776],[-95.48684,40.76641],[-95.48343,40.76922],[-95.47215,40.76606],[-95.4652,40.76888],[-95.46117,40.77502],[-95.45639,40.77382],[-95.45525,40.77579],[-95.45005,40.77631],[-95.43671,40.78617],[-95.43327,40.7876],[-95.42918,40.78667],[-95.42665,40.78853],[-95.42711,40.79077],[-95.42484,40.79287],[-95.42288,40.799],[-95.41993,40.80095],[-95.41616,40.80054],[-95.41574,40.80427],[-95.4179,40.80617],[-95.41215,40.80856],[-95.41299,40.81081],[-95.41139,40.81338],[-95.40995,40.81298],[-95.40329,40.81772],[-95.3992,40.82372],[-95.39572,40.8235],[-95.39258,40.83311],[-95.38861,40.83261],[-95.38141,40.84015],[-95.37911,40.83935],[-95.37583,40.84291],[-95.37215,40.8525],[-95.37319,40.85481],[-95.37083,40.85872],[-95.36722,40.86058],[-95.36333,40.85937],[-95.36035,40.86073],[-95.36066,40.865],[-95.35743,40.86616],[-95.34819,40.87882],[-95.34795,40.88781],[-95.34346,40.89025],[-95.3438,40.89277],[-95.33545,40.89885],[-95.3327,40.90445],[-95.32984,40.9054],[-95.33016,40.90995],[-95.3269,40.91371],[-95.31815,40.91599],[-95.31664,40.91912],[-95.31764,40.92142],[-95.31603,40.92301],[-95.31845,40.92503],[-95.31886,40.92938],[-95.31426,40.93598],[-95.31641,40.9373],[-95.31009,40.94226],[-95.31317,40.94825],[-95.31601,40.94989],[-95.31519,40.95584],[-95.31156,40.96149],[-95.31391,40.9649],[-95.31174,40.96865],[-95.30844,40.96926],[-95.30513,40.97224],[-95.30602,40.9759],[-95.31012,40.97629],[-95.3085,40.97846],[-95.30862,40.98298],[-95.30682,40.98324],[-95.3084,40.98517],[-95.30325,40.98921],[-95.30458,40.99153],[-95.30061,40.99487],[-95.30186,40.9962],[-95.30044,40.99838],[-95.2984,40.99868],[-95.29652,41.00147],[-95.28722,41.00242],[-95.2883,41.00532],[-95.28592,41.01179],[-95.28097,41.01551],[-95.28318,41.01749],[-95.28332,41.0239],[-95.27944,41.02488],[-95.27778,41.03038],[-95.27177,41.03556],[-95.27161,41.03976],[-95.27387,41.0412],[-95.26931,41.04786],[-95.27032,41.05173],[-95.26651,41.05418],[-95.26584,41.06057],[-95.26308,41.06508],[-95.25939,41.06589],[-95.25908,41.06904],[-95.25446,41.07487],[-95.25441,41.07886],[-95.24935,41.08184],[-95.24927,41.08848],[-95.2449,41.09301],[-95.24641,41.09719],[-95.24321,41.10253],[-95.23838,41.10641],[-95.23467,41.10661],[-95.23666,41.1123],[-95.23615,41.11602],[-95.23215,41.11717],[-95.23092,41.12378],[-95.22512,41.12424],[-95.22696,41.12925],[-95.22647,41.13256],[-95.21914,41.1389],[-95.21861,41.14438],[-95.22117,41.14786],[-95.22004,41.1503],[-95.21698,41.1539],[-95.21377,41.15484],[-95.21057,41.16177],[-95.20592,41.16579],[-95.20759,41.16911],[-95.20678,41.17082],[-95.21148,41.17539],[-95.21769,41.17752],[-95.21314,41.181],[-95.21218,41.18633],[-95.20893,41.18711],[-95.20643,41.19059],[-95.20226,41.19038],[-95.19904,41.19494],[-95.19564,41.19563],[-95.19597,41.19824],[-95.19364,41.20042],[-95.1954,41.20391],[-95.19121,41.20844],[-95.19164,41.21755],[-95.18748,41.22054],[-95.18848,41.22435],[-95.18577,41.23],[-95.18586,41.23605],[-95.1878,41.24025],[-95.18702,41.24245],[-95.18377,41.24269],[-95.18182,41.24467],[-95.18264,41.24802],[-95.18007,41.25071],[-95.18211,41.26171],[-95.18488,41.26358],[-95.18494,41.26682],[-95.18857,41.27155],[-95.18642,41.2809],[-95.18725,41.28448],[-95.19154,41.28884],[-95.1899,41.29261],[-95.19038,41.29607],[-95.18637,41.29872],[-95.18249,41.30852],[-95.18584,41.31261],[-95.18452,41.31571],[-95.18199,41.31677],[-95.18164,41.31934],[-95.18649,41.32831],[-95.18334,41.33082],[-95.18396,41.33397],[-95.18201,41.33818],[-95.1783,41.34101],[-95.18292,41.34721],[-95.18273,41.34905],[-95.18018,41.3503],[-95.17932,41.35313],[-95.17518,41.35355],[-95.17415,41.356],[-95.17535,41.35877],[-95.1716,41.36616],[-95.17347,41.37077],[-95.16859,41.37608],[-95.16844,41.38088],[-95.17216,41.38207],[-95.17396,41.38652],[-95.17289,41.38869],[-95.17704,41.39396],[-95.17593,41.3962],[-95.17746,41.39876],[-95.17715,41.40882],[-95.18289,41.41207],[-95.17901,41.41899],[-95.17578,41.42039],[-95.175,41.42255],[-95.17712,41.42454],[-95.17189,41.43096],[-95.17384,41.44279],[-95.16564,41.44773],[-95.1629,41.45161],[-95.16733,41.45833],[-95.16515,41.46128],[-95.172,41.46738],[-95.17043,41.47498],[-95.17215,41.47704],[-95.16771,41.48345],[-95.17221,41.48625],[-95.16965,41.49293],[-95.17464,41.49966],[-95.17544,41.5076],[-95.17972,41.51344],[-95.1761,41.51642],[-95.17876,41.51899],[-95.17294,41.5211],[-95.17224,41.53095],[-95.16918,41.5326],[-95.17032,41.53554],[-95.16859,41.5374],[-95.17374,41.5479],[-95.17224,41.55155],[-95.16917,41.55374],[-95.17097,41.5588],[-95.16884,41.56074],[-95.16766,41.56905],[-95.16968,41.57502],[-95.17255,41.57637],[-95.1859,41.5758],[-95.19171,41.57957],[-95.18953,41.58305],[-95.19037,41.58749],[-95.18488,41.59111],[-95.18402,41.59623],[-95.17773,41.59694],[-95.17307,41.60179],[-95.17537,41.60549],[-95.17348,41.60958],[-95.16678,41.61247],[-95.16937,41.61733],[-95.17468,41.61922],[-95.17567,41.62403],[-95.17422,41.62632],[-95.17513,41.62999],[-95.17282,41.63427],[-95.16462,41.64168],[-95.16889,41.64614],[-95.16539,41.64981],[-95.15891,41.65228],[-95.15665,41.65657],[-95.1503,41.66063],[-95.15147,41.66272],[-95.14894,41.66383],[-95.14845,41.6658],[-95.14405,41.66669],[-95.14063,41.6753],[-95.13589,41.67634],[-95.13455,41.68291],[-95.13061,41.68458],[-95.12812,41.68835],[-95.12378,41.69097],[-95.11092,41.69346],[-95.10832,41.69315],[-95.10621,41.68915],[-95.08564,41.68859],[-95.08096,41.6896],[-95.07733,41.69303],[-95.07066,41.69546],[-95.06365,41.69552],[-95.0598,41.69297],[-95.05809,41.69414],[-95.0532,41.69353],[-95.05152,41.69526],[-95.0472,41.69404],[-95.04325,41.6993],[-95.04453,41.70104],[-95.0436,41.70334],[-95.03964,41.70729],[-95.03726,41.70571],[-95.01902,41.70379],[-95.01267,41.70687],[-95.01172,41.70859],[-95.0136,41.7108],[-95.01001,41.71333],[-95.00544,41.71186],[-94.99714,41.7059],[-94.98448,41.7046],[-94.98231,41.7073],[-94.98382,41.71099],[-94.98067,41.71132],[-94.97849,41.71648],[-94.97182,41.71445],[-94.97021,41.71626],[-94.96579,41.71584],[-94.96597,41.72203],[-94.97317,41.72716],[-94.97237,41.73044],[-94.96698,41.73354],[-94.96772,41.73651],[-94.9639,41.74268],[-94.96455,41.74486],[-94.97223,41.74726],[-94.97147,41.75025],[-94.97445,41.75328],[-94.97359,41.75643],[-94.97604,41.76016],[-94.97498,41.76265],[-94.96982,41.76306],[-94.96976,41.76708],[-94.9608,41.76955],[-94.95938,41.77595],[-94.94808,41.77693],[-94.94449,41.77921],[-94.94079,41.78374],[-94.9469,41.78835],[-94.94598,41.78989],[-94.93525,41.79489],[-94.93562,41.79717],[-94.93149,41.79853],[-94.92678,41.80317],[-94.92064,41.80169],[-94.91562,41.81249],[-94.91161,41.81299],[-94.92197,41.82034],[-94.91824,41.82343],[-94.92375,41.83111],[-94.92989,41.83376],[-94.92868,41.83888],[-94.93261,41.8432],[-94.93514,41.84374],[-94.93684,41.84713],[-94.94077,41.8474],[-94.94674,41.85195],[-94.94983,41.85159],[-94.95424,41.85705],[-94.95456,41.86027],[-94.957,41.86],[-94.96014,41.86247],[-94.95797,41.86485],[-94.96535,41.86867],[-94.96459,41.87054],[-94.97138,41.87515],[-94.9714,41.87811],[-94.97657,41.87847],[-94.979,41.88139],[-94.97625,41.88325],[-94.98323,41.89223],[-94.9827,41.89407],[-94.98928,41.89904],[-94.99524,41.90093],[-94.991,41.90776],[-94.99603,41.91236],[-94.97796,41.91904],[-94.97318,41.91773],[-94.97012,41.91919],[-94.96928,41.92233],[-94.9639,41.92426],[-94.95781,41.92412],[-94.95881,41.9281],[-94.95498,41.92947],[-94.94798,41.92682],[-94.94692,41.92449],[-94.94326,41.9229],[-94.9407,41.91799],[-94.93315,41.91634],[-94.92981,41.91373],[-94.92027,41.91202],[-94.91463,41.91425],[-94.91708,41.91655],[-94.91251,41.91946],[-94.90547,41.91756],[-94.90304,41.9132],[-94.89585,41.91315],[-94.89431,41.9093],[-94.89702,41.90806],[-94.89503,41.90632],[-94.89444,41.90264],[-94.88616,41.90053],[-94.8811,41.90176],[-94.86551,41.89344],[-94.85943,41.89301],[-94.85724,41.89109],[-94.85927,41.88806],[-94.85683,41.8837],[-94.85464,41.88378],[-94.84256,41.87594],[-94.84167,41.87341],[-94.83501,41.87024],[-94.83528,41.86845],[-94.829,41.85973],[-94.83085,41.85787],[-94.83001,41.85459],[-94.83184,41.84768],[-94.8276,41.84529],[-94.82472,41.83858],[-94.81473,41.83025],[-94.81266,41.8271],[-94.81242,41.82249],[-94.80724,41.82059],[-94.80025,41.82471],[-94.79591,41.82298],[-94.79474,41.81973],[-94.7991,41.81675],[-94.8003,41.81434],[-94.79955,41.81085],[-94.79635,41.80657],[-94.78995,41.80252],[-94.78987,41.8006],[-94.78624,41.79705],[-94.78825,41.79499],[-94.78312,41.79278],[-94.78233,41.79041],[-94.7759,41.78515],[-94.76907,41.78216],[-94.76914,41.77999],[-94.7711,41.77957],[-94.77249,41.77646],[-94.77191,41.77498],[-94.7596,41.771],[-94.75493,41.77255],[-94.7514,41.76754],[-94.74855,41.76629],[-94.74526,41.75973],[-94.74787,41.75751],[-94.7469,41.75433],[-94.74394,41.75194],[-94.74708,41.74681],[-94.74063,41.74297],[-94.73446,41.74322],[-94.73527,41.73824],[-94.73237,41.73344],[-94.73373,41.72926],[-94.7304,41.72621],[-94.73042,41.72355],[-94.72799,41.7214],[-94.72237,41.72153],[-94.72028,41.71556],[-94.72138,41.71364],[-94.7155,41.71058],[-94.71668,41.70914],[-94.7153,41.70656],[-94.71736,41.70404],[-94.71686,41.70232],[-94.71277,41.701],[-94.71342,41.69238],[-94.69544,41.68282],[-94.69474,41.6793],[-94.68864,41.67417],[-94.68747,41.67057],[-94.68083,41.66792],[-94.67893,41.66413],[-94.67971,41.66013],[-94.67725,41.65739],[-94.68044,41.65268],[-94.67271,41.64191],[-94.66977,41.63992],[-94.66804,41.64083],[-94.66496,41.63762],[-94.65708,41.63845],[-94.6526,41.63408],[-94.65279,41.63193],[-94.65034,41.63061],[-94.65051,41.62755],[-94.65256,41.62788],[-94.65532,41.625],[-94.65414,41.62126],[-94.65784,41.62084],[-94.65837,41.61816],[-94.66123,41.61679],[-94.66521,41.61146],[-94.67654,41.61081],[-94.67874,41.6067],[-94.68608,41.60275],[-94.68825,41.59597],[-94.6921,41.59209],[-94.69606,41.59086],[-94.6941,41.58725],[-94.69422,41.58023],[-94.68697,41.57254],[-94.67712,41.57185],[-94.67612,41.57026],[-94.6669,41.56777],[-94.66773,41.56332],[-94.66526,41.56129],[-94.66376,41.55466],[-94.66618,41.55208],[-94.66429,41.55013],[-94.66356,41.54576],[-94.65928,41.54506],[-94.65354,41.53895],[-94.65499,41.53475],[-94.65818,41.5324],[-94.65784,41.53029],[-94.65378,41.52689],[-94.65089,41.51989],[-94.65126,41.51735],[-94.6481,41.51525],[-94.64448,41.50924],[-94.64617,41.50675],[-94.64577,41.50428],[-94.64252,41.50176],[-94.64381,41.49891],[-94.63765,41.49418],[-94.63518,41.48767],[-94.63755,41.48571],[-94.6419,41.48614],[-94.64784,41.48358],[-94.64959,41.48074],[-94.66177,41.47604],[-94.66601,41.47042],[-94.67409,41.46786],[-94.67377,41.46544],[-94.68261,41.45723],[-94.69058,41.46145],[-94.70227,41.45689],[-94.70867,41.45722],[-94.70908,41.45295],[-94.7125,41.4491],[-94.71199,41.4463],[-94.71849,41.44355],[-94.72812,41.44214],[-94.72767,41.43799],[-94.73084,41.43656],[-94.73579,41.42944],[-94.74005,41.42759],[-94.74041,41.42242],[-94.7435,41.42215],[-94.74592,41.41792],[-94.7523,41.41675],[-94.75125,41.41367],[-94.75565,41.40663],[-94.75938,41.40746],[-94.76793,41.4059],[-94.77207,41.40704],[-94.77624,41.40499],[-94.77951,41.40588],[-94.78403,41.40262],[-94.78379,41.3998],[-94.78717,41.3958],[-94.78669,41.38159],[-94.79196,41.3765],[-94.80174,41.37228],[-94.80614,41.36806],[-94.80686,41.36384],[-94.80957,41.36138],[-94.80882,41.35732],[-94.80713,41.35629],[-94.80815,41.35283],[-94.80658,41.35043],[-94.80916,41.34789],[-94.809,41.34481],[-94.82246,41.33931],[-94.84607,41.34155],[-94.84415,41.33558],[-94.85464,41.32823],[-94.85754,41.3234],[-94.86575,41.32121],[-94.87317,41.32386],[-94.87569,41.32213],[-94.87482,41.32047],[-94.87686,41.31679],[-94.88547,41.30771],[-94.88863,41.30992],[-94.89003,41.30791],[-94.89697,41.30885],[-94.90403,41.30523],[-94.90463,41.30257],[-94.90338,41.30127],[-94.90496,41.29761],[-94.90839,41.29665],[-94.91994,41.2991],[-94.92078,41.30018],[-94.91713,41.30402],[-94.91928,41.30627],[-94.92308,41.30692],[-94.92371,41.30991],[-94.92659,41.31021],[-94.93041,41.30778],[-94.93472,41.30741],[-94.93961,41.30924],[-94.94669,41.3024],[-94.95324,41.29985],[-94.96211,41.30267],[-94.97298,41.30242],[-94.98228,41.30445],[-94.99477,41.30293],[-94.99922,41.305],[-95.0048,41.29892],[-95.01686,41.29351],[-95.02174,41.29371],[-95.02574,41.29599],[-95.03426,41.29413],[-95.04413,41.29747],[-95.04849,41.29589],[-95.0492,41.2908],[-95.04447,41.28887],[-95.04425,41.28744],[-95.05087,41.2801],[-95.04995,41.27359],[-95.05251,41.27076],[-95.05008,41.26873],[-95.05014,41.26495],[-95.05689,41.26165],[-95.05321,41.25756],[-95.05233,41.25144],[-95.05733,41.2482],[-95.0564,41.2445],[-95.05772,41.24051],[-95.06311,41.23953],[-95.06318,41.23538],[-95.05982,41.22822],[-95.06183,41.22644],[-95.05923,41.22414],[-95.06144,41.218],[-95.06031,41.21474],[-95.06238,41.21228],[-95.06103,41.21037],[-95.06281,41.20725],[-95.05901,41.20514],[-95.05915,41.2003],[-95.06807,41.20042],[-95.07105,41.19868],[-95.07983,41.19778],[-95.08518,41.19459],[-95.08219,41.19069],[-95.08537,41.18418],[-95.08318,41.18226],[-95.08299,41.17799],[-95.08731,41.17613],[-95.08775,41.17328],[-95.08516,41.17006],[-95.09172,41.16329],[-95.08815,41.16031],[-95.08894,41.15469],[-95.09906,41.15289],[-95.09493,41.14705],[-95.09542,41.14382],[-95.09846,41.1427],[-95.09892,41.13493],[-95.10135,41.13207],[-95.10101,41.12407],[-95.1027,41.1213],[-95.10505,41.12096],[-95.10746,41.11517],[-95.11049,41.11332],[-95.12185,41.11607],[-95.12609,41.11306],[-95.12823,41.10933],[-95.12415,41.1051],[-95.12816,41.10258],[-95.12788,41.10076],[-95.12969,41.09919],[-95.13397,41.09713],[-95.13654,41.09313],[-95.13461,41.08986],[-95.13592,41.08508],[-95.12796,41.07623],[-95.12896,41.06924],[-95.13437,41.06417],[-95.1358,41.06065],[-95.13815,41.06027],[-95.1406,41.05065],[-95.14394,41.04977],[-95.14647,41.04606],[-95.15438,41.04368],[-95.16128,41.0393],[-95.16562,41.03893],[-95.16477,41.03396],[-95.1663,41.03258],[-95.16627,41.02861],[-95.1741,41.0213],[-95.17256,41.01707],[-95.17708,41.01194],[-95.17305,41.00931],[-95.17132,41.00553],[-95.1718,41.00279],[-95.17542,41.00067],[-95.17215,40.99024],[-95.17253,40.98509],[-95.1737,40.98233],[-95.17689,40.98062],[-95.17516,40.9783],[-95.17607,40.97576],[-95.17938,40.97671],[-95.18564,40.97516],[-95.18838,40.97651],[-95.19318,40.97054],[-95.19188,40.96818],[-95.198,40.95754],[-95.19623,40.94803],[-95.2015,40.93721],[-95.20109,40.93429],[-95.19615,40.93216],[-95.19798,40.92873],[-95.19665,40.91814],[-95.19787,40.91646],[-95.19638,40.91272],[-95.19824,40.91044],[-95.19607,40.90752],[-95.1983,40.90284],[-95.19438,40.89949],[-95.19654,40.89668],[-95.19503,40.892],[-95.19685,40.89029],[-95.19685,40.88588],[-95.20264,40.88216],[-95.20519,40.87843],[-95.21186,40.87639],[-95.21174,40.873],[-95.21434,40.87204],[-95.21477,40.86949],[-95.21749,40.86854],[-95.21883,40.86595],[-95.23046,40.86519],[-95.23144,40.86169],[-95.2341,40.86051],[-95.23488,40.85854],[-95.23256,40.85573],[-95.23852,40.84943],[-95.23377,40.84796],[-95.22993,40.8442],[-95.22885,40.82664],[-95.2358,40.81305],[-95.23614,40.80414],[-95.23941,40.79983],[-95.24232,40.79896],[-95.24656,40.79852],[-95.25123,40.80102],[-95.25874,40.79844],[-95.2642,40.79547],[-95.26997,40.78794],[-95.27224,40.78759],[-95.27316,40.78187],[-95.2773,40.77964],[-95.28586,40.78005],[-95.28509,40.76727],[-95.29532,40.76591],[-95.2977,40.76239],[-95.30083,40.75228],[-95.29945,40.74664],[-95.30153,40.74297],[-95.30429,40.74315],[-95.30887,40.73571],[-95.30763,40.73258],[-95.30934,40.72446],[-95.31617,40.72236],[-95.32168,40.71652],[-95.32528,40.71555],[-95.3263,40.7117],[-95.32986,40.70908],[-95.32978,40.69698],[-95.33416,40.69599],[-95.3345,40.6923],[-95.33834,40.68712],[-95.34373,40.68473],[-95.34467,40.67943],[-95.34883,40.67512],[-95.35852,40.67168],[-95.36489,40.67411],[-95.37075,40.67082],[-95.37809,40.67229],[-95.38216,40.66966],[-95.39145,40.68101],[-95.39588,40.6798],[-95.39996,40.68299],[-95.40283,40.6802],[-95.40828,40.6859],[-95.41124,40.687],[-95.41099,40.68881],[-95.41974,40.68905],[-95.4232,40.68351],[-95.44414,40.67709],[-95.45306,40.66875],[-95.46017,40.67001],[-95.46375,40.66114],[-95.46598,40.65959],[-95.46993,40.65989],[-95.47891,40.65241],[-95.48316,40.65305],[-95.48687,40.64918],[-95.48719,40.64522],[-95.49612,40.64686],[-95.4971,40.64423],[-95.50976,40.64075],[-95.51565,40.64552],[-95.52088,40.64689],[-95.52339,40.6458],[-95.52599,40.64872]]]}}]}