{"type":"FeatureCollection","features":[{"type":"Feature","properties":{},"geometry":{"type":"Polygon","coordinates":[[[-95.01813,42.18525],[-95.01654,42.18932],[-95.0101,42.1914],[-95.00862,42.19365],[-95.00968,42.19581],[-95.00443,42.19473],[-95.00222,42.19647],[-94.99394,42.1965],[-94.99683,42.19882],[-94.99426,42.20122],[-94.99974,42.20244],[-95.00315,42.20531],[-95.00832,42.20587],[-95.00949,42.20877],[-95.00744,42.21013],[-95.0115,42.21302],[-95.01746,42.21093],[-95.01951,42.21187],[-95.02247,42.2154],[-95.02567,42.21644],[-95.02403,42.21965],[-95.03035,42.22161],[-95.02901,42.22729],[-95.03099,42.22833],[-95.03105,42.23304],[-95.02647,42.23741],[-95.03176,42.23946],[-95.03425,42.24482],[-95.03232,42.2473],[-95.03336,42.25258],[-95.03674,42.25158],[-95.04319,42.2574],[-95.04978,42.25895],[-95.04874,42.25964],[-95.04962,42.27],[-95.04833,42.27165],[-95.04275,42.27177],[-95.03851,42.27504],[-95.03502,42.27522],[-95.03147,42.2726],[-95.0272,42.26506],[-95.01665,42.25702],[-95.01167,42.24937],[-94.99624,42.24424],[-94.99243,42.23849],[-94.9873,42.23592],[-94.98328,42.23082],[-94.98413,42.22602],[-94.98144,42.22502],[-94.97757,42.22004],[-94.97862,42.218],[-94.97352,42.21638],[-94.97291,42.21109],[-94.96828,42.21039],[-94.9632,42.20537],[-94.9662,42.20291],[-94.96091,42.19154],[-94.96264,42.19011],[-94.96398,42.18445],[-94.95884,42.18053],[-94.95986,42.17266],[-94.96608,42.17477],[-94.97233,42.17431],[-94.97231,42.1783],[-94.97447,42.17892],[-94.97483,42.18081],[-94.98142,42.18311],[-94.98301,42.18182],[-94.98868,42.18682],[-94.99653,42.18219],[-95.00038,42.18504],[-95.00343,42.18519],[-95.00468,42.18374],[-95.0107,42.18481],[-95.01481,42.18233],[-95.01813,42.18525]]]}}]}