{"type":"FeatureCollection","features":[{"type":"Feature","properties":{},"geometry":{"type":"Polygon","coordinates":[[[-91.84397,42.91797],[-91.85295,42.92691],[-91.8529,42.92878],[-91.86197,42.935],[-91.86954,42.93842],[-91.87859,42.93954],[-91.88427,42.94317],[-91.8862,42.94985],[-91.87367,42.95182],[-91.87018,42.95072],[-91.85868,42.96206],[-91.85348,42.96289],[-91.856,42.96668],[-91.85282,42.972],[-91.86367,42.97571],[-91.86551,42.97832],[-91.86211,42.97918],[-91.86114,42.98262],[-91.8553,42.98413],[-91.8573,42.9868],[-91.85642,42.98798],[-91.84684,42.99163],[-91.83492,42.98837],[-91.8311,42.99041],[-91.8287,42.9941],[-91.82127,42.99759],[-91.82222,42.99908],[-91.81677,43.0007],[-91.79993,42.9991],[-91.79706,42.99578],[-91.79272,42.99428],[-91.78818,42.99575],[-91.7823,42.99502],[-91.77636,42.98975],[-91.77173,42.98866],[-91.7706,42.98658],[-91.76096,42.9868],[-91.76012,42.98376],[-91.76122,42.98276],[-91.75919,42.97942],[-91.75653,42.97891],[-91.75008,42.97113],[-91.74155,42.97079],[-91.72858,42.96708],[-91.71693,42.9608],[-91.71405,42.95766],[-91.70338,42.95428],[-91.69058,42.95509],[-91.68747,42.95683],[-91.6866,42.96295],[-91.67764,42.96338],[-91.67334,42.96126],[-91.65906,42.95873],[-91.65644,42.9618],[-91.65355,42.96135],[-91.64792,42.95833],[-91.64633,42.95508],[-91.64371,42.95652],[-91.62874,42.95754],[-91.62592,42.95601],[-91.6276,42.94693],[-91.6324,42.94709],[-91.64005,42.93854],[-91.63901,42.93629],[-91.6422,42.93363],[-91.65057,42.92888],[-91.65943,42.92722],[-91.6652,42.92897],[-91.67717,42.92358],[-91.67885,42.91557],[-91.67521,42.90766],[-91.67829,42.90514],[-91.68251,42.90333],[-91.69283,42.90514],[-91.69437,42.9036],[-91.70488,42.90958],[-91.71016,42.91069],[-91.71214,42.9086],[-91.71122,42.90554],[-91.71593,42.90405],[-91.71698,42.89917],[-91.72279,42.89619],[-91.72768,42.89648],[-91.73459,42.90096],[-91.74025,42.90254],[-91.74518,42.91321],[-91.74431,42.91465],[-91.74939,42.9215],[-91.75622,42.91798],[-91.76158,42.92258],[-91.77021,42.92662],[-91.78522,42.93011],[-91.78792,42.93338],[-91.79343,42.9332],[-91.79847,42.92942],[-91.80454,42.92773],[-91.80706,42.92538],[-91.80621,42.92337],[-91.81367,42.9191],[-91.81452,42.91534],[-91.81798,42.91365],[-91.83211,42.9139],[-91.84027,42.91194],[-91.84438,42.91465],[-91.84397,42.91797]]]}}]}