{"type":"FeatureCollection","features":[{"type":"Feature","properties":{},"geometry":{"type":"Polygon","coordinates":[[[-91.61141,42.19545],[-91.62009,42.203],[-91.61988,42.20989],[-91.62422,42.21134],[-91.62743,42.21944],[-91.6339,42.22534],[-91.63371,42.22947],[-91.63892,42.23559],[-91.64442,42.23739],[-91.6452,42.24593],[-91.64175,42.24867],[-91.64195,42.25009],[-91.64358,42.25481],[-91.65028,42.25817],[-91.65757,42.25496],[-91.66064,42.25051],[-91.66412,42.24852],[-91.6721,42.24986],[-91.67329,42.24541],[-91.67896,42.24552],[-91.68737,42.24804],[-91.69927,42.25612],[-91.70078,42.26612],[-91.71618,42.26583],[-91.71756,42.26721],[-91.72568,42.26614],[-91.75393,42.27163],[-91.75466,42.28374],[-91.75989,42.28803],[-91.76133,42.29219],[-91.75993,42.29653],[-91.76525,42.30235],[-91.76527,42.30877],[-91.7781,42.31273],[-91.77856,42.31501],[-91.78072,42.3159],[-91.80602,42.31302],[-91.80798,42.31002],[-91.81367,42.30823],[-91.81762,42.31104],[-91.83288,42.31179],[-91.84014,42.30976],[-91.8398,42.30638],[-91.8503,42.31175],[-91.85104,42.31402],[-91.85749,42.31593],[-91.85501,42.31726],[-91.85455,42.32167],[-91.85153,42.32637],[-91.85203,42.33039],[-91.85051,42.33131],[-91.85162,42.33576],[-91.85596,42.33957],[-91.8562,42.3484],[-91.8533,42.35014],[-91.85572,42.35308],[-91.84467,42.35997],[-91.84567,42.36392],[-91.84284,42.36609],[-91.84457,42.36776],[-91.84414,42.37125],[-91.8385,42.37723],[-91.84169,42.38167],[-91.83874,42.38891],[-91.84002,42.39117],[-91.83882,42.3937],[-91.84161,42.39625],[-91.84182,42.40041],[-91.8577,42.40605],[-91.86229,42.41319],[-91.86648,42.41611],[-91.86519,42.42004],[-91.86967,42.42352],[-91.87033,42.43141],[-91.88315,42.43506],[-91.88645,42.44134],[-91.89551,42.44164],[-91.92298,42.44825],[-91.92421,42.44897],[-91.92366,42.45191],[-91.93792,42.45934],[-91.93649,42.46157],[-91.93771,42.46927],[-91.93978,42.47044],[-91.95451,42.46834],[-91.96105,42.46572],[-91.97076,42.46693],[-91.97081,42.46982],[-91.97896,42.48667],[-91.98344,42.48604],[-91.98537,42.48392],[-91.9846,42.48192],[-91.99111,42.48128],[-91.99377,42.47853],[-92.00222,42.47748],[-92.00552,42.47863],[-92.01579,42.47507],[-92.01816,42.4777],[-92.03135,42.48318],[-92.03639,42.49888],[-92.04914,42.50294],[-92.05316,42.50331],[-92.06023,42.49883],[-92.06644,42.49956],[-92.07151,42.50415],[-92.08573,42.50189],[-92.08942,42.50398],[-92.09651,42.50302],[-92.09958,42.50408],[-92.09768,42.49962],[-92.09874,42.49637],[-92.10444,42.49331],[-92.10683,42.48734],[-92.11513,42.49001],[-92.12105,42.48881],[-92.12282,42.49108],[-92.12566,42.49152],[-92.1291,42.4897],[-92.13679,42.49081],[-92.14458,42.48927],[-92.14748,42.50094],[-92.15044,42.50296],[-92.1478,42.50764],[-92.14887,42.51266],[-92.14333,42.51679],[-92.14323,42.52117],[-92.13696,42.52287],[-92.13468,42.52702],[-92.1264,42.53144],[-92.12578,42.53332],[-92.12818,42.53737],[-92.13657,42.54166],[-92.13775,42.54601],[-92.14097,42.54757],[-92.16331,42.5501],[-92.16927,42.55532],[-92.17361,42.55593],[-92.18421,42.56203],[-92.18748,42.56562],[-92.19952,42.56663],[-92.20511,42.56906],[-92.20723,42.57053],[-92.21082,42.57883],[-92.23734,42.58841],[-92.24613,42.59375],[-92.25718,42.59526],[-92.26225,42.59047],[-92.28048,42.58994],[-92.29474,42.5951],[-92.29813,42.60338],[-92.29815,42.61151],[-92.30064,42.61381],[-92.29797,42.61807],[-92.29853,42.6216],[-92.30406,42.63194],[-92.30375,42.63379],[-92.30604,42.6359],[-92.30813,42.64609],[-92.30061,42.65791],[-92.29729,42.65874],[-92.28609,42.65431],[-92.28372,42.65464],[-92.28304,42.65789],[-92.28782,42.66654],[-92.28603,42.67251],[-92.28701,42.67592],[-92.29316,42.68287],[-92.29415,42.6867],[-92.29821,42.68901],[-92.29793,42.69437],[-92.28784,42.70376],[-92.29211,42.70743],[-92.2929,42.71107],[-92.29774,42.71441],[-92.2985,42.72501],[-92.3004,42.7291],[-92.30662,42.73737],[-92.31483,42.7421],[-92.31637,42.74807],[-92.31522,42.75572],[-92.31937,42.75819],[-92.32134,42.76418],[-92.32549,42.76854],[-92.3293,42.78135],[-92.33228,42.78346],[-92.33813,42.78443],[-92.34108,42.78864],[-92.34162,42.7943],[-92.34641,42.79914],[-92.35805,42.80567],[-92.35868,42.81203],[-92.36496,42.81459],[-92.3755,42.8287],[-92.3771,42.84091],[-92.38222,42.84283],[-92.38462,42.84587],[-92.38518,42.84788],[-92.38184,42.84871],[-92.39319,42.85235],[-92.39755,42.8554],[-92.39378,42.86587],[-92.39377,42.88359],[-92.38969,42.89253],[-92.39387,42.895],[-92.39417,42.89761],[-92.39855,42.90067],[-92.40105,42.90559],[-92.39983,42.91081],[-92.40542,42.92518],[-92.40243,42.93008],[-92.40278,42.93379],[-92.39898,42.93821],[-92.40249,42.94501],[-92.40745,42.94918],[-92.40874,42.96695],[-92.41658,42.97281],[-92.41665,42.97603],[-92.41987,42.97955],[-92.4195,42.98181],[-92.42991,42.99414],[-92.42967,42.9987],[-92.4352,43.00363],[-92.43628,43.00859],[-92.43938,43.0108],[-92.4404,43.01747],[-92.43852,43.02098],[-92.44568,43.02237],[-92.44846,43.02535],[-92.45338,43.02686],[-92.4608,43.02692],[-92.46269,43.02942],[-92.46166,43.03182],[-92.4663,43.03283],[-92.47365,43.03952],[-92.47178,43.04561],[-92.47662,43.05802],[-92.49145,43.06772],[-92.49247,43.07],[-92.49075,43.07157],[-92.49604,43.07682],[-92.49596,43.08568],[-92.50164,43.09012],[-92.50535,43.0905],[-92.50604,43.09829],[-92.51431,43.10391],[-92.51987,43.11132],[-92.52213,43.11504],[-92.52194,43.12186],[-92.52346,43.12543],[-92.52762,43.1278],[-92.52868,43.13255],[-92.53301,43.135],[-92.54018,43.14693],[-92.53867,43.14992],[-92.54095,43.15676],[-92.54399,43.15995],[-92.54308,43.16272],[-92.55416,43.16706],[-92.55653,43.17169],[-92.56108,43.17491],[-92.57544,43.17914],[-92.58432,43.18747],[-92.58131,43.19572],[-92.56633,43.20537],[-92.56393,43.21453],[-92.56494,43.21635],[-92.56873,43.21717],[-92.57238,43.22191],[-92.56992,43.22905],[-92.5673,43.23111],[-92.56895,43.23519],[-92.56798,43.23744],[-92.56904,43.24253],[-92.57129,43.24451],[-92.57087,43.25408],[-92.57511,43.26062],[-92.57254,43.26338],[-92.57513,43.26679],[-92.58459,43.26825],[-92.5899,43.27344],[-92.58982,43.27818],[-92.58352,43.28243],[-92.58482,43.28561],[-92.57605,43.29398],[-92.58331,43.29798],[-92.5846,43.29956],[-92.58369,43.30129],[-92.59411,43.31201],[-92.59501,43.31524],[-92.59356,43.31905],[-92.59774,43.3279],[-92.59685,43.33511],[-92.59451,43.33713],[-92.59655,43.34531],[-92.59444,43.34728],[-92.6004,43.35779],[-92.59926,43.36258],[-92.60074,43.36594],[-92.60068,43.37474],[-92.60277,43.37775],[-92.60899,43.37979],[-92.61172,43.38299],[-92.61348,43.38585],[-92.61402,43.39516],[-92.62363,43.40007],[-92.62557,43.40687],[-92.62382,43.41137],[-92.62745,43.41672],[-92.64238,43.42771],[-92.65211,43.43193],[-92.66329,43.43442],[-92.65903,43.43995],[-92.6623,43.44294],[-92.66076,43.44495],[-92.64828,43.45114],[-92.6506,43.45858],[-92.65584,43.46152],[-92.65606,43.46377],[-92.65302,43.46533],[-92.65222,43.47045],[-92.6662,43.47932],[-92.68111,43.49389],[-92.6826,43.4973],[-92.68916,43.50042],[-92.70167,43.51999],[-92.70812,43.52484],[-92.71227,43.53166],[-92.71022,43.53565],[-92.70303,43.53555],[-92.69542,43.5388],[-92.68557,43.54043],[-92.67684,43.53911],[-92.67214,43.54581],[-92.6677,43.54787],[-92.66494,43.5536],[-92.66046,43.55376],[-92.6519,43.54804],[-92.6428,43.55028],[-92.64002,43.54436],[-92.6293,43.54373],[-92.62506,43.54116],[-92.6286,43.53734],[-92.62844,43.53265],[-92.62988,43.53066],[-92.61936,43.51694],[-92.6088,43.51183],[-92.60639,43.50652],[-92.59293,43.50354],[-92.58644,43.50399],[-92.57972,43.49655],[-92.57412,43.49434],[-92.57228,43.48883],[-92.55969,43.47963],[-92.55543,43.46795],[-92.54803,43.46326],[-92.54781,43.46014],[-92.54558,43.45781],[-92.54796,43.4535],[-92.53774,43.4492],[-92.53833,43.44491],[-92.53614,43.44458],[-92.52973,43.43823],[-92.53273,43.4337],[-92.52865,43.43013],[-92.5185,43.42743],[-92.51422,43.42088],[-92.50642,43.41818],[-92.50334,43.41494],[-92.49953,43.40808],[-92.50048,43.40545],[-92.49654,43.40239],[-92.4976,43.40046],[-92.48746,43.39246],[-92.49044,43.38646],[-92.48059,43.38011],[-92.4803,43.37776],[-92.47538,43.37652],[-92.47505,43.37285],[-92.46938,43.36935],[-92.46592,43.36157],[-92.46938,43.35837],[-92.46594,43.35072],[-92.45996,43.34629],[-92.45705,43.34647],[-92.45082,43.34308],[-92.45287,43.34085],[-92.45227,43.33667],[-92.44588,43.33308],[-92.44678,43.32651],[-92.43428,43.31444],[-92.43529,43.31202],[-92.429,43.30822],[-92.42427,43.3007],[-92.42512,43.29691],[-92.42227,43.29122],[-92.41112,43.28697],[-92.4075,43.28222],[-92.39621,43.28486],[-92.38937,43.27866],[-92.38431,43.27778],[-92.37928,43.27445],[-92.38083,43.2696],[-92.37915,43.26671],[-92.38138,43.26295],[-92.37569,43.25986],[-92.36745,43.24751],[-92.36474,43.24569],[-92.36504,43.24153],[-92.36737,43.23971],[-92.36573,43.23563],[-92.35754,43.23455],[-92.35559,43.23176],[-92.34677,43.22688],[-92.34599,43.22245],[-92.34306,43.22183],[-92.34164,43.21119],[-92.33884,43.20915],[-92.34005,43.20158],[-92.33639,43.19853],[-92.33617,43.19072],[-92.33228,43.18711],[-92.32822,43.1876],[-92.31052,43.17772],[-92.31155,43.17539],[-92.31036,43.16661],[-92.30687,43.16558],[-92.29495,43.15562],[-92.29156,43.15048],[-92.27606,43.14897],[-92.26954,43.1461],[-92.26407,43.14096],[-92.25837,43.13986],[-92.25647,43.13622],[-92.25344,43.13662],[-92.24512,43.12622],[-92.24137,43.12513],[-92.23979,43.11326],[-92.22986,43.10491],[-92.22939,43.10179],[-92.22645,43.0991],[-92.21628,43.09565],[-92.21665,43.0921],[-92.21261,43.08559],[-92.2108,43.0776],[-92.20166,43.06616],[-92.20256,43.06219],[-92.19929,43.0543],[-92.193,43.05352],[-92.1855,43.04757],[-92.18204,43.04184],[-92.18338,43.03368],[-92.17714,43.03094],[-92.17179,43.02593],[-92.16859,43.02541],[-92.16151,43.01894],[-92.15793,43.01842],[-92.14843,43.01253],[-92.14359,43.01189],[-92.14277,43.00792],[-92.13701,43.00478],[-92.13575,43.00166],[-92.13776,42.99734],[-92.13561,42.99384],[-92.12928,42.99446],[-92.12569,42.99046],[-92.11752,42.98631],[-92.11533,42.97884],[-92.11621,42.9766],[-92.10511,42.97474],[-92.10078,42.97591],[-92.09304,42.96834],[-92.08423,42.96501],[-92.08332,42.95627],[-92.08112,42.95394],[-92.06911,42.95235],[-92.06436,42.9481],[-92.0582,42.94565],[-92.05714,42.9428],[-92.04996,42.9378],[-92.04273,42.92844],[-92.03617,42.9248],[-92.03302,42.91713],[-92.02762,42.91034],[-92.02406,42.8968],[-92.01968,42.892],[-92.02602,42.88748],[-92.02439,42.88433],[-92.0257,42.88013],[-92.02226,42.87422],[-92.01663,42.86991],[-92.01315,42.86194],[-92.00861,42.85757],[-92.00285,42.84418],[-91.99477,42.83695],[-91.97803,42.83267],[-91.9727,42.82286],[-91.96347,42.81998],[-91.95964,42.81648],[-91.95719,42.80834],[-91.95847,42.80708],[-91.9575,42.80266],[-91.95463,42.79702],[-91.95115,42.79342],[-91.94899,42.78763],[-91.94237,42.78562],[-91.93509,42.77142],[-91.93115,42.76942],[-91.91928,42.77351],[-91.91313,42.77115],[-91.89958,42.77273],[-91.89171,42.76845],[-91.89008,42.7649],[-91.89266,42.76365],[-91.89198,42.76219],[-91.882,42.75522],[-91.88325,42.75233],[-91.87258,42.74401],[-91.85607,42.72272],[-91.85677,42.71932],[-91.85214,42.71453],[-91.85675,42.71147],[-91.86282,42.71148],[-91.86611,42.70906],[-91.86503,42.7046],[-91.86639,42.70119],[-91.86387,42.69728],[-91.86572,42.69347],[-91.86331,42.68802],[-91.86629,42.68464],[-91.86662,42.68194],[-91.86313,42.67243],[-91.85228,42.65897],[-91.8419,42.6547],[-91.83753,42.65092],[-91.83624,42.64766],[-91.8378,42.64637],[-91.83726,42.64401],[-91.83089,42.63734],[-91.83055,42.63287],[-91.82367,42.6208],[-91.82046,42.62031],[-91.81824,42.61028],[-91.81399,42.60967],[-91.80654,42.60387],[-91.80207,42.60358],[-91.80105,42.5983],[-91.79899,42.59635],[-91.79932,42.59151],[-91.79418,42.58801],[-91.79591,42.58527],[-91.79057,42.57868],[-91.79216,42.57625],[-91.78374,42.5715],[-91.78546,42.5697],[-91.78506,42.56474],[-91.78205,42.56065],[-91.7764,42.55731],[-91.77823,42.55493],[-91.77602,42.5505],[-91.76731,42.54534],[-91.76745,42.54281],[-91.76473,42.53977],[-91.76404,42.53303],[-91.75671,42.52662],[-91.75239,42.51885],[-91.75216,42.51089],[-91.74356,42.50367],[-91.74047,42.49264],[-91.74206,42.48871],[-91.7386,42.48009],[-91.73009,42.47325],[-91.72893,42.46804],[-91.72164,42.45903],[-91.72037,42.45397],[-91.70576,42.44674],[-91.70065,42.44179],[-91.69812,42.43619],[-91.69365,42.43455],[-91.69424,42.43081],[-91.69157,42.42592],[-91.67958,42.41851],[-91.67942,42.41528],[-91.67211,42.40886],[-91.67345,42.40738],[-91.67108,42.40073],[-91.66553,42.39886],[-91.65906,42.39011],[-91.65237,42.38693],[-91.6486,42.38217],[-91.64902,42.37881],[-91.64752,42.37627],[-91.64306,42.37431],[-91.63964,42.36453],[-91.62323,42.35656],[-91.61758,42.35053],[-91.61729,42.34752],[-91.60874,42.34038],[-91.60844,42.33648],[-91.61017,42.33378],[-91.60703,42.33221],[-91.60495,42.32427],[-91.59935,42.31819],[-91.59311,42.31591],[-91.59272,42.31164],[-91.58354,42.30647],[-91.57772,42.29932],[-91.57271,42.29639],[-91.57481,42.2933],[-91.56914,42.28516],[-91.56215,42.27873],[-91.55876,42.26912],[-91.55111,42.26396],[-91.54826,42.25802],[-91.54583,42.25678],[-91.54308,42.24646],[-91.53481,42.23976],[-91.5312,42.23162],[-91.53222,42.23042],[-91.52701,42.22505],[-91.53007,42.22447],[-91.52958,42.22358],[-91.51864,42.21847],[-91.51817,42.21524],[-91.51534,42.21303],[-91.51654,42.21041],[-91.50734,42.20015],[-91.50798,42.19685],[-91.50159,42.19316],[-91.49884,42.18702],[-91.49596,42.1844],[-91.49031,42.18358],[-91.48965,42.17932],[-91.49123,42.17695],[-91.48866,42.17458],[-91.49694,42.17111],[-91.49732,42.16746],[-91.49317,42.15891],[-91.49417,42.15545],[-91.49981,42.15475],[-91.50854,42.15086],[-91.51324,42.151],[-91.51339,42.15285],[-91.51759,42.15539],[-91.5179,42.1574],[-91.51546,42.15938],[-91.51738,42.16054],[-91.52371,42.16013],[-91.52728,42.16276],[-91.53361,42.16279],[-91.53487,42.16426],[-91.55405,42.16272],[-91.55909,42.16859],[-91.56759,42.17197],[-91.57261,42.18747],[-91.57536,42.18794],[-91.57615,42.18971],[-91.57328,42.19815],[-91.56735,42.20203],[-91.56527,42.20764],[-91.58298,42.21203],[-91.59264,42.20133],[-91.59693,42.19872],[-91.60719,42.19775],[-91.61141,42.19545]]]}}]}