{"type":"FeatureCollection","features":[{"type":"Feature","properties":{},"geometry":{"type":"Polygon","coordinates":[[[-92.56173,43.11922],[-92.56296,43.12173],[-92.57138,43.12692],[-92.57307,43.13356],[-92.57828,43.13731],[-92.57939,43.14046],[-92.58384,43.14432],[-92.5828,43.15087],[-92.5896,43.15252],[-92.59347,43.15541],[-92.59465,43.15871],[-92.59316,43.16153],[-92.60215,43.16809],[-92.6023,43.1727],[-92.59979,43.17934],[-92.59634,43.18251],[-92.59018,43.18381],[-92.58432,43.18747],[-92.57544,43.17914],[-92.56108,43.17491],[-92.55653,43.17169],[-92.55416,43.16706],[-92.54308,43.16272],[-92.54399,43.15995],[-92.53963,43.1535],[-92.53867,43.14992],[-92.54018,43.14693],[-92.53895,43.14488],[-92.54491,43.14102],[-92.54774,43.13714],[-92.5441,43.13068],[-92.54449,43.12828],[-92.53958,43.12156],[-92.54396,43.11894],[-92.55016,43.12138],[-92.5589,43.11692],[-92.56173,43.11922]]]}}]}