{"type":"FeatureCollection","features":[{"type":"Feature","properties":{},"geometry":{"type":"Polygon","coordinates":[[[-91.41646,41.69764],[-91.41668,41.69881],[-91.42037,41.69912],[-91.41985,41.7031],[-91.42413,41.7048],[-91.42559,41.70817],[-91.42984,41.70956],[-91.4291,41.71185],[-91.43179,41.71349],[-91.43137,41.71649],[-91.42835,41.71946],[-91.42981,41.7206],[-91.41918,41.72567],[-91.41753,41.72883],[-91.41969,41.72984],[-91.418,41.73109],[-91.41899,41.73383],[-91.41655,41.73518],[-91.41459,41.74019],[-91.4113,41.74071],[-91.41383,41.74387],[-91.40743,41.74587],[-91.40677,41.7476],[-91.39839,41.74527],[-91.39109,41.73986],[-91.39091,41.73807],[-91.38609,41.73643],[-91.38212,41.73087],[-91.38391,41.72904],[-91.38134,41.72607],[-91.38328,41.72247],[-91.37637,41.7158],[-91.37602,41.71325],[-91.38103,41.70854],[-91.38521,41.7086],[-91.38652,41.70516],[-91.3899,41.70604],[-91.39176,41.70319],[-91.39616,41.70128],[-91.40362,41.70178],[-91.41256,41.69616],[-91.41646,41.69764]]]}}]}