{"type":"FeatureCollection","features":[{"type":"Feature","properties":{},"geometry":{"type":"MultiPolygon","coordinates":[[[[-93.64555,43.5586],[-93.64555,43.55444],[-93.62055,43.55444],[-93.62055,43.55027],[-93.59972,43.55027],[-93.59972,43.5586],[-93.59555,43.5586],[-93.59555,43.56277],[-93.59972,43.56277],[-93.59972,43.56694],[-93.58722,43.56694],[-93.58722,43.57111],[-93.58305,43.57111],[-93.58305,43.57527],[-93.58722,43.57527],[-93.58722,43.57944],[-93.58305,43.57944],[-93.58305,43.58361],[-93.57888,43.58361],[-93.57888,43.58777],[-93.55805,43.58777],[-93.55805,43.59194],[-93.54971,43.59194],[-93.54971,43.59611],[-93.54554,43.59611],[-93.54554,43.60027],[-93.54138,43.60027],[-93.54138,43.60444],[-93.52888,43.60444],[-93.52888,43.61278],[-93.51221,43.61278],[-93.51221,43.61694],[-93.50387,43.61694],[-93.50387,43.62111],[-93.50804,43.62111],[-93.50804,43.62528],[-93.51221,43.62528],[-93.51221,43.63361],[-93.51638,43.63361],[-93.51638,43.64611],[-93.52471,43.64611],[-93.52471,43.65445],[-93.52888,43.65445],[-93.52888,43.67111],[-93.52471,43.67111],[-93.52471,43.67528],[-93.51221,43.67528],[-93.51221,43.69612],[-93.52471,43.69612],[-93.52471,43.70862],[-93.52054,43.70862],[-93.52054,43.71278],[-93.51638,43.71278],[-93.51638,43.72528],[-93.51221,43.72528],[-93.51221,43.72945],[-93.49554,43.72945],[-93.49554,43.73779],[-93.49137,43.73779],[-93.49137,43.74612],[-93.48304,43.74612],[-93.48304,43.75029],[-93.47471,43.75029],[-93.47471,43.75445],[-93.46637,43.75445],[-93.46637,43.75029],[-93.45387,43.75029],[-93.45387,43.75445],[-93.4497,43.75445],[-93.4497,43.76279],[-93.4247,43.76279],[-93.4247,43.76695],[-93.42054,43.76695],[-93.42054,43.77946],[-93.40387,43.77946],[-93.40387,43.78362],[-93.3997,43.78362],[-93.3997,43.78779],[-93.3872,43.78779],[-93.3872,43.79196],[-93.38303,43.79196],[-93.38303,43.79612],[-93.37053,43.79612],[-93.37053,43.79196],[-93.3622,43.79196],[-93.3622,43.78779],[-93.35386,43.78779],[-93.35386,43.78362],[-93.3497,43.78362],[-93.3497,43.77112],[-93.33719,43.77112],[-93.33719,43.76695],[-93.33303,43.76695],[-93.33303,43.76279],[-93.32053,43.76279],[-93.32053,43.74612],[-93.31219,43.74612],[-93.31219,43.73779],[-93.30803,43.73779],[-93.30803,43.72945],[-93.29552,43.72945],[-93.29552,43.70862],[-93.28719,43.70862],[-93.28719,43.71278],[-93.28302,43.71278],[-93.28302,43.70862],[-93.27886,43.70862],[-93.27886,43.70445],[-93.27469,43.70445],[-93.27469,43.70028],[-93.27052,43.70028],[-93.27052,43.69612],[-93.26636,43.69612],[-93.26636,43.69195],[-93.25386,43.69195],[-93.25386,43.68778],[-93.24552,43.68778],[-93.24552,43.68361],[-93.24135,43.68361],[-93.24135,43.67945],[-93.23719,43.67945],[-93.23719,43.67528],[-93.23302,43.67528],[-93.23302,43.67111],[-93.22469,43.67111],[-93.22469,43.66695],[-93.21635,43.66695],[-93.21635,43.67111],[-93.21218,43.67111],[-93.21218,43.67528],[-93.20802,43.67528],[-93.20802,43.67945],[-93.19968,43.67945],[-93.19968,43.67528],[-93.17885,43.67528],[-93.17885,43.67945],[-93.17051,43.67945],[-93.17051,43.67111],[-93.16218,43.67111],[-93.16218,43.66695],[-93.15801,43.66695],[-93.15801,43.65445],[-93.15385,43.65445],[-93.15385,43.65028],[-93.14968,43.65028],[-93.14968,43.63778],[-93.15385,43.63778],[-93.15385,43.62944],[-93.16218,43.62944],[-93.16218,43.62111],[-93.17468,43.62111],[-93.17468,43.62528],[-93.17885,43.62528],[-93.17885,43.62111],[-93.18718,43.62111],[-93.18718,43.60027],[-93.19135,43.60027],[-93.19135,43.59611],[-93.18718,43.59611],[-93.18718,43.58777],[-93.19135,43.58777],[-93.19135,43.58361],[-93.21218,43.58361],[-93.21218,43.57944],[-93.21635,43.57944],[-93.21635,43.57527],[-93.22052,43.57527],[-93.22052,43.57111],[-93.22469,43.57111],[-93.22469,43.56694],[-93.22885,43.56694],[-93.22885,43.56277],[-93.23302,43.56277],[-93.23302,43.55027],[-93.23719,43.55027],[-93.23719,43.54194],[-93.22885,43.54194],[-93.22885,43.53777],[-93.22469,43.53777],[-93.22469,43.52944],[-93.22052,43.52944],[-93.22052,43.52527],[-93.22469,43.52527],[-93.22469,43.51693],[-93.22885,43.51693],[-93.22885,43.4836],[-93.23302,43.4836],[-93.23302,43.47943],[-93.22885,43.47943],[-93.22885,43.47526],[-93.23302,43.47526],[-93.23302,43.4711],[-93.22885,43.4711],[-93.22885,43.45443],[-93.21635,43.45443],[-93.21635,43.45026],[-93.20802,43.45026],[-93.20802,43.4461],[-93.20385,43.4461],[-93.20385,43.44193],[-93.19135,43.44193],[-93.19135,43.43776],[-93.18718,43.43776],[-93.18718,43.43359],[-93.18302,43.43359],[-93.18302,43.42943],[-93.17885,43.42943],[-93.17885,43.42526],[-93.17468,43.42526],[-93.17468,43.42109],[-93.17051,43.42109],[-93.17051,43.41276],[-93.16635,43.41276],[-93.16635,43.40859],[-93.16218,43.40859],[-93.16218,43.40443],[-93.14968,43.40443],[-93.14968,43.40026],[-93.14551,43.40026],[-93.14551,43.39609],[-93.14135,43.39609],[-93.14135,43.38776],[-93.13301,43.38776],[-93.13301,43.38359],[-93.12884,43.38359],[-93.12884,43.37942],[-93.10384,43.37942],[-93.10384,43.37526],[-93.09551,43.37526],[-93.09551,43.37109],[-93.08718,43.37109],[-93.08718,43.36276],[-93.07467,43.36276],[-93.07467,43.35025],[-93.07051,43.35025],[-93.07051,43.34609],[-93.06634,43.34609],[-93.06634,43.34192],[-93.07051,43.34192],[-93.07051,43.33775],[-93.06634,43.33775],[-93.06634,43.33359],[-93.05801,43.33359],[-93.05801,43.32942],[-93.05384,43.32942],[-93.05384,43.32525],[-93.04967,43.32525],[-93.04967,43.32109],[-93.04134,43.32109],[-93.04134,43.31692],[-93.03717,43.31692],[-93.03717,43.31275],[-93.033,43.31275],[-93.033,43.30442],[-93.02884,43.30442],[-93.02884,43.27942],[-93.033,43.27942],[-93.033,43.27525],[-93.02467,43.27525],[-93.02467,43.27108],[-93.01634,43.27108],[-93.01634,43.26691],[-93.01217,43.26691],[-93.01217,43.26275],[-93.008,43.26275],[-93.008,43.25858],[-92.99967,43.25858],[-92.99967,43.25441],[-92.9955,43.25441],[-92.9955,43.25025],[-92.98717,43.25025],[-92.98717,43.24191],[-92.97467,43.24191],[-92.97467,43.23775],[-92.97883,43.23775],[-92.97883,43.22941],[-92.9705,43.22941],[-92.9705,43.22108],[-92.958,43.22108],[-92.958,43.21691],[-92.9455,43.21691],[-92.9455,43.21274],[-92.93716,43.21274],[-92.93716,43.20858],[-92.92883,43.20858],[-92.92883,43.20441],[-92.9205,43.20441],[-92.9205,43.20024],[-92.91633,43.20024],[-92.91633,43.19608],[-92.90799,43.19608],[-92.90799,43.19191],[-92.89966,43.19191],[-92.89966,43.17941],[-92.89133,43.17941],[-92.89133,43.17524],[-92.88299,43.17524],[-92.88299,43.15857],[-92.87882,43.15857],[-92.87882,43.15441],[-92.87466,43.15441],[-92.87466,43.14607],[-92.87882,43.14607],[-92.87882,43.1419],[-92.87466,43.1419],[-92.87466,43.13774],[-92.87049,43.13774],[-92.87049,43.12524],[-92.86216,43.12524],[-92.86216,43.12107],[-92.85799,43.12107],[-92.85799,43.1169],[-92.85382,43.1169],[-92.85382,43.10857],[-92.84966,43.10857],[-92.84966,43.1044],[-92.84132,43.1044],[-92.84132,43.10023],[-92.83715,43.10023],[-92.83715,43.09607],[-92.82882,43.09607],[-92.82882,43.0919],[-92.82049,43.0919],[-92.82049,43.09607],[-92.81215,43.09607],[-92.81215,43.0919],[-92.80799,43.0919],[-92.80799,43.08773],[-92.80382,43.08773],[-92.80382,43.08357],[-92.79965,43.08357],[-92.79965,43.0794],[-92.79132,43.0794],[-92.79132,43.07523],[-92.77882,43.07523],[-92.77882,43.07107],[-92.77465,43.07107],[-92.77465,43.0669],[-92.77048,43.0669],[-92.77048,43.06273],[-92.76215,43.06273],[-92.76215,43.0669],[-92.75382,43.0669],[-92.75382,43.06273],[-92.74548,43.06273],[-92.74548,43.0544],[-92.73715,43.0544],[-92.73715,43.05023],[-92.73298,43.05023],[-92.73298,43.04606],[-92.72465,43.04606],[-92.72465,43.0419],[-92.72048,43.0419],[-92.72048,43.03773],[-92.71631,43.03773],[-92.71631,43.02523],[-92.70798,43.02523],[-92.70798,43.02106],[-92.70381,43.02106],[-92.70381,43.01689],[-92.69964,43.01689],[-92.69964,43.01273],[-92.69131,43.01273],[-92.69131,43.00856],[-92.68298,43.00856],[-92.68298,43.00439],[-92.67881,43.00439],[-92.67881,42.99606],[-92.67047,42.99606],[-92.67047,42.98773],[-92.64547,42.98773],[-92.64547,42.99189],[-92.6288,42.99189],[-92.6288,42.99606],[-92.6163,42.99606],[-92.6163,42.99189],[-92.61214,42.99189],[-92.61214,42.98356],[-92.60797,42.98356],[-92.60797,42.97939],[-92.6038,42.97939],[-92.6038,42.95439],[-92.59964,42.95439],[-92.59964,42.93355],[-92.6038,42.93355],[-92.6038,42.92105],[-92.59547,42.92105],[-92.59547,42.91272],[-92.5913,42.91272],[-92.5913,42.90022],[-92.58297,42.90022],[-92.58297,42.89188],[-92.58714,42.89188],[-92.58714,42.88355],[-92.58297,42.88355],[-92.58297,42.87105],[-92.5788,42.87105],[-92.5788,42.86688],[-92.57463,42.86688],[-92.57463,42.85021],[-92.57047,42.85021],[-92.57047,42.84188],[-92.5663,42.84188],[-92.5663,42.83771],[-92.55797,42.83771],[-92.55797,42.83355],[-92.5538,42.83355],[-92.5538,42.82521],[-92.54963,42.82521],[-92.54963,42.82105],[-92.54546,42.82105],[-92.54546,42.81688],[-92.54963,42.81688],[-92.54963,42.80854],[-92.5538,42.80854],[-92.5538,42.77938],[-92.55797,42.77938],[-92.55797,42.76687],[-92.5538,42.76687],[-92.5538,42.74604],[-92.56213,42.74604],[-92.56213,42.73354],[-92.5663,42.73354],[-92.5663,42.72937],[-92.57047,42.72937],[-92.57047,42.7252],[-92.57463,42.7252],[-92.57463,42.72104],[-92.5788,42.72104],[-92.5788,42.71687],[-92.58297,42.71687],[-92.58297,42.7127],[-92.58714,42.7127],[-92.58714,42.70854],[-92.59964,42.70854],[-92.59964,42.70437],[-92.6038,42.70437],[-92.6038,42.7002],[-92.61214,42.7002],[-92.61214,42.70437],[-92.6163,42.70437],[-92.6163,42.70854],[-92.63714,42.70854],[-92.63714,42.71687],[-92.64131,42.71687],[-92.64131,42.72104],[-92.64547,42.72104],[-92.64547,42.7252],[-92.65381,42.7252],[-92.65381,42.72937],[-92.65797,42.72937],[-92.65797,42.73354],[-92.66214,42.73354],[-92.66214,42.73771],[-92.66631,42.73771],[-92.66631,42.74187],[-92.67047,42.74187],[-92.67047,42.74604],[-92.67464,42.74604],[-92.67464,42.75021],[-92.67881,42.75021],[-92.67881,42.75437],[-92.68298,42.75437],[-92.68298,42.75854],[-92.69548,42.75854],[-92.69548,42.76271],[-92.70381,42.76271],[-92.70381,42.76687],[-92.71214,42.76687],[-92.71214,42.77104],[-92.72465,42.77104],[-92.72465,42.76687],[-92.74548,42.76687],[-92.74548,42.76271],[-92.80799,42.76271],[-92.80799,42.77104],[-92.82049,42.77104],[-92.82049,42.77521],[-92.82465,42.77521],[-92.82465,42.77938],[-92.82882,42.77938],[-92.82882,42.78354],[-92.83299,42.78354],[-92.83299,42.79188],[-92.83715,42.79188],[-92.83715,42.79604],[-92.84549,42.79604],[-92.84549,42.80021],[-92.84966,42.80021],[-92.84966,42.80438],[-92.85382,42.80438],[-92.85382,42.80854],[-92.85799,42.80854],[-92.85799,42.81271],[-92.86216,42.81271],[-92.86216,42.81688],[-92.87466,42.81688],[-92.87466,42.82105],[-92.88716,42.82105],[-92.88716,42.84188],[-92.89133,42.84188],[-92.89133,42.85021],[-92.88716,42.85021],[-92.88716,42.85855],[-92.89133,42.85855],[-92.89133,42.86272],[-92.89549,42.86272],[-92.89549,42.86688],[-92.89966,42.86688],[-92.89966,42.86272],[-92.91216,42.86272],[-92.91216,42.86688],[-92.91633,42.86688],[-92.91633,42.87105],[-92.92883,42.87105],[-92.92883,42.87522],[-92.933,42.87522],[-92.933,42.87938],[-92.9455,42.87938],[-92.9455,42.88355],[-92.95383,42.88355],[-92.95383,42.87938],[-92.9955,42.87938],[-92.9955,42.88355],[-92.99967,42.88355],[-92.99967,42.88772],[-93.01217,42.88772],[-93.01217,42.89605],[-93.0205,42.89605],[-93.0205,42.90022],[-93.02467,42.90022],[-93.02467,42.90439],[-93.0455,42.90439],[-93.0455,42.90855],[-93.05384,42.90855],[-93.05384,42.91272],[-93.05801,42.91272],[-93.05801,42.91689],[-93.06217,42.91689],[-93.06217,42.91272],[-93.06634,42.91272],[-93.06634,42.91689],[-93.07051,42.91689],[-93.07051,42.92105],[-93.08718,42.92105],[-93.08718,42.92522],[-93.09551,42.92522],[-93.09551,42.92939],[-93.09968,42.92939],[-93.09968,42.93355],[-93.10384,42.93355],[-93.10384,42.93772],[-93.11218,42.93772],[-93.11218,42.94189],[-93.12051,42.94189],[-93.12051,42.94606],[-93.12884,42.94606],[-93.12884,42.95022],[-93.13301,42.95022],[-93.13301,42.95439],[-93.14135,42.95439],[-93.14135,42.96272],[-93.14551,42.96272],[-93.14551,42.96689],[-93.14968,42.96689],[-93.14968,42.97106],[-93.15801,42.97106],[-93.15801,42.97522],[-93.16218,42.97522],[-93.16218,42.97939],[-93.17051,42.97939],[-93.17051,42.99606],[-93.17468,42.99606],[-93.17468,43.00439],[-93.17051,43.00439],[-93.17051,43.00856],[-93.16218,43.00856],[-93.16218,43.01689],[-93.15801,43.01689],[-93.15801,43.02106],[-93.15385,43.02106],[-93.15385,43.02523],[-93.14968,43.02523],[-93.14968,43.03773],[-93.15385,43.03773],[-93.15385,43.04606],[-93.15801,43.04606],[-93.15801,43.05023],[-93.16218,43.05023],[-93.16218,43.0544],[-93.16635,43.0544],[-93.16635,43.05856],[-93.17051,43.05856],[-93.17051,43.06273],[-93.17468,43.06273],[-93.17468,43.0669],[-93.18302,43.0669],[-93.18302,43.07107],[-93.19135,43.07107],[-93.19135,43.07523],[-93.19552,43.07523],[-93.19552,43.08357],[-93.19968,43.08357],[-93.19968,43.09607],[-93.20802,43.09607],[-93.20802,43.0919],[-93.21635,43.0919],[-93.21635,43.08773],[-93.22052,43.08773],[-93.22052,43.08357],[-93.23719,43.08357],[-93.23719,43.08773],[-93.24969,43.08773],[-93.24969,43.0919],[-93.25386,43.0919],[-93.25386,43.09607],[-93.25802,43.09607],[-93.25802,43.0919],[-93.26219,43.0919],[-93.26219,43.08357],[-93.27052,43.08357],[-93.27052,43.0794],[-93.27886,43.0794],[-93.27886,43.07107],[-93.28302,43.07107],[-93.28302,43.0669],[-93.29552,43.0669],[-93.29552,43.07107],[-93.31219,43.07107],[-93.31219,43.0669],[-93.31636,43.0669],[-93.31636,43.07523],[-93.32886,43.07523],[-93.32886,43.0794],[-93.33303,43.0794],[-93.33303,43.08357],[-93.33719,43.08357],[-93.33719,43.0794],[-93.34136,43.0794],[-93.34136,43.0919],[-93.34553,43.0919],[-93.34553,43.10023],[-93.35803,43.10023],[-93.35803,43.09607],[-93.36636,43.09607],[-93.36636,43.0919],[-93.37886,43.0919],[-93.37886,43.10023],[-93.39137,43.10023],[-93.39137,43.09607],[-93.39553,43.09607],[-93.39553,43.0919],[-93.3997,43.0919],[-93.3997,43.09607],[-93.40387,43.09607],[-93.40387,43.10023],[-93.40803,43.10023],[-93.40803,43.1044],[-93.4122,43.1044],[-93.4122,43.11274],[-93.42054,43.11274],[-93.42054,43.1169],[-93.42887,43.1169],[-93.42887,43.10857],[-93.43304,43.10857],[-93.43304,43.1044],[-93.44137,43.1044],[-93.44137,43.10023],[-93.44554,43.10023],[-93.44554,43.08773],[-93.44137,43.08773],[-93.44137,43.08357],[-93.44554,43.08357],[-93.44554,43.0794],[-93.4622,43.0794],[-93.4622,43.08357],[-93.47054,43.08357],[-93.47054,43.08773],[-93.48304,43.08773],[-93.48304,43.0919],[-93.48721,43.0919],[-93.48721,43.10023],[-93.50387,43.10023],[-93.50387,43.1044],[-93.50804,43.1044],[-93.50804,43.10857],[-93.51221,43.10857],[-93.51221,43.11274],[-93.51638,43.11274],[-93.51638,43.1169],[-93.53304,43.1169],[-93.53304,43.12524],[-93.52054,43.12524],[-93.52054,43.1294],[-93.51638,43.1294],[-93.51638,43.13357],[-93.51221,43.13357],[-93.51221,43.13774],[-93.50804,43.13774],[-93.50804,43.1419],[-93.49554,43.1419],[-93.49554,43.14607],[-93.48721,43.14607],[-93.48721,43.15024],[-93.47471,43.15024],[-93.47471,43.15441],[-93.47054,43.15441],[-93.47054,43.15857],[-93.48721,43.15857],[-93.48721,43.17107],[-93.49137,43.17107],[-93.49137,43.17524],[-93.49554,43.17524],[-93.49554,43.17941],[-93.50804,43.17941],[-93.50804,43.18357],[-93.51638,43.18357],[-93.51638,43.18774],[-93.52471,43.18774],[-93.52471,43.18357],[-93.52888,43.18357],[-93.52888,43.18774],[-93.53304,43.18774],[-93.53304,43.19608],[-93.54971,43.19608],[-93.54971,43.20024],[-93.55805,43.20024],[-93.55805,43.20441],[-93.56638,43.20441],[-93.56638,43.20024],[-93.57471,43.20024],[-93.57471,43.19608],[-93.57888,43.19608],[-93.57888,43.19191],[-93.58305,43.19191],[-93.58305,43.18774],[-93.59972,43.18774],[-93.59972,43.19191],[-93.60388,43.19191],[-93.60388,43.18774],[-93.60805,43.18774],[-93.60805,43.18357],[-93.61222,43.18357],[-93.61222,43.18774],[-93.62888,43.18774],[-93.62888,43.19608],[-93.64139,43.19608],[-93.64139,43.20441],[-93.64555,43.20441],[-93.64555,43.20858],[-93.65805,43.20858],[-93.65805,43.20441],[-93.66639,43.20441],[-93.66639,43.20024],[-93.67055,43.20024],[-93.67055,43.20858],[-93.66639,43.20858],[-93.66639,43.22108],[-93.67472,43.22108],[-93.67472,43.22524],[-93.68306,43.22524],[-93.68306,43.22941],[-93.69139,43.22941],[-93.69139,43.24191],[-93.69556,43.24191],[-93.69556,43.24608],[-93.69139,43.24608],[-93.69139,43.25441],[-93.71639,43.25441],[-93.71639,43.25025],[-93.72056,43.25025],[-93.72056,43.25441],[-93.72889,43.25441],[-93.72889,43.25858],[-93.74139,43.25858],[-93.74139,43.26275],[-93.74973,43.26275],[-93.74973,43.26691],[-93.75806,43.26691],[-93.75806,43.27108],[-93.77473,43.27108],[-93.77473,43.27525],[-93.77056,43.27525],[-93.77056,43.28358],[-93.7664,43.28358],[-93.7664,43.31275],[-93.76223,43.31275],[-93.76223,43.31692],[-93.77056,43.31692],[-93.77056,43.32109],[-93.74139,43.32109],[-93.74139,43.33359],[-93.73723,43.33359],[-93.73723,43.34192],[-93.72473,43.34192],[-93.72473,43.35025],[-93.72056,43.35025],[-93.72056,43.36276],[-93.71639,43.36276],[-93.71639,43.37526],[-93.71223,43.37526],[-93.71223,43.37942],[-93.70806,43.37942],[-93.70806,43.39192],[-93.70389,43.39192],[-93.70389,43.39609],[-93.69972,43.39609],[-93.69972,43.40443],[-93.69556,43.40443],[-93.69556,43.41693],[-93.69139,43.41693],[-93.69139,43.42943],[-93.68722,43.42943],[-93.68722,43.43359],[-93.68306,43.43359],[-93.68306,43.43776],[-93.68722,43.43776],[-93.68722,43.45443],[-93.69139,43.45443],[-93.69139,43.46693],[-93.70389,43.46693],[-93.70389,43.47526],[-93.69972,43.47526],[-93.69972,43.47943],[-93.69556,43.47943],[-93.69556,43.4836],[-93.66222,43.4836],[-93.66222,43.48777],[-93.65389,43.48777],[-93.65389,43.49193],[-93.62472,43.49193],[-93.62472,43.4961],[-93.62055,43.4961],[-93.62055,43.50443],[-93.62472,43.50443],[-93.62472,43.51277],[-93.62055,43.51277],[-93.62055,43.52944],[-93.63305,43.52944],[-93.63305,43.5336],[-93.63722,43.5336],[-93.63722,43.53777],[-93.64555,43.53777],[-93.64555,43.54194],[-93.64972,43.54194],[-93.64972,43.5461],[-93.65389,43.5461],[-93.65389,43.55027],[-93.65805,43.55027],[-93.65805,43.55444],[-93.66222,43.55444],[-93.66222,43.5586],[-93.64555,43.5586]]],[[[-93.66639,43.5586],[-93.66639,43.56277],[-93.66222,43.56277],[-93.66222,43.5586],[-93.66639,43.5586]]]]}}]}