{"type":"FeatureCollection","features":[{"type":"Feature","properties":{},"geometry":{"type":"Polygon","coordinates":[[[-96.99999,44.53368],[-96.99999,44.51701],[-96.99582,44.51701],[-96.99582,44.51285],[-97.00832,44.51285],[-97.00832,44.51701],[-97.03749,44.51701],[-97.03749,44.51285],[-97.04582,44.51285],[-97.04582,44.51701],[-97.05833,44.51701],[-97.05833,44.52118],[-97.06249,44.52118],[-97.06249,44.51701],[-97.07916,44.51701],[-97.07916,44.50035],[-97.08333,44.50035],[-97.08333,44.49618],[-97.08749,44.49618],[-97.08749,44.49201],[-97.1,44.49201],[-97.1,44.49618],[-97.10416,44.49618],[-97.10416,44.50451],[-97.1125,44.50451],[-97.1125,44.50035],[-97.11666,44.50035],[-97.11666,44.49201],[-97.12083,44.49201],[-97.12083,44.48785],[-97.11666,44.48785],[-97.11666,44.46701],[-97.1125,44.46701],[-97.1125,44.46284],[-97.10833,44.46284],[-97.10833,44.45868],[-97.10416,44.45868],[-97.10416,44.45451],[-97.1125,44.45451],[-97.1125,44.45034],[-97.11666,44.45034],[-97.11666,44.44618],[-97.125,44.44618],[-97.125,44.43784],[-97.12917,44.43784],[-97.12917,44.43367],[-97.125,44.43367],[-97.125,44.42951],[-97.12083,44.42951],[-97.12083,44.41701],[-97.125,44.41701],[-97.125,44.41284],[-97.12083,44.41284],[-97.12083,44.40034],[-97.11666,44.40034],[-97.11666,44.39617],[-97.1125,44.39617],[-97.1125,44.392],[-97.10416,44.392],[-97.10416,44.38784],[-97.12917,44.38784],[-97.12917,44.38367],[-97.1375,44.38367],[-97.1375,44.3795],[-97.14167,44.3795],[-97.14167,44.37117],[-97.14583,44.37117],[-97.14583,44.36284],[-97.15,44.36284],[-97.15,44.35867],[-97.14583,44.35867],[-97.14583,44.35033],[-97.15,44.35033],[-97.15,44.33783],[-97.13333,44.33783],[-97.13333,44.33367],[-97.12917,44.33367],[-97.12917,44.3295],[-97.125,44.3295],[-97.125,44.317],[-97.12917,44.317],[-97.12917,44.30866],[-97.13333,44.30866],[-97.13333,44.3045],[-97.1375,44.3045],[-97.1375,44.30033],[-97.14167,44.30033],[-97.14167,44.28783],[-97.14583,44.28783],[-97.14583,44.2795],[-97.15,44.2795],[-97.15,44.26283],[-97.14583,44.26283],[-97.14583,44.25866],[-97.14167,44.25866],[-97.14167,44.25449],[-97.1375,44.25449],[-97.1375,44.25033],[-97.14167,44.25033],[-97.14167,44.24616],[-97.12917,44.24616],[-97.12917,44.24199],[-97.125,44.24199],[-97.125,44.23783],[-97.12083,44.23783],[-97.12083,44.22116],[-97.125,44.22116],[-97.125,44.21282],[-97.12917,44.21282],[-97.12917,44.20866],[-97.1375,44.20866],[-97.1375,44.20449],[-97.15,44.20449],[-97.15,44.19199],[-97.1375,44.19199],[-97.1375,44.18365],[-97.13333,44.18365],[-97.13333,44.17949],[-97.125,44.17949],[-97.125,44.16699],[-97.13333,44.16699],[-97.13333,44.16282],[-97.1375,44.16282],[-97.1375,44.15865],[-97.14167,44.15865],[-97.14167,44.13365],[-97.14583,44.13365],[-97.14583,44.12948],[-97.15,44.12948],[-97.15,44.11282],[-97.14583,44.11282],[-97.14583,44.10865],[-97.1375,44.10865],[-97.1375,44.10031],[-97.14167,44.10031],[-97.14167,44.10448],[-97.14583,44.10448],[-97.14583,44.10031],[-97.15,44.10031],[-97.15,44.05448],[-97.14583,44.05448],[-97.14583,44.04198],[-97.15,44.04198],[-97.15,44.01281],[-97.14167,44.01281],[-97.14167,43.99614],[-97.1375,43.99614],[-97.1375,43.98781],[-97.14167,43.98781],[-97.14167,43.98364],[-97.14583,43.98364],[-97.14583,43.97947],[-97.14167,43.97947],[-97.14167,43.97114],[-97.14583,43.97114],[-97.14583,43.96697],[-97.1375,43.96697],[-97.1375,43.9628],[-97.13333,43.9628],[-97.13333,43.95864],[-97.125,43.95864],[-97.125,43.95447],[-97.12083,43.95447],[-97.12083,43.9503],[-97.11666,43.9503],[-97.11666,43.94197],[-97.1375,43.94197],[-97.1375,43.92947],[-97.14167,43.92947],[-97.14167,43.9253],[-97.15,43.9253],[-97.15,43.9128],[-97.14583,43.9128],[-97.14583,43.90863],[-97.14167,43.90863],[-97.14167,43.90447],[-97.14583,43.90447],[-97.14583,43.9003],[-97.15,43.9003],[-97.15,43.77529],[-97.14583,43.77529],[-97.14583,43.76695],[-97.14167,43.76695],[-97.14167,43.75445],[-97.1375,43.75445],[-97.1375,43.75862],[-97.12917,43.75862],[-97.12917,43.75445],[-97.125,43.75445],[-97.125,43.74195],[-97.12083,43.74195],[-97.12083,43.73779],[-97.125,43.73779],[-97.125,43.72528],[-97.11666,43.72528],[-97.11666,43.71695],[-97.10416,43.71695],[-97.10416,43.71278],[-97.1,43.71278],[-97.1,43.70862],[-97.09583,43.70862],[-97.09583,43.70445],[-97.09166,43.70445],[-97.09166,43.69195],[-97.07916,43.69195],[-97.07916,43.68778],[-97.08333,43.68778],[-97.08333,43.67111],[-97.07916,43.67111],[-97.07916,43.64611],[-97.09166,43.64611],[-97.09166,43.65028],[-97.1,43.65028],[-97.1,43.64611],[-97.10416,43.64611],[-97.10416,43.63361],[-97.10833,43.63361],[-97.10833,43.62944],[-97.1125,43.62944],[-97.1125,43.63361],[-97.11666,43.63361],[-97.11666,43.63778],[-97.12917,43.63778],[-97.12917,43.63361],[-97.13333,43.63361],[-97.13333,43.60861],[-97.1375,43.60861],[-97.1375,43.60444],[-97.14167,43.60444],[-97.14167,43.58361],[-97.14583,43.58361],[-97.14583,43.5461],[-97.14167,43.5461],[-97.14167,43.54194],[-97.1375,43.54194],[-97.1375,43.5336],[-97.13333,43.5336],[-97.13333,43.52944],[-97.12917,43.52944],[-97.12917,43.5211],[-97.125,43.5211],[-97.125,43.51693],[-97.12083,43.51693],[-97.12083,43.5086],[-97.11666,43.5086],[-97.11666,43.50443],[-97.12083,43.50443],[-97.12083,43.50027],[-97.11666,43.50027],[-97.11666,43.49193],[-97.12083,43.49193],[-97.12083,43.48777],[-97.12917,43.48777],[-97.12917,43.4836],[-97.1375,43.4836],[-97.1375,43.47943],[-97.14167,43.47943],[-97.14167,43.4836],[-97.15,43.4836],[-97.15,43.41276],[-97.14583,43.41276],[-97.14583,43.40859],[-97.14167,43.40859],[-97.14167,43.40443],[-97.1375,43.40443],[-97.1375,43.40026],[-97.12917,43.40026],[-97.12917,43.39192],[-97.14167,43.39192],[-97.14167,43.38776],[-97.15,43.38776],[-97.15,43.27942],[-97.14167,43.27942],[-97.14167,43.26691],[-97.1375,43.26691],[-97.1375,43.26275],[-97.14167,43.26275],[-97.14167,43.25858],[-97.14583,43.25858],[-97.14583,43.25025],[-97.15,43.25025],[-97.15,43.22524],[-97.14583,43.22524],[-97.14583,43.22108],[-97.15,43.22108],[-97.15,43.15857],[-97.14583,43.15857],[-97.14583,43.15441],[-97.15,43.15441],[-97.15,43.15024],[-97.14583,43.15024],[-97.14583,43.14607],[-97.15,43.14607],[-97.15,43.13357],[-97.14583,43.13357],[-97.14583,43.1294],[-97.15,43.1294],[-97.15,43.1169],[-97.14583,43.1169],[-97.14583,43.1044],[-97.14167,43.1044],[-97.14167,43.09607],[-97.14583,43.09607],[-97.14583,43.0919],[-97.1375,43.0919],[-97.1375,43.07523],[-97.14167,43.07523],[-97.14167,43.0669],[-97.1375,43.0669],[-97.1375,43.05856],[-97.13333,43.05856],[-97.13333,43.0544],[-97.12917,43.0544],[-97.12917,43.0419],[-97.13333,43.0419],[-97.13333,43.03773],[-97.12917,43.03773],[-97.12917,43.03356],[-97.125,43.03356],[-97.125,43.02523],[-97.12083,43.02523],[-97.12083,43.02106],[-97.11666,43.02106],[-97.11666,43.01689],[-97.1125,43.01689],[-97.1125,42.99189],[-97.11666,42.99189],[-97.11666,42.98773],[-97.12917,42.98773],[-97.12917,42.98356],[-97.1375,42.98356],[-97.1375,42.96689],[-97.14167,42.96689],[-97.14167,42.95022],[-97.1375,42.95022],[-97.1375,42.94606],[-97.14167,42.94606],[-97.14167,42.94189],[-97.14583,42.94189],[-97.14583,42.90855],[-97.15,42.90855],[-97.15,42.90439],[-97.14583,42.90439],[-97.14583,42.89605],[-97.14167,42.89605],[-97.14167,42.88772],[-97.14583,42.88772],[-97.14583,42.87105],[-97.15,42.87105],[-97.15,42.85855],[-97.14583,42.85855],[-97.14583,42.86272],[-97.1375,42.86272],[-97.1375,42.85855],[-97.13333,42.85855],[-97.13333,42.85438],[-97.12917,42.85438],[-97.12917,42.83771],[-97.13333,42.83771],[-97.13333,42.83355],[-97.15,42.83355],[-97.15,42.82105],[-97.14583,42.82105],[-97.14583,42.81271],[-97.1375,42.81271],[-97.1375,42.81688],[-97.125,42.81688],[-97.125,42.80854],[-97.12083,42.80854],[-97.12083,42.79188],[-97.125,42.79188],[-97.125,42.77104],[-97.12917,42.77104],[-97.12917,42.75021],[-97.125,42.75021],[-97.125,42.74604],[-97.11666,42.74604],[-97.11666,42.74187],[-97.10833,42.74187],[-97.10833,42.7252],[-97.10416,42.7252],[-97.10416,42.72104],[-97.09583,42.72104],[-97.09583,42.70437],[-97.09166,42.70437],[-97.09166,42.69604],[-97.08749,42.69604],[-97.08749,42.6877],[-97.07916,42.6877],[-97.07916,42.67937],[-97.07499,42.67937],[-97.07499,42.6627],[-97.06666,42.6627],[-97.06666,42.65437],[-97.07083,42.65437],[-97.07083,42.6502],[-97.06666,42.6502],[-97.06666,42.64603],[-97.05833,42.64603],[-97.05833,42.64186],[-97.05416,42.64186],[-97.05416,42.6377],[-97.04582,42.6377],[-97.04582,42.63353],[-97.02916,42.63353],[-97.02916,42.62936],[-97.01666,42.62936],[-97.01666,42.6252],[-97.01249,42.6252],[-97.01249,42.62103],[-97.00415,42.62103],[-97.00415,42.6127],[-97.00832,42.6127],[-97.00832,42.60853],[-97.00415,42.60853],[-97.00415,42.60436],[-96.99999,42.60436],[-96.99999,42.60019],[-96.99582,42.60019],[-96.99582,42.59603],[-96.99165,42.59603],[-96.99165,42.58769],[-96.99999,42.58769],[-96.99999,42.58353],[-97.00415,42.58353],[-97.00415,42.57519],[-96.99999,42.57519],[-96.99999,42.57103],[-97.00415,42.57103],[-97.00415,42.54602],[-96.99999,42.54602],[-96.99999,42.53352],[-96.99582,42.53352],[-96.99582,42.52936],[-96.99165,42.52936],[-96.99165,42.51269],[-96.99582,42.51269],[-96.99582,42.50852],[-96.99165,42.50852],[-96.99165,42.50435],[-96.97915,42.50435],[-96.97915,42.48769],[-96.97499,42.48769],[-96.97499,42.47518],[-96.97915,42.47518],[-96.97915,42.47102],[-96.97499,42.47102],[-96.97499,42.46685],[-96.97082,42.46685],[-96.97082,42.46268],[-96.96665,42.46268],[-96.96665,42.45435],[-96.96249,42.45435],[-96.96249,42.44602],[-96.95832,42.44602],[-96.95832,42.44185],[-96.94998,42.44185],[-96.94998,42.43768],[-96.94582,42.43768],[-96.94582,42.42935],[-96.94165,42.42935],[-96.94165,42.42101],[-96.93332,42.42101],[-96.93332,42.41685],[-96.92915,42.41685],[-96.92915,42.41268],[-96.92081,42.41268],[-96.92081,42.40851],[-96.91665,42.40851],[-96.91665,42.40435],[-96.91248,42.40435],[-96.91248,42.39601],[-96.89165,42.39601],[-96.89165,42.38768],[-96.87914,42.38768],[-96.87914,42.38351],[-96.86664,42.38351],[-96.86664,42.37518],[-96.85831,42.37518],[-96.85831,42.37101],[-96.84998,42.37101],[-96.84998,42.36684],[-96.84581,42.36684],[-96.84581,42.37101],[-96.84164,42.37101],[-96.84164,42.37934],[-96.83331,42.37934],[-96.83331,42.38351],[-96.82914,42.38351],[-96.82914,42.37934],[-96.82497,42.37934],[-96.82497,42.37518],[-96.82081,42.37518],[-96.82081,42.37101],[-96.81664,42.37101],[-96.81664,42.36684],[-96.80831,42.36684],[-96.80831,42.35851],[-96.81247,42.35851],[-96.81247,42.35434],[-96.80831,42.35434],[-96.80831,42.35017],[-96.79164,42.35017],[-96.79164,42.34601],[-96.78747,42.34601],[-96.78747,42.34184],[-96.77497,42.34184],[-96.77497,42.33767],[-96.76664,42.33767],[-96.76664,42.33351],[-96.76247,42.33351],[-96.76247,42.32934],[-96.75413,42.32934],[-96.75413,42.32517],[-96.74997,42.32517],[-96.74997,42.31684],[-96.7333,42.31684],[-96.7333,42.3085],[-96.72913,42.3085],[-96.72913,42.30017],[-96.72497,42.30017],[-96.72497,42.296],[-96.71663,42.296],[-96.71663,42.29184],[-96.71246,42.29184],[-96.71246,42.27517],[-96.7083,42.27517],[-96.7083,42.271],[-96.70413,42.271],[-96.70413,42.26267],[-96.69996,42.26267],[-96.69996,42.2585],[-96.69163,42.2585],[-96.69163,42.25433],[-96.6833,42.25433],[-96.6833,42.24183],[-96.67913,42.24183],[-96.67913,42.22933],[-96.67079,42.22933],[-96.67079,42.221],[-96.66246,42.221],[-96.66246,42.20433],[-96.66663,42.20433],[-96.66663,42.20016],[-96.66246,42.20016],[-96.66246,42.18349],[-96.65829,42.18349],[-96.65829,42.17933],[-96.65413,42.17933],[-96.65413,42.16266],[-96.64163,42.16266],[-96.64163,42.16683],[-96.63746,42.16683],[-96.63746,42.16266],[-96.62079,42.16266],[-96.62079,42.16683],[-96.61662,42.16683],[-96.61662,42.15016],[-96.60829,42.15016],[-96.60829,42.14182],[-96.60412,42.14182],[-96.60412,42.14599],[-96.59579,42.14599],[-96.59579,42.13766],[-96.57912,42.13766],[-96.57912,42.14182],[-96.57495,42.14182],[-96.57495,42.13766],[-96.57079,42.13766],[-96.57079,42.13349],[-96.56662,42.13349],[-96.56662,42.12932],[-96.56245,42.12932],[-96.56245,42.12099],[-96.55412,42.12099],[-96.55412,42.10015],[-96.54578,42.10015],[-96.54578,42.09599],[-96.54162,42.09599],[-96.54162,42.09182],[-96.53328,42.09182],[-96.53328,42.07932],[-96.52912,42.07932],[-96.52912,42.07099],[-96.50411,42.07099],[-96.50411,42.06682],[-96.49995,42.06682],[-96.49995,42.06265],[-96.49578,42.06265],[-96.49578,42.05848],[-96.49161,42.05848],[-96.49161,42.06265],[-96.47911,42.06265],[-96.47911,42.05848],[-96.46661,42.05848],[-96.46661,42.05015],[-96.47078,42.05015],[-96.47078,42.04182],[-96.46245,42.04182],[-96.46245,42.03348],[-96.47078,42.03348],[-96.47078,42.01265],[-96.46661,42.01265],[-96.46661,42.00848],[-96.46245,42.00848],[-96.46245,41.99181],[-96.45828,41.99181],[-96.45828,41.97931],[-96.46245,41.97931],[-96.46245,41.97514],[-96.44994,41.97514],[-96.44994,41.97098],[-96.44161,41.97098],[-96.44161,41.96681],[-96.43744,41.96681],[-96.43744,41.96264],[-96.43328,41.96264],[-96.43328,41.94181],[-96.42911,41.94181],[-96.42911,41.93764],[-96.42494,41.93764],[-96.42494,41.94181],[-96.41661,41.94181],[-96.41661,41.94598],[-96.41244,41.94598],[-96.41244,41.94181],[-96.40827,41.94181],[-96.40827,41.93764],[-96.40411,41.93764],[-96.40411,41.93347],[-96.39577,41.93347],[-96.39577,41.92514],[-96.38744,41.92514],[-96.38744,41.92931],[-96.38327,41.92931],[-96.38327,41.93764],[-96.3541,41.93764],[-96.3541,41.93347],[-96.3416,41.93347],[-96.3416,41.91264],[-96.33743,41.91264],[-96.33743,41.90431],[-96.33327,41.90431],[-96.33327,41.90014],[-96.32493,41.90014],[-96.32493,41.89597],[-96.32077,41.89597],[-96.32077,41.8918],[-96.3166,41.8918],[-96.3166,41.89597],[-96.3041,41.89597],[-96.3041,41.90431],[-96.29993,41.90431],[-96.29993,41.90847],[-96.29577,41.90847],[-96.29577,41.91681],[-96.2916,41.91681],[-96.2916,41.92097],[-96.28743,41.92097],[-96.28743,41.92514],[-96.27076,41.92514],[-96.27076,41.93764],[-96.2666,41.93764],[-96.2666,41.94181],[-96.27076,41.94181],[-96.27076,41.94598],[-96.27493,41.94598],[-96.27493,41.95431],[-96.27076,41.95431],[-96.27076,41.97931],[-96.2666,41.97931],[-96.2666,41.98348],[-96.26243,41.98348],[-96.26243,41.98765],[-96.25826,41.98765],[-96.25826,41.99181],[-96.25409,41.99181],[-96.25409,41.99598],[-96.24576,41.99598],[-96.24576,41.99181],[-96.22076,41.99181],[-96.22076,41.98348],[-96.21659,41.98348],[-96.21659,41.97931],[-96.21242,41.97931],[-96.21242,41.97514],[-96.20826,41.97514],[-96.20826,41.95014],[-96.20409,41.95014],[-96.20409,41.94598],[-96.19992,41.94598],[-96.19992,41.94181],[-96.18742,41.94181],[-96.18742,41.93764],[-96.19159,41.93764],[-96.19159,41.92931],[-96.18742,41.92931],[-96.18742,41.92097],[-96.18326,41.92097],[-96.18326,41.91681],[-96.17909,41.91681],[-96.17909,41.91264],[-96.17492,41.91264],[-96.17492,41.90431],[-96.17075,41.90431],[-96.17075,41.88347],[-96.16659,41.88347],[-96.16659,41.87514],[-96.17075,41.87514],[-96.17075,41.87097],[-96.17492,41.87097],[-96.17492,41.85847],[-96.17075,41.85847],[-96.17075,41.85013],[-96.16659,41.85013],[-96.16659,41.83347],[-96.16242,41.83347],[-96.16242,41.8293],[-96.15825,41.8293],[-96.15825,41.82097],[-96.15409,41.82097],[-96.15409,41.81263],[-96.14992,41.81263],[-96.14992,41.80846],[-96.13325,41.80846],[-96.13325,41.8043],[-96.12909,41.8043],[-96.12909,41.80846],[-96.11242,41.80846],[-96.11242,41.8043],[-96.10825,41.8043],[-96.10825,41.7918],[-96.10408,41.7918],[-96.10408,41.78763],[-96.09992,41.78763],[-96.09992,41.7793],[-96.10408,41.7793],[-96.10408,41.77513],[-96.10825,41.77513],[-96.10825,41.76679],[-96.11242,41.76679],[-96.11242,41.76263],[-96.10825,41.76263],[-96.10825,41.75013],[-96.09992,41.75013],[-96.09992,41.74596],[-96.08741,41.74596],[-96.08741,41.74179],[-96.08325,41.74179],[-96.08325,41.74596],[-96.07908,41.74596],[-96.07908,41.75013],[-96.07491,41.75013],[-96.07491,41.75429],[-96.07908,41.75429],[-96.07908,41.75846],[-96.07491,41.75846],[-96.07491,41.76263],[-96.07075,41.76263],[-96.07075,41.76679],[-96.06241,41.76679],[-96.06241,41.7793],[-96.05825,41.7793],[-96.05825,41.78346],[-96.05408,41.78346],[-96.05408,41.7793],[-96.03741,41.7793],[-96.03741,41.78346],[-96.02908,41.78346],[-96.02908,41.78763],[-96.01658,41.78763],[-96.01658,41.7918],[-96.00824,41.7918],[-96.00824,41.80013],[-96.00408,41.80013],[-96.00408,41.8043],[-95.99991,41.8043],[-95.99991,41.80846],[-95.99574,41.80846],[-95.99574,41.81263],[-95.99991,41.81263],[-95.99991,41.82097],[-95.99157,41.82097],[-95.99157,41.83763],[-95.99574,41.83763],[-95.99574,41.8543],[-95.99157,41.8543],[-95.99157,41.86264],[-95.97074,41.86264],[-95.97074,41.8668],[-95.96657,41.8668],[-95.96657,41.87097],[-95.95407,41.87097],[-95.95407,41.89597],[-95.95824,41.89597],[-95.95824,41.90014],[-95.95407,41.90014],[-95.95407,41.90431],[-95.9499,41.90431],[-95.9499,41.91681],[-95.94574,41.91681],[-95.94574,41.92097],[-95.9374,41.92097],[-95.9374,41.91681],[-95.9249,41.91681],[-95.9249,41.92931],[-95.92073,41.92931],[-95.92073,41.94181],[-95.9124,41.94181],[-95.9124,41.95014],[-95.91657,41.95014],[-95.91657,41.96681],[-95.92073,41.96681],[-95.92073,41.97098],[-95.89573,41.97098],[-95.89573,41.97514],[-95.8874,41.97514],[-95.8874,41.97931],[-95.87073,41.97931],[-95.87073,41.99598],[-95.8624,41.99598],[-95.8624,42.00431],[-95.85823,42.00431],[-95.85823,42.00848],[-95.85406,42.00848],[-95.85406,42.02932],[-95.84573,42.02932],[-95.84573,42.04182],[-95.8374,42.04182],[-95.8374,42.06265],[-95.84156,42.06265],[-95.84156,42.06682],[-95.83323,42.06682],[-95.83323,42.07099],[-95.82906,42.07099],[-95.82906,42.07932],[-95.81656,42.07932],[-95.81656,42.08349],[-95.80823,42.08349],[-95.80823,42.08765],[-95.77489,42.08765],[-95.77489,42.09182],[-95.76656,42.09182],[-95.76656,42.10015],[-95.76239,42.10015],[-95.76239,42.11682],[-95.75822,42.11682],[-95.75822,42.12516],[-95.75405,42.12516],[-95.75405,42.12932],[-95.74989,42.12932],[-95.74989,42.13766],[-95.74572,42.13766],[-95.74572,42.14599],[-95.74155,42.14599],[-95.74155,42.15016],[-95.73739,42.15016],[-95.73739,42.15849],[-95.73322,42.15849],[-95.73322,42.17516],[-95.72905,42.17516],[-95.72905,42.17099],[-95.71655,42.17099],[-95.71655,42.17516],[-95.71238,42.17516],[-95.71238,42.17933],[-95.70822,42.17933],[-95.70822,42.18349],[-95.69988,42.18349],[-95.69988,42.196],[-95.68738,42.196],[-95.68738,42.20433],[-95.68322,42.20433],[-95.68322,42.2085],[-95.67488,42.2085],[-95.67488,42.21266],[-95.67072,42.21266],[-95.67072,42.2085],[-95.66655,42.2085],[-95.66655,42.21266],[-95.64571,42.21266],[-95.64571,42.21683],[-95.63321,42.21683],[-95.63321,42.221],[-95.62488,42.221],[-95.62488,42.2335],[-95.62071,42.2335],[-95.62071,42.246],[-95.61238,42.246],[-95.61238,42.25017],[-95.60404,42.25017],[-95.60404,42.246],[-95.59154,42.246],[-95.59154,42.25433],[-95.58737,42.25433],[-95.58737,42.2585],[-95.58321,42.2585],[-95.58321,42.26267],[-95.57071,42.26267],[-95.57071,42.26683],[-95.55821,42.26683],[-95.55821,42.28767],[-95.54987,42.28767],[-95.54987,42.2835],[-95.54154,42.2835],[-95.54154,42.28767],[-95.53737,42.28767],[-95.53737,42.296],[-95.51237,42.296],[-95.51237,42.29184],[-95.49987,42.29184],[-95.49987,42.296],[-95.4957,42.296],[-95.4957,42.29184],[-95.49153,42.29184],[-95.49153,42.28767],[-95.48737,42.28767],[-95.48737,42.29184],[-95.47903,42.29184],[-95.47903,42.28767],[-95.47487,42.28767],[-95.47487,42.2835],[-95.4582,42.2835],[-95.4582,42.29184],[-95.44153,42.29184],[-95.44153,42.296],[-95.43736,42.296],[-95.43736,42.30017],[-95.4332,42.30017],[-95.4332,42.296],[-95.40403,42.296],[-95.40403,42.27934],[-95.39986,42.27934],[-95.39986,42.27517],[-95.39153,42.27517],[-95.39153,42.27934],[-95.38319,42.27934],[-95.38319,42.2835],[-95.37486,42.2835],[-95.37486,42.28767],[-95.34986,42.28767],[-95.34986,42.2835],[-95.34152,42.2835],[-95.34152,42.27934],[-95.33319,42.27934],[-95.33319,42.27517],[-95.32902,42.27517],[-95.32902,42.271],[-95.32069,42.271],[-95.32069,42.27517],[-95.30402,42.27517],[-95.30402,42.27934],[-95.28735,42.27934],[-95.28735,42.2835],[-95.28318,42.2835],[-95.28318,42.28767],[-95.27902,42.28767],[-95.27902,42.29184],[-95.27068,42.29184],[-95.27068,42.296],[-95.26652,42.296],[-95.26652,42.29184],[-95.25401,42.29184],[-95.25401,42.30017],[-95.24985,42.30017],[-95.24985,42.30434],[-95.24568,42.30434],[-95.24568,42.3085],[-95.23735,42.3085],[-95.23735,42.31267],[-95.22901,42.31267],[-95.22901,42.32101],[-95.22485,42.32101],[-95.22485,42.32517],[-95.21651,42.32517],[-95.21651,42.33767],[-95.22068,42.33767],[-95.22068,42.35017],[-95.22485,42.35017],[-95.22485,42.35434],[-95.22901,42.35434],[-95.22901,42.36268],[-95.23318,42.36268],[-95.23318,42.36684],[-95.23735,42.36684],[-95.23735,42.37518],[-95.24151,42.37518],[-95.24151,42.37934],[-95.24568,42.37934],[-95.24568,42.40435],[-95.24985,42.40435],[-95.24985,42.41685],[-95.24151,42.41685],[-95.24151,42.44602],[-95.25401,42.44602],[-95.25401,42.45018],[-95.27068,42.45018],[-95.27068,42.47102],[-95.27485,42.47102],[-95.27485,42.47935],[-95.28318,42.47935],[-95.28318,42.48769],[-95.27902,42.48769],[-95.27902,42.49602],[-95.27485,42.49602],[-95.27485,42.50435],[-95.27068,42.50435],[-95.27068,42.51685],[-95.27485,42.51685],[-95.27485,42.52102],[-95.28318,42.52102],[-95.28318,42.52519],[-95.29152,42.52519],[-95.29152,42.52936],[-95.29568,42.52936],[-95.29568,42.53352],[-95.30402,42.53352],[-95.30402,42.54186],[-95.30819,42.54186],[-95.30819,42.54602],[-95.31235,42.54602],[-95.31235,42.57103],[-95.31652,42.57103],[-95.31652,42.57519],[-95.30819,42.57519],[-95.30819,42.58353],[-95.30402,42.58353],[-95.30402,42.59603],[-95.29985,42.59603],[-95.29985,42.60436],[-95.29568,42.60436],[-95.29568,42.6127],[-95.29152,42.6127],[-95.29152,42.62103],[-95.28735,42.62103],[-95.28735,42.62936],[-95.28318,42.62936],[-95.28318,42.63353],[-95.28735,42.63353],[-95.28735,42.6377],[-95.29152,42.6377],[-95.29152,42.64603],[-95.28735,42.64603],[-95.28735,42.65853],[-95.29985,42.65853],[-95.29985,42.66687],[-95.30402,42.66687],[-95.30402,42.67103],[-95.30819,42.67103],[-95.30819,42.67937],[-95.31652,42.67937],[-95.31652,42.68353],[-95.31235,42.68353],[-95.31235,42.69604],[-95.31652,42.69604],[-95.31652,42.70854],[-95.31235,42.70854],[-95.31235,42.7127],[-95.30819,42.7127],[-95.30819,42.72104],[-95.30402,42.72104],[-95.30402,42.7252],[-95.29152,42.7252],[-95.29152,42.71687],[-95.28735,42.71687],[-95.28735,42.7127],[-95.28318,42.7127],[-95.28318,42.70437],[-95.27902,42.70437],[-95.27902,42.69604],[-95.27068,42.69604],[-95.27068,42.69187],[-95.26652,42.69187],[-95.26652,42.6877],[-95.26235,42.6877],[-95.26235,42.68353],[-95.25818,42.68353],[-95.25818,42.67937],[-95.25401,42.67937],[-95.25401,42.6752],[-95.24985,42.6752],[-95.24985,42.67103],[-95.24568,42.67103],[-95.24568,42.66687],[-95.24151,42.66687],[-95.24151,42.6627],[-95.22068,42.6627],[-95.22068,42.66687],[-95.21651,42.66687],[-95.21651,42.67103],[-95.21234,42.67103],[-95.21234,42.67937],[-95.21651,42.67937],[-95.21651,42.68353],[-95.22068,42.68353],[-95.22068,42.69604],[-95.22485,42.69604],[-95.22485,42.70437],[-95.22901,42.70437],[-95.22901,42.70854],[-95.23735,42.70854],[-95.23735,42.7252],[-95.24568,42.7252],[-95.24568,42.73771],[-95.24985,42.73771],[-95.24985,42.74604],[-95.25401,42.74604],[-95.25401,42.75437],[-95.25818,42.75437],[-95.25818,42.75854],[-95.26235,42.75854],[-95.26235,42.76687],[-95.26652,42.76687],[-95.26652,42.77521],[-95.27068,42.77521],[-95.27068,42.80021],[-95.27485,42.80021],[-95.27485,42.80854],[-95.27902,42.80854],[-95.27902,42.81271],[-95.27485,42.81271],[-95.27485,42.82521],[-95.27902,42.82521],[-95.27902,42.84188],[-95.27068,42.84188],[-95.27068,42.85438],[-95.26235,42.85438],[-95.26235,42.85855],[-95.24985,42.85855],[-95.24985,42.86688],[-95.24568,42.86688],[-95.24568,42.87105],[-95.24151,42.87105],[-95.24151,42.87522],[-95.22485,42.87522],[-95.22485,42.88355],[-95.22068,42.88355],[-95.22068,42.87938],[-95.19568,42.87938],[-95.19568,42.87105],[-95.19151,42.87105],[-95.19151,42.86688],[-95.18734,42.86688],[-95.18734,42.86272],[-95.18318,42.86272],[-95.18318,42.85855],[-95.17068,42.85855],[-95.17068,42.87105],[-95.16651,42.87105],[-95.16651,42.87522],[-95.16234,42.87522],[-95.16234,42.87938],[-95.14567,42.87938],[-95.14567,42.88355],[-95.14151,42.88355],[-95.14151,42.87522],[-95.11234,42.87522],[-95.11234,42.87938],[-95.10817,42.87938],[-95.10817,42.88772],[-95.09984,42.88772],[-95.09984,42.89605],[-95.09567,42.89605],[-95.09567,42.90439],[-95.08733,42.90439],[-95.08733,42.90855],[-95.08317,42.90855],[-95.08317,42.91272],[-95.079,42.91272],[-95.079,42.91689],[-95.0665,42.91689],[-95.0665,42.90855],[-95.07067,42.90855],[-95.07067,42.90439],[-95.0665,42.90439],[-95.0665,42.90022],[-95.06233,42.90022],[-95.06233,42.89188],[-95.02066,42.89188],[-95.02066,42.88772],[-95.01233,42.88772],[-95.01233,42.90439],[-95.00816,42.90439],[-95.00816,42.90855],[-95.004,42.90855],[-95.004,42.91689],[-94.99983,42.91689],[-94.99983,42.92522],[-94.99566,42.92522],[-94.99566,42.93355],[-94.99983,42.93355],[-94.99983,42.94189],[-94.99566,42.94189],[-94.99566,42.94606],[-94.99149,42.94606],[-94.99149,42.95022],[-94.98733,42.95022],[-94.98733,42.95856],[-94.98316,42.95856],[-94.98316,42.96272],[-94.98733,42.96272],[-94.98733,42.96689],[-94.98316,42.96689],[-94.98316,42.97106],[-94.98733,42.97106],[-94.98733,42.97939],[-94.98316,42.97939],[-94.98316,42.99189],[-94.97899,42.99189],[-94.97899,43.02106],[-94.97483,43.02106],[-94.97483,43.03356],[-94.97899,43.03356],[-94.97899,43.03773],[-94.98316,43.03773],[-94.98316,43.0419],[-94.97899,43.0419],[-94.97899,43.05023],[-94.97483,43.05023],[-94.97483,43.06273],[-94.97066,43.06273],[-94.97066,43.0669],[-94.96232,43.0669],[-94.96232,43.07107],[-94.95399,43.07107],[-94.95399,43.07523],[-94.94566,43.07523],[-94.94566,43.0669],[-94.91649,43.0669],[-94.91649,43.07107],[-94.90815,43.07107],[-94.90815,43.0669],[-94.90399,43.0669],[-94.90399,43.07107],[-94.89982,43.07107],[-94.89982,43.08357],[-94.90399,43.08357],[-94.90399,43.09607],[-94.88732,43.09607],[-94.88732,43.10023],[-94.87899,43.10023],[-94.87899,43.11274],[-94.87065,43.11274],[-94.87065,43.1169],[-94.86648,43.1169],[-94.86648,43.12524],[-94.85815,43.12524],[-94.85815,43.13774],[-94.86232,43.13774],[-94.86232,43.15024],[-94.85398,43.15024],[-94.85398,43.15441],[-94.84565,43.15441],[-94.84565,43.15857],[-94.84982,43.15857],[-94.84982,43.16274],[-94.84565,43.16274],[-94.84565,43.17941],[-94.83731,43.17941],[-94.83731,43.18774],[-94.84148,43.18774],[-94.84148,43.20024],[-94.84565,43.20024],[-94.84565,43.21691],[-94.84982,43.21691],[-94.84982,43.22524],[-94.85398,43.22524],[-94.85398,43.23358],[-94.85815,43.23358],[-94.85815,43.24608],[-94.86232,43.24608],[-94.86232,43.25025],[-94.85815,43.25025],[-94.85815,43.27108],[-94.85398,43.27108],[-94.85398,43.27525],[-94.84982,43.27525],[-94.84982,43.27942],[-94.85398,43.27942],[-94.85398,43.28358],[-94.85815,43.28358],[-94.85815,43.28775],[-94.86648,43.28775],[-94.86648,43.30025],[-94.87899,43.30025],[-94.87899,43.30442],[-94.88732,43.30442],[-94.88732,43.30858],[-94.89149,43.30858],[-94.89149,43.31275],[-94.88315,43.31275],[-94.88315,43.32525],[-94.88732,43.32525],[-94.88732,43.33775],[-94.89149,43.33775],[-94.89149,43.35025],[-94.89565,43.35025],[-94.89565,43.35442],[-94.89982,43.35442],[-94.89982,43.35859],[-94.91232,43.35859],[-94.91232,43.36692],[-94.91649,43.36692],[-94.91649,43.37109],[-94.92065,43.37109],[-94.92065,43.38359],[-94.94149,43.38359],[-94.94149,43.38776],[-94.94566,43.38776],[-94.94566,43.39192],[-94.94982,43.39192],[-94.94982,43.40026],[-94.94566,43.40026],[-94.94566,43.40443],[-94.94149,43.40443],[-94.94149,43.42526],[-94.93732,43.42526],[-94.93732,43.43776],[-94.94566,43.43776],[-94.94566,43.43359],[-94.96232,43.43359],[-94.96232,43.42943],[-94.97483,43.42943],[-94.97483,43.43359],[-94.98733,43.43359],[-94.98733,43.43776],[-95.004,43.43776],[-95.004,43.44193],[-95.00816,43.44193],[-95.00816,43.4461],[-95.01233,43.4461],[-95.01233,43.44193],[-95.0165,43.44193],[-95.0165,43.42526],[-95.02066,43.42526],[-95.02066,43.42109],[-95.03316,43.42109],[-95.03316,43.41693],[-95.029,43.41693],[-95.029,43.40859],[-95.03316,43.40859],[-95.03316,43.40026],[-95.02483,43.40026],[-95.02483,43.39192],[-95.029,43.39192],[-95.029,43.38776],[-95.03316,43.38776],[-95.03316,43.37942],[-95.03733,43.37942],[-95.03733,43.37109],[-95.04566,43.37109],[-95.04566,43.36276],[-95.054,43.36276],[-95.054,43.35859],[-95.05817,43.35859],[-95.05817,43.35442],[-95.06233,43.35442],[-95.06233,43.35025],[-95.0665,43.35025],[-95.0665,43.33775],[-95.07483,43.33775],[-95.07483,43.33359],[-95.079,43.33359],[-95.079,43.32942],[-95.0915,43.32942],[-95.0915,43.32525],[-95.09567,43.32525],[-95.09567,43.32109],[-95.09984,43.32109],[-95.09984,43.32525],[-95.104,43.32525],[-95.104,43.32942],[-95.10817,43.32942],[-95.10817,43.32525],[-95.12067,43.32525],[-95.12067,43.32942],[-95.129,43.32942],[-95.129,43.33775],[-95.14984,43.33775],[-95.14984,43.33359],[-95.16651,43.33359],[-95.16651,43.33775],[-95.17068,43.33775],[-95.17068,43.33359],[-95.18318,43.33359],[-95.18318,43.33775],[-95.18734,43.33775],[-95.18734,43.34192],[-95.19151,43.34192],[-95.19151,43.34609],[-95.19568,43.34609],[-95.19568,43.35025],[-95.19984,43.35025],[-95.19984,43.35442],[-95.20401,43.35442],[-95.20401,43.36692],[-95.19984,43.36692],[-95.19984,43.37942],[-95.19568,43.37942],[-95.19568,43.39609],[-95.21234,43.39609],[-95.21234,43.41276],[-95.21651,43.41276],[-95.21651,43.41693],[-95.22068,43.41693],[-95.22068,43.42109],[-95.22485,43.42109],[-95.22485,43.42526],[-95.21651,43.42526],[-95.21651,43.42943],[-95.20818,43.42943],[-95.20818,43.43359],[-95.20401,43.43359],[-95.20401,43.44193],[-95.19151,43.44193],[-95.19151,43.45026],[-95.18318,43.45026],[-95.18318,43.4586],[-95.17901,43.4586],[-95.17901,43.46276],[-95.18318,43.46276],[-95.18318,43.46693],[-95.18734,43.46693],[-95.18734,43.47526],[-95.18318,43.47526],[-95.18318,43.4836],[-95.17484,43.4836],[-95.17484,43.48777],[-95.17068,43.48777],[-95.17068,43.49193],[-95.17484,43.49193],[-95.17484,43.50443],[-95.17901,43.50443],[-95.17901,43.5086],[-95.17484,43.5086],[-95.17484,43.51277],[-95.16651,43.51277],[-95.16651,43.51693],[-95.15401,43.51693],[-95.15401,43.5211],[-95.14984,43.5211],[-95.14984,43.52944],[-95.15401,43.52944],[-95.15401,43.53777],[-95.16234,43.53777],[-95.16234,43.54194],[-95.15817,43.54194],[-95.15817,43.55027],[-95.14984,43.55027],[-95.14984,43.55444],[-95.15401,43.55444],[-95.15401,43.5586],[-95.14984,43.5586],[-95.14984,43.56277],[-95.14567,43.56277],[-95.14567,43.57111],[-95.14984,43.57111],[-95.14984,43.58361],[-95.15401,43.58361],[-95.15401,43.58777],[-95.14984,43.58777],[-95.14984,43.59611],[-95.16651,43.59611],[-95.16651,43.61694],[-95.15401,43.61694],[-95.15401,43.62111],[-95.14151,43.62111],[-95.14151,43.62944],[-95.13734,43.62944],[-95.13734,43.63778],[-95.13317,43.63778],[-95.13317,43.64611],[-95.13734,43.64611],[-95.13734,43.65028],[-95.12484,43.65028],[-95.12484,43.65861],[-95.10817,43.65861],[-95.10817,43.66278],[-95.104,43.66278],[-95.104,43.67111],[-95.09984,43.67111],[-95.09984,43.67528],[-95.104,43.67528],[-95.104,43.68361],[-95.10817,43.68361],[-95.10817,43.70445],[-95.1165,43.70445],[-95.1165,43.70028],[-95.12067,43.70028],[-95.12067,43.69612],[-95.12484,43.69612],[-95.12484,43.69195],[-95.15401,43.69195],[-95.15401,43.67528],[-95.14984,43.67528],[-95.14984,43.66695],[-95.16234,43.66695],[-95.16234,43.65861],[-95.17068,43.65861],[-95.17068,43.65445],[-95.17484,43.65445],[-95.17484,43.65028],[-95.18734,43.65028],[-95.18734,43.64611],[-95.19151,43.64611],[-95.19151,43.64194],[-95.19568,43.64194],[-95.19568,43.63361],[-95.19984,43.63361],[-95.19984,43.62528],[-95.21234,43.62528],[-95.21234,43.62944],[-95.22901,43.62944],[-95.22901,43.62528],[-95.23735,43.62528],[-95.23735,43.62111],[-95.26235,43.62111],[-95.26235,43.62944],[-95.27068,43.62944],[-95.27068,43.63361],[-95.27902,43.63361],[-95.27902,43.64194],[-95.28318,43.64194],[-95.28318,43.64611],[-95.31235,43.64611],[-95.31235,43.65028],[-95.31652,43.65028],[-95.31652,43.65445],[-95.32485,43.65445],[-95.32485,43.65028],[-95.36236,43.65028],[-95.36236,43.65445],[-95.36652,43.65445],[-95.36652,43.66278],[-95.37069,43.66278],[-95.37069,43.65861],[-95.38319,43.65861],[-95.38319,43.65445],[-95.40403,43.65445],[-95.40403,43.65861],[-95.40819,43.65861],[-95.40819,43.66278],[-95.41236,43.66278],[-95.41236,43.66695],[-95.4332,43.66695],[-95.4332,43.67111],[-95.43736,43.67111],[-95.43736,43.65861],[-95.44153,43.65861],[-95.44153,43.63361],[-95.43736,43.63361],[-95.43736,43.62944],[-95.44986,43.62944],[-95.44986,43.63361],[-95.45403,43.63361],[-95.45403,43.63778],[-95.46653,43.63778],[-95.46653,43.62944],[-95.4832,43.62944],[-95.4832,43.63361],[-95.48737,43.63361],[-95.48737,43.62944],[-95.49153,43.62944],[-95.49153,43.62528],[-95.4957,43.62528],[-95.4957,43.62111],[-95.49987,43.62111],[-95.49987,43.61694],[-95.5082,43.61694],[-95.5082,43.61278],[-95.51237,43.61278],[-95.51237,43.60861],[-95.5207,43.60861],[-95.5207,43.61278],[-95.52487,43.61278],[-95.52487,43.60861],[-95.52904,43.60861],[-95.52904,43.60444],[-95.5332,43.60444],[-95.5332,43.60861],[-95.54154,43.60861],[-95.54154,43.61694],[-95.5457,43.61694],[-95.5457,43.62111],[-95.54987,43.62111],[-95.54987,43.62528],[-95.56237,43.62528],[-95.56237,43.62111],[-95.55821,43.62111],[-95.55821,43.61694],[-95.55404,43.61694],[-95.55404,43.60861],[-95.56654,43.60861],[-95.56654,43.60444],[-95.57071,43.60444],[-95.57071,43.60027],[-95.57904,43.60027],[-95.57904,43.60444],[-95.61238,43.60444],[-95.61238,43.60861],[-95.61654,43.60861],[-95.61654,43.60444],[-95.62071,43.60444],[-95.62071,43.60861],[-95.62488,43.60861],[-95.62488,43.60444],[-95.64988,43.60444],[-95.64988,43.60027],[-95.66238,43.60027],[-95.66238,43.60444],[-95.67488,43.60444],[-95.67488,43.60861],[-95.67905,43.60861],[-95.67905,43.61278],[-95.68322,43.61278],[-95.68322,43.62528],[-95.69572,43.62528],[-95.69572,43.62944],[-95.70822,43.62944],[-95.70822,43.63778],[-95.71655,43.63778],[-95.71655,43.63361],[-95.72489,43.63361],[-95.72489,43.64194],[-95.72905,43.64194],[-95.72905,43.64611],[-95.73322,43.64611],[-95.73322,43.65028],[-95.72905,43.65028],[-95.72905,43.66278],[-95.73322,43.66278],[-95.73322,43.66695],[-95.72905,43.66695],[-95.72905,43.67528],[-95.72072,43.67528],[-95.72072,43.67945],[-95.71655,43.67945],[-95.71655,43.68361],[-95.71238,43.68361],[-95.71238,43.69195],[-95.70822,43.69195],[-95.70822,43.69612],[-95.69988,43.69612],[-95.69988,43.70862],[-95.70405,43.70862],[-95.70405,43.71278],[-95.71238,43.71278],[-95.71238,43.72112],[-95.71655,43.72112],[-95.71655,43.72945],[-95.72072,43.72945],[-95.72072,43.73362],[-95.72905,43.73362],[-95.72905,43.74612],[-95.73322,43.74612],[-95.73322,43.74195],[-95.74155,43.74195],[-95.74155,43.73779],[-95.74572,43.73779],[-95.74572,43.74195],[-95.74989,43.74195],[-95.74989,43.74612],[-95.76656,43.74612],[-95.76656,43.74195],[-95.77072,43.74195],[-95.77072,43.73779],[-95.78739,43.73779],[-95.78739,43.74195],[-95.79989,43.74195],[-95.79989,43.75029],[-95.80823,43.75029],[-95.80823,43.74195],[-95.81656,43.74195],[-95.81656,43.74612],[-95.82073,43.74612],[-95.82073,43.75445],[-95.82906,43.75445],[-95.82906,43.75862],[-95.8374,43.75862],[-95.8374,43.76279],[-95.84156,43.76279],[-95.84156,43.75862],[-95.8499,43.75862],[-95.8499,43.76279],[-95.85406,43.76279],[-95.85406,43.78362],[-95.85823,43.78362],[-95.85823,43.79196],[-95.86656,43.79196],[-95.86656,43.79612],[-95.87073,43.79612],[-95.87073,43.80029],[-95.8749,43.80029],[-95.8749,43.79612],[-95.87906,43.79612],[-95.87906,43.80446],[-95.88323,43.80446],[-95.88323,43.81279],[-95.89157,43.81279],[-95.89157,43.81696],[-95.8874,43.81696],[-95.8874,43.82113],[-95.88323,43.82113],[-95.88323,43.83363],[-95.8874,43.83363],[-95.8874,43.85029],[-95.87906,43.85029],[-95.87906,43.85863],[-95.89573,43.85863],[-95.89573,43.85446],[-95.91657,43.85446],[-95.91657,43.8628],[-95.92073,43.8628],[-95.92073,43.8753],[-95.9249,43.8753],[-95.9249,43.87946],[-95.92907,43.87946],[-95.92907,43.88363],[-95.93324,43.88363],[-95.93324,43.89196],[-95.9374,43.89196],[-95.9374,43.9003],[-95.94574,43.9003],[-95.94574,43.9128],[-95.9499,43.9128],[-95.9499,43.91697],[-95.95407,43.91697],[-95.95407,43.92113],[-95.9624,43.92113],[-95.9624,43.9253],[-95.96657,43.9253],[-95.96657,43.94197],[-95.97491,43.94197],[-95.97491,43.94614],[-95.98741,43.94614],[-95.98741,43.9628],[-96.00408,43.9628],[-96.00408,43.96697],[-96.00824,43.96697],[-96.00824,43.9753],[-96.01241,43.9753],[-96.01241,43.98364],[-96.01658,43.98364],[-96.01658,43.98781],[-96.02074,43.98781],[-96.02074,43.99197],[-96.02491,43.99197],[-96.02491,43.99614],[-96.03324,43.99614],[-96.03324,44.00031],[-96.03741,44.00031],[-96.03741,44.00447],[-96.04158,44.00447],[-96.04158,44.00864],[-96.04574,44.00864],[-96.04574,44.02114],[-96.04991,44.02114],[-96.04991,44.03364],[-96.05408,44.03364],[-96.05408,44.04198],[-96.06658,44.04198],[-96.06658,44.05448],[-96.07075,44.05448],[-96.07075,44.06281],[-96.07491,44.06281],[-96.07491,44.06698],[-96.07908,44.06698],[-96.07908,44.07115],[-96.09158,44.07115],[-96.09158,44.07948],[-96.09575,44.07948],[-96.09575,44.08365],[-96.09992,44.08365],[-96.09992,44.08781],[-96.09575,44.08781],[-96.09575,44.09198],[-96.09158,44.09198],[-96.09158,44.10031],[-96.09575,44.10031],[-96.09575,44.10865],[-96.10408,44.10865],[-96.10408,44.11282],[-96.11242,44.11282],[-96.11242,44.11698],[-96.11658,44.11698],[-96.11658,44.12115],[-96.13742,44.12115],[-96.13742,44.12948],[-96.14159,44.12948],[-96.14159,44.13782],[-96.14575,44.13782],[-96.14575,44.14198],[-96.15409,44.14198],[-96.15409,44.14615],[-96.15825,44.14615],[-96.15825,44.15032],[-96.16659,44.15032],[-96.16659,44.15865],[-96.17075,44.15865],[-96.17075,44.16282],[-96.17492,44.16282],[-96.17492,44.17115],[-96.19159,44.17115],[-96.19159,44.17532],[-96.19576,44.17532],[-96.19576,44.17949],[-96.19992,44.17949],[-96.19992,44.18782],[-96.20409,44.18782],[-96.20409,44.19616],[-96.21242,44.19616],[-96.21242,44.20032],[-96.21659,44.20032],[-96.21659,44.20449],[-96.22493,44.20449],[-96.22493,44.20866],[-96.23326,44.20866],[-96.23326,44.21282],[-96.23743,44.21282],[-96.23743,44.21699],[-96.24159,44.21699],[-96.24159,44.22949],[-96.24576,44.22949],[-96.24576,44.23366],[-96.25826,44.23366],[-96.25826,44.23783],[-96.27076,44.23783],[-96.27076,44.24616],[-96.28326,44.24616],[-96.28326,44.25449],[-96.28743,44.25449],[-96.28743,44.25866],[-96.3041,44.25866],[-96.3041,44.25449],[-96.30827,44.25449],[-96.30827,44.25866],[-96.32493,44.25866],[-96.32493,44.28783],[-96.3291,44.28783],[-96.3291,44.292],[-96.33743,44.292],[-96.33743,44.29616],[-96.34577,44.29616],[-96.34577,44.3045],[-96.3541,44.3045],[-96.3541,44.31283],[-96.3666,44.31283],[-96.3666,44.317],[-96.37494,44.317],[-96.37494,44.32117],[-96.3791,44.32117],[-96.3791,44.33367],[-96.39161,44.33367],[-96.39161,44.33783],[-96.39577,44.33783],[-96.39577,44.342],[-96.40411,44.342],[-96.40411,44.34617],[-96.42077,44.34617],[-96.42077,44.342],[-96.42494,44.342],[-96.42494,44.33367],[-96.42911,44.33367],[-96.42911,44.33783],[-96.44161,44.33783],[-96.44161,44.34617],[-96.43744,44.34617],[-96.43744,44.35033],[-96.44161,44.35033],[-96.44161,44.3545],[-96.44578,44.3545],[-96.44578,44.36284],[-96.44994,44.36284],[-96.44994,44.37534],[-96.45411,44.37534],[-96.45411,44.3795],[-96.45828,44.3795],[-96.45828,44.38367],[-96.46661,44.38367],[-96.46661,44.38784],[-96.47078,44.38784],[-96.47078,44.40034],[-96.47495,44.40034],[-96.47495,44.41701],[-96.47911,44.41701],[-96.47911,44.42117],[-96.47495,44.42117],[-96.47495,44.42534],[-96.47078,44.42534],[-96.47078,44.44618],[-96.47495,44.44618],[-96.47495,44.45034],[-96.47078,44.45034],[-96.47078,44.45868],[-96.47495,44.45868],[-96.47495,44.46701],[-96.49161,44.46701],[-96.49161,44.46284],[-96.49995,44.46284],[-96.49995,44.47118],[-96.50828,44.47118],[-96.50828,44.47534],[-96.51245,44.47534],[-96.51245,44.47951],[-96.52078,44.47951],[-96.52078,44.48785],[-96.53328,44.48785],[-96.53328,44.49201],[-96.53745,44.49201],[-96.53745,44.50868],[-96.54578,44.50868],[-96.54578,44.51285],[-96.55412,44.51285],[-96.55412,44.52535],[-96.55829,44.52535],[-96.55829,44.52952],[-96.56245,44.52952],[-96.56245,44.53368],[-96.56662,44.53368],[-96.56662,44.52118],[-96.57495,44.52118],[-96.57495,44.51285],[-96.59162,44.51285],[-96.59162,44.52535],[-96.59579,44.52535],[-96.59579,44.52952],[-96.59996,44.52952],[-96.59996,44.53368],[-96.62079,44.53368],[-96.62079,44.52952],[-96.62913,44.52952],[-96.62913,44.53368],[-96.67079,44.53368],[-96.67079,44.52952],[-96.67496,44.52952],[-96.67496,44.53368],[-96.77497,44.53368],[-96.77497,44.52952],[-96.77914,44.52952],[-96.77914,44.53368],[-96.89165,44.53368],[-96.89165,44.52952],[-96.89581,44.52952],[-96.89581,44.52535],[-96.89998,44.52535],[-96.89998,44.52952],[-96.91248,44.52952],[-96.91248,44.51285],[-96.91665,44.51285],[-96.91665,44.50868],[-96.93332,44.50868],[-96.93332,44.51285],[-96.95415,44.51285],[-96.95415,44.51701],[-96.95832,44.51701],[-96.95832,44.52535],[-96.96665,44.52535],[-96.96665,44.52952],[-96.98332,44.52952],[-96.98332,44.52535],[-96.98749,44.52535],[-96.98749,44.52952],[-96.99165,44.52952],[-96.99165,44.53368],[-96.99999,44.53368]],[[-96.59579,44.51285],[-96.59162,44.51285],[-96.59162,44.50868],[-96.59579,44.50868],[-96.59579,44.51285]]]}}]}