{"type":"FeatureCollection","features":[{"type":"Feature","properties":{},"geometry":{"type":"Polygon","coordinates":[[[-91.35019,43.04231],[-91.33679,43.03581],[-91.33398,43.02858],[-91.32833,43.0236],[-91.3248,43.02309],[-91.32871,43.01591],[-91.34135,43.01528],[-91.34328,43.01401],[-91.35039,43.01659],[-91.35319,43.01543],[-91.36087,43.02008],[-91.36437,43.01959],[-91.37931,43.02291],[-91.38157,43.02493],[-91.38077,43.02748],[-91.38316,43.03519],[-91.39141,43.03977],[-91.39005,43.04363],[-91.39147,43.0469],[-91.38406,43.05294],[-91.37968,43.05362],[-91.37808,43.05547],[-91.37349,43.05514],[-91.37103,43.05317],[-91.36117,43.0516],[-91.35603,43.04649],[-91.35125,43.04545],[-91.35019,43.04231]]]}}]}