{"type":"FeatureCollection","features":[{"type":"Feature","properties":{},"geometry":{"type":"Polygon","coordinates":[[[-92.73074,43.20733],[-92.73687,43.21462],[-92.74067,43.21535],[-92.74763,43.2271],[-92.74671,43.23293],[-92.74497,43.23344],[-92.74335,43.23909],[-92.7452,43.24526],[-92.74142,43.24845],[-92.73724,43.24554],[-92.72835,43.24335],[-92.72157,43.24409],[-92.71725,43.24113],[-92.71945,43.23989],[-92.72108,43.23329],[-92.7173,43.22876],[-92.71858,43.22725],[-92.70767,43.22395],[-92.70651,43.20941],[-92.71707,43.20473],[-92.73082,43.20572],[-92.73074,43.20733]]]}}]}