{"type":"FeatureCollection","features":[{"type":"Feature","properties":{},"geometry":{"type":"Polygon","coordinates":[[[-91.28286,43.1169],[-91.28286,43.11274],[-91.2912,43.11274],[-91.2912,43.10857],[-91.29537,43.10857],[-91.29537,43.1044],[-91.29953,43.1044],[-91.29953,43.0919],[-91.3037,43.0919],[-91.3037,43.08773],[-91.2912,43.08773],[-91.2912,43.0919],[-91.27036,43.0919],[-91.27036,43.10023],[-91.2662,43.10023],[-91.2662,43.1044],[-91.25786,43.1044],[-91.25786,43.10857],[-91.26203,43.10857],[-91.26203,43.11274],[-91.2662,43.11274],[-91.2662,43.1169],[-91.27036,43.1169],[-91.27036,43.11274],[-91.27453,43.11274],[-91.27453,43.1169],[-91.28286,43.1169]]]}}]}