{"type":"FeatureCollection","features":[{"type":"Feature","properties":{},"geometry":{"type":"Polygon","coordinates":[[[-93.28814,41.53759],[-93.29474,41.54011],[-93.29588,41.54974],[-93.29414,41.5529],[-93.30416,41.55495],[-93.30864,41.55293],[-93.31194,41.55678],[-93.31319,41.56252],[-93.32013,41.56524],[-93.31627,41.57076],[-93.31281,41.57246],[-93.31437,41.5764],[-93.31165,41.57847],[-93.31055,41.58408],[-93.31276,41.58802],[-93.31014,41.5933],[-93.31094,41.59587],[-93.31556,41.59947],[-93.32058,41.59957],[-93.32648,41.60392],[-93.33627,41.60679],[-93.34242,41.61305],[-93.34555,41.61422],[-93.34552,41.61725],[-93.33845,41.62237],[-93.33723,41.62605],[-93.32183,41.63101],[-93.3222,41.63474],[-93.31503,41.63717],[-93.31329,41.63992],[-93.30971,41.63931],[-93.30333,41.63199],[-93.2899,41.63224],[-93.28847,41.62741],[-93.28582,41.62504],[-93.28549,41.62128],[-93.27298,41.6192],[-93.2705,41.61353],[-93.27162,41.61008],[-93.26992,41.60734],[-93.26565,41.60512],[-93.2643,41.5993],[-93.26238,41.59633],[-93.25949,41.59561],[-93.25662,41.59103],[-93.25637,41.58754],[-93.25841,41.58593],[-93.2555,41.58213],[-93.25688,41.57929],[-93.25448,41.57661],[-93.25673,41.57142],[-93.25262,41.5673],[-93.24583,41.56474],[-93.24631,41.55873],[-93.24426,41.55573],[-93.24211,41.55532],[-93.24022,41.55011],[-93.24144,41.54722],[-93.23974,41.53511],[-93.24304,41.53125],[-93.25062,41.53096],[-93.25521,41.52874],[-93.26049,41.53032],[-93.26633,41.52829],[-93.27619,41.53395],[-93.2826,41.53254],[-93.28814,41.53759]]]}}]}