{"type":"FeatureCollection","features":[{"type":"Feature","properties":{},"geometry":{"type":"Polygon","coordinates":[[[-93.67472,42.51269],[-93.67472,42.50852],[-93.68306,42.50852],[-93.68306,42.50435],[-93.68722,42.50435],[-93.68722,42.49602],[-93.69139,42.49602],[-93.69139,42.48769],[-93.69556,42.48769],[-93.69556,42.47935],[-93.69972,42.47935],[-93.69972,42.47518],[-93.70389,42.47518],[-93.70389,42.46268],[-93.69972,42.46268],[-93.69972,42.45852],[-93.70389,42.45852],[-93.70389,42.45018],[-93.70806,42.45018],[-93.70806,42.44185],[-93.71223,42.44185],[-93.71223,42.43351],[-93.71639,42.43351],[-93.71639,42.42935],[-93.72473,42.42935],[-93.72473,42.42518],[-93.72889,42.42518],[-93.72889,42.42935],[-93.73306,42.42935],[-93.73306,42.42518],[-93.74139,42.42518],[-93.74139,42.41685],[-93.74556,42.41685],[-93.74556,42.41268],[-93.74973,42.41268],[-93.74973,42.40435],[-93.76223,42.40435],[-93.76223,42.39184],[-93.77056,42.39184],[-93.77056,42.37934],[-93.7664,42.37934],[-93.7664,42.36684],[-93.77056,42.36684],[-93.77056,42.35851],[-93.77473,42.35851],[-93.77473,42.33351],[-93.7789,42.33351],[-93.7789,42.32934],[-93.78306,42.32934],[-93.78306,42.32517],[-93.78723,42.32517],[-93.78723,42.32934],[-93.79556,42.32934],[-93.79556,42.33351],[-93.79973,42.33351],[-93.79973,42.33767],[-93.8039,42.33767],[-93.8039,42.33351],[-93.81223,42.33351],[-93.81223,42.32934],[-93.8164,42.32934],[-93.8164,42.32517],[-93.83307,42.32517],[-93.83307,42.32101],[-93.83723,42.32101],[-93.83723,42.32517],[-93.84974,42.32517],[-93.84974,42.32934],[-93.8539,42.32934],[-93.8539,42.32517],[-93.85807,42.32517],[-93.85807,42.32101],[-93.86224,42.32101],[-93.86224,42.31684],[-93.87474,42.31684],[-93.87474,42.32101],[-93.87891,42.32101],[-93.87891,42.31684],[-93.89141,42.31684],[-93.89141,42.31267],[-93.89557,42.31267],[-93.89557,42.30434],[-93.90807,42.30434],[-93.90807,42.2835],[-93.91224,42.2835],[-93.91224,42.27934],[-93.91641,42.27934],[-93.91641,42.27517],[-93.92057,42.27517],[-93.92057,42.271],[-93.92474,42.271],[-93.92474,42.26683],[-93.92891,42.26683],[-93.92891,42.25433],[-93.93308,42.25433],[-93.93308,42.25017],[-93.93724,42.25017],[-93.93724,42.23767],[-93.95808,42.23767],[-93.95808,42.22933],[-93.96224,42.22933],[-93.96224,42.22516],[-93.96641,42.22516],[-93.96641,42.221],[-93.96224,42.221],[-93.96224,42.21683],[-93.95808,42.21683],[-93.95808,42.21266],[-93.95391,42.21266],[-93.95391,42.2085],[-93.93308,42.2085],[-93.93308,42.20016],[-93.92891,42.20016],[-93.92891,42.196],[-93.91641,42.196],[-93.91641,42.18349],[-93.92057,42.18349],[-93.92057,42.17516],[-93.91224,42.17516],[-93.91224,42.16683],[-93.90807,42.16683],[-93.90807,42.16266],[-93.89974,42.16266],[-93.89974,42.15849],[-93.89557,42.15849],[-93.89557,42.15433],[-93.89141,42.15433],[-93.89141,42.15849],[-93.88307,42.15849],[-93.88307,42.15433],[-93.87474,42.15433],[-93.87474,42.15016],[-93.87057,42.15016],[-93.87057,42.14599],[-93.87474,42.14599],[-93.87474,42.14182],[-93.88724,42.14182],[-93.88724,42.13766],[-93.89557,42.13766],[-93.89557,42.12932],[-93.89141,42.12932],[-93.89141,42.12516],[-93.88724,42.12516],[-93.88724,42.12099],[-93.88307,42.12099],[-93.88307,42.11266],[-93.87474,42.11266],[-93.87474,42.10849],[-93.8664,42.10849],[-93.8664,42.11266],[-93.85807,42.11266],[-93.85807,42.10432],[-93.8539,42.10432],[-93.8539,42.10015],[-93.84974,42.10015],[-93.84974,42.07932],[-93.84557,42.07932],[-93.84557,42.07515],[-93.83307,42.07515],[-93.83307,42.06682],[-93.83723,42.06682],[-93.83723,42.06265],[-93.83307,42.06265],[-93.83307,42.05848],[-93.8289,42.05848],[-93.8289,42.05432],[-93.82473,42.05432],[-93.82473,42.04182],[-93.8164,42.04182],[-93.8164,42.03765],[-93.81223,42.03765],[-93.81223,42.04182],[-93.8039,42.04182],[-93.8039,42.03765],[-93.79556,42.03765],[-93.79556,42.02098],[-93.7914,42.02098],[-93.7914,42.01681],[-93.78723,42.01681],[-93.78723,42.01265],[-93.78306,42.01265],[-93.78306,42.00431],[-93.7789,42.00431],[-93.7789,41.99598],[-93.77473,41.99598],[-93.77473,41.99181],[-93.77056,41.99181],[-93.77056,41.98765],[-93.7664,41.98765],[-93.7664,41.99181],[-93.76223,41.99181],[-93.76223,41.99598],[-93.75806,41.99598],[-93.75806,41.99181],[-93.74973,41.99181],[-93.74973,41.99598],[-93.74556,41.99598],[-93.74556,41.99181],[-93.74139,41.99181],[-93.74139,41.98765],[-93.73723,41.98765],[-93.73723,41.97931],[-93.73306,41.97931],[-93.73306,41.97514],[-93.72889,41.97514],[-93.72889,41.97098],[-93.72473,41.97098],[-93.72473,41.96264],[-93.72056,41.96264],[-93.72056,41.95848],[-93.72473,41.95848],[-93.72473,41.94181],[-93.72889,41.94181],[-93.72889,41.92931],[-93.73306,41.92931],[-93.73306,41.92514],[-93.72889,41.92514],[-93.72889,41.92097],[-93.72473,41.92097],[-93.72473,41.90847],[-93.72056,41.90847],[-93.72056,41.90431],[-93.71639,41.90431],[-93.71639,41.89597],[-93.71223,41.89597],[-93.71223,41.8918],[-93.70806,41.8918],[-93.70806,41.89597],[-93.68722,41.89597],[-93.68722,41.8918],[-93.68306,41.8918],[-93.68306,41.89597],[-93.67889,41.89597],[-93.67889,41.8918],[-93.66639,41.8918],[-93.66639,41.89597],[-93.64972,41.89597],[-93.64972,41.90014],[-93.64555,41.90014],[-93.64555,41.89597],[-93.63722,41.89597],[-93.63722,41.8918],[-93.63305,41.8918],[-93.63305,41.88764],[-93.61222,41.88764],[-93.61222,41.88347],[-93.60805,41.88347],[-93.60805,41.87097],[-93.60388,41.87097],[-93.60388,41.86264],[-93.60805,41.86264],[-93.60805,41.85847],[-93.60388,41.85847],[-93.60388,41.83347],[-93.59972,41.83347],[-93.59972,41.83763],[-93.59555,41.83763],[-93.59555,41.83347],[-93.58305,41.83347],[-93.58305,41.8293],[-93.57888,41.8293],[-93.57888,41.82097],[-93.57471,41.82097],[-93.57471,41.82513],[-93.57055,41.82513],[-93.57055,41.82097],[-93.55388,41.82097],[-93.55388,41.80846],[-93.54554,41.80846],[-93.54554,41.80013],[-93.54138,41.80013],[-93.54138,41.79596],[-93.53721,41.79596],[-93.53721,41.7918],[-93.52888,41.7918],[-93.52888,41.78763],[-93.52471,41.78763],[-93.52471,41.78346],[-93.52054,41.78346],[-93.52054,41.77513],[-93.51638,41.77513],[-93.51638,41.77096],[-93.51221,41.77096],[-93.51221,41.76679],[-93.50804,41.76679],[-93.50804,41.76263],[-93.50387,41.76263],[-93.50387,41.75013],[-93.49971,41.75013],[-93.49971,41.74596],[-93.4622,41.74596],[-93.4622,41.73346],[-93.46637,41.73346],[-93.46637,41.72929],[-93.45804,41.72929],[-93.45804,41.71262],[-93.45387,41.71262],[-93.45387,41.70429],[-93.4497,41.70429],[-93.4497,41.69596],[-93.44554,41.69596],[-93.44554,41.68762],[-93.4372,41.68762],[-93.4372,41.69179],[-93.43304,41.69179],[-93.43304,41.69596],[-93.39553,41.69596],[-93.39553,41.70012],[-93.37886,41.70012],[-93.37886,41.69596],[-93.3747,41.69596],[-93.3747,41.68762],[-93.37053,41.68762],[-93.37053,41.67929],[-93.36636,41.67929],[-93.36636,41.67512],[-93.3622,41.67512],[-93.3622,41.66679],[-93.35803,41.66679],[-93.35803,41.66262],[-93.35386,41.66262],[-93.35386,41.65845],[-93.3497,41.65845],[-93.3497,41.65429],[-93.34136,41.65429],[-93.34136,41.65012],[-93.33719,41.65012],[-93.33719,41.64595],[-93.33303,41.64595],[-93.33303,41.64178],[-93.32886,41.64178],[-93.32886,41.63762],[-93.32469,41.63762],[-93.32469,41.64178],[-93.30803,41.64178],[-93.30803,41.63762],[-93.29969,41.63762],[-93.29969,41.63345],[-93.29136,41.63345],[-93.29136,41.62512],[-93.27886,41.62512],[-93.27886,41.62095],[-93.27469,41.62095],[-93.27469,41.61262],[-93.27052,41.61262],[-93.27052,41.60845],[-93.26636,41.60845],[-93.26636,41.60011],[-93.24552,41.60011],[-93.24552,41.60428],[-93.23719,41.60428],[-93.23719,41.60011],[-93.22469,41.60011],[-93.22469,41.60428],[-93.22052,41.60428],[-93.22052,41.60011],[-93.21635,41.60011],[-93.21635,41.59595],[-93.20802,41.59595],[-93.20802,41.59178],[-93.19552,41.59178],[-93.19552,41.59595],[-93.18718,41.59595],[-93.18718,41.58345],[-93.17468,41.58345],[-93.17468,41.57928],[-93.17051,41.57928],[-93.17051,41.57511],[-93.16218,41.57511],[-93.16218,41.57095],[-93.15801,41.57095],[-93.15801,41.56678],[-93.14968,41.56678],[-93.14968,41.55844],[-93.14135,41.55844],[-93.14135,41.55428],[-93.13301,41.55428],[-93.13301,41.55011],[-93.12468,41.55011],[-93.12468,41.54594],[-93.12051,41.54594],[-93.12051,41.54178],[-93.11634,41.54178],[-93.11634,41.52928],[-93.10801,41.52928],[-93.10801,41.52094],[-93.09551,41.52094],[-93.09551,41.51677],[-93.09134,41.51677],[-93.09134,41.51261],[-93.08718,41.51261],[-93.08718,41.50844],[-93.08301,41.50844],[-93.08301,41.50011],[-93.07884,41.50011],[-93.07884,41.49594],[-93.07467,41.49594],[-93.07467,41.49177],[-93.06217,41.49177],[-93.06217,41.48344],[-93.05384,41.48344],[-93.05384,41.47927],[-93.03717,41.47927],[-93.03717,41.4626],[-93.02884,41.4626],[-93.02884,41.4501],[-93.0205,41.4501],[-93.0205,41.44594],[-93.01634,41.44594],[-93.01634,41.44177],[-93.01217,41.44177],[-93.01217,41.44594],[-93.00383,41.44594],[-93.00383,41.44177],[-92.99967,41.44177],[-92.99967,41.4376],[-92.9955,41.4376],[-92.9955,41.43343],[-92.99133,41.43343],[-92.99133,41.42927],[-92.97467,41.42927],[-92.97467,41.4251],[-92.96633,41.4251],[-92.96633,41.41677],[-92.958,41.41677],[-92.958,41.4126],[-92.9455,41.4126],[-92.9455,41.41677],[-92.94133,41.41677],[-92.94133,41.4126],[-92.92466,41.4126],[-92.92466,41.40427],[-92.9205,41.40427],[-92.9205,41.4001],[-92.89966,41.4001],[-92.89966,41.40427],[-92.89549,41.40427],[-92.89549,41.40843],[-92.89966,41.40843],[-92.89966,41.4126],[-92.89133,41.4126],[-92.89133,41.41677],[-92.88716,41.41677],[-92.88716,41.42093],[-92.88299,41.42093],[-92.88299,41.4251],[-92.87882,41.4251],[-92.87882,41.42093],[-92.87049,41.42093],[-92.87049,41.4251],[-92.84966,41.4251],[-92.84966,41.4001],[-92.84549,41.4001],[-92.84549,41.39593],[-92.84132,41.39593],[-92.84132,41.39176],[-92.83715,41.39176],[-92.83715,41.3876],[-92.80382,41.3876],[-92.80382,41.38343],[-92.79965,41.38343],[-92.79965,41.37093],[-92.79548,41.37093],[-92.79548,41.36676],[-92.78715,41.36676],[-92.78715,41.3626],[-92.77048,41.3626],[-92.77048,41.35843],[-92.76632,41.35843],[-92.76632,41.35009],[-92.76215,41.35009],[-92.76215,41.34593],[-92.74131,41.34593],[-92.74131,41.34176],[-92.71631,41.34176],[-92.71631,41.33343],[-92.71214,41.33343],[-92.71214,41.33759],[-92.70381,41.33759],[-92.70381,41.33343],[-92.69964,41.33343],[-92.69964,41.32509],[-92.69131,41.32509],[-92.69131,41.32093],[-92.67464,41.32093],[-92.67464,41.31676],[-92.67047,41.31676],[-92.67047,41.30842],[-92.66214,41.30842],[-92.66214,41.30426],[-92.65797,41.30426],[-92.65797,41.30009],[-92.65381,41.30009],[-92.65381,41.29592],[-92.64131,41.29592],[-92.64131,41.29176],[-92.63714,41.29176],[-92.63714,41.28759],[-92.63297,41.28759],[-92.63297,41.28342],[-92.62047,41.28342],[-92.62047,41.27509],[-92.61214,41.27509],[-92.61214,41.27092],[-92.6038,41.27092],[-92.6038,41.26675],[-92.59547,41.26675],[-92.59547,41.26259],[-92.5788,41.26259],[-92.5788,41.25425],[-92.5663,41.25425],[-92.5663,41.25009],[-92.57047,41.25009],[-92.57047,41.24592],[-92.57463,41.24592],[-92.57463,41.24175],[-92.57047,41.24175],[-92.57047,41.23759],[-92.57463,41.23759],[-92.57463,41.23342],[-92.5788,41.23342],[-92.5788,41.22508],[-92.58297,41.22508],[-92.58297,41.22092],[-92.5913,41.22092],[-92.5913,41.20842],[-92.58714,41.20842],[-92.58714,41.20425],[-92.58297,41.20425],[-92.58297,41.19175],[-92.57463,41.19175],[-92.57463,41.18758],[-92.56213,41.18758],[-92.56213,41.18341],[-92.55797,41.18341],[-92.55797,41.17925],[-92.53713,41.17925],[-92.53713,41.17508],[-92.52463,41.17508],[-92.52463,41.17091],[-92.52046,41.17091],[-92.52046,41.16258],[-92.5163,41.16258],[-92.5163,41.15841],[-92.51213,41.15841],[-92.51213,41.15425],[-92.50379,41.15425],[-92.50379,41.15008],[-92.48713,41.15008],[-92.48713,41.14591],[-92.48296,41.14591],[-92.48296,41.14174],[-92.47046,41.14174],[-92.47046,41.13758],[-92.46629,41.13758],[-92.46629,41.12924],[-92.45796,41.12924],[-92.45796,41.12091],[-92.45379,41.12091],[-92.45379,41.11258],[-92.44962,41.11258],[-92.44962,41.10841],[-92.43712,41.10841],[-92.43712,41.10424],[-92.43296,41.10424],[-92.43296,41.10007],[-92.42462,41.10007],[-92.42462,41.09591],[-92.42045,41.09591],[-92.42045,41.08757],[-92.42462,41.08757],[-92.42462,41.06257],[-92.41629,41.06257],[-92.41629,41.06674],[-92.41212,41.06674],[-92.41212,41.07091],[-92.39129,41.07091],[-92.39129,41.06674],[-92.37878,41.06674],[-92.37878,41.06257],[-92.36212,41.06257],[-92.36212,41.0584],[-92.35378,41.0584],[-92.35378,41.05007],[-92.33711,41.05007],[-92.33711,41.0459],[-92.33295,41.0459],[-92.33295,41.03757],[-92.32878,41.03757],[-92.32878,41.02507],[-92.32461,41.02507],[-92.32461,41.0209],[-92.32878,41.0209],[-92.32878,41.01257],[-92.32461,41.01257],[-92.32461,41.00423],[-92.32045,41.00423],[-92.32045,41.00007],[-92.30378,41.00007],[-92.30378,40.99173],[-92.29545,40.99173],[-92.29545,40.98757],[-92.29128,40.98757],[-92.29128,40.9834],[-92.27461,40.9834],[-92.27461,40.97506],[-92.26211,40.97506],[-92.26211,40.9709],[-92.24961,40.9709],[-92.24961,40.96673],[-92.24544,40.96673],[-92.24544,40.96256],[-92.24127,40.96256],[-92.24127,40.95423],[-92.22877,40.95423],[-92.22877,40.95006],[-92.22044,40.95006],[-92.22044,40.95423],[-92.19127,40.95423],[-92.19127,40.9584],[-92.1871,40.9584],[-92.1871,40.96256],[-92.17877,40.96256],[-92.17877,40.9584],[-92.17043,40.9584],[-92.17043,40.95423],[-92.1496,40.95423],[-92.1496,40.95006],[-92.1371,40.95006],[-92.1371,40.95423],[-92.13293,40.95423],[-92.13293,40.9584],[-92.1246,40.9584],[-92.1246,40.96256],[-92.11626,40.96256],[-92.11626,40.96673],[-92.10793,40.96673],[-92.10793,40.96256],[-92.0996,40.96256],[-92.0996,40.96673],[-92.09543,40.96673],[-92.09543,40.9709],[-92.08709,40.9709],[-92.08709,40.96673],[-92.08293,40.96673],[-92.08293,40.9709],[-92.07459,40.9709],[-92.07459,40.96673],[-92.04126,40.96673],[-92.04126,40.97506],[-92.03292,40.97506],[-92.03292,40.96673],[-92.02876,40.96673],[-92.02876,40.95423],[-92.01209,40.95423],[-92.01209,40.95006],[-92.00792,40.95006],[-92.00792,40.94173],[-92.00375,40.94173],[-92.00375,40.91673],[-91.99959,40.91673],[-91.99959,40.90839],[-91.99542,40.90839],[-91.99542,40.90423],[-91.99125,40.90423],[-91.99125,40.90839],[-91.97042,40.90839],[-91.97042,40.90006],[-91.96625,40.90006],[-91.96625,40.89589],[-91.95792,40.89589],[-91.95792,40.87922],[-91.94125,40.87922],[-91.94125,40.87506],[-91.93292,40.87506],[-91.93292,40.87922],[-91.92875,40.87922],[-91.92875,40.87506],[-91.92458,40.87506],[-91.92458,40.87089],[-91.92041,40.87089],[-91.92041,40.86672],[-91.90375,40.86672],[-91.90375,40.86256],[-91.89958,40.86256],[-91.89958,40.86672],[-91.89541,40.86672],[-91.89541,40.87089],[-91.87458,40.87089],[-91.87458,40.87506],[-91.85374,40.87506],[-91.85374,40.87089],[-91.84541,40.87089],[-91.84541,40.86672],[-91.84124,40.86672],[-91.84124,40.86256],[-91.83707,40.86256],[-91.83707,40.85839],[-91.83291,40.85839],[-91.83291,40.85005],[-91.83707,40.85005],[-91.83707,40.84589],[-91.84124,40.84589],[-91.84124,40.82922],[-91.85374,40.82922],[-91.85374,40.81672],[-91.84124,40.81672],[-91.84124,40.81255],[-91.81207,40.81255],[-91.81207,40.80838],[-91.80374,40.80838],[-91.80374,40.80422],[-91.7829,40.80422],[-91.7829,40.80005],[-91.76624,40.80005],[-91.76624,40.79172],[-91.76207,40.79172],[-91.76207,40.78755],[-91.7579,40.78755],[-91.7579,40.78338],[-91.75373,40.78338],[-91.75373,40.78755],[-91.74957,40.78755],[-91.74957,40.78338],[-91.7329,40.78338],[-91.7329,40.77922],[-91.72873,40.77922],[-91.72873,40.77088],[-91.7204,40.77088],[-91.7204,40.76671],[-91.71206,40.76671],[-91.71206,40.75838],[-91.70373,40.75838],[-91.70373,40.76255],[-91.67456,40.76255],[-91.67456,40.76671],[-91.64956,40.76671],[-91.64956,40.77922],[-91.65373,40.77922],[-91.65373,40.78338],[-91.65789,40.78338],[-91.65789,40.78755],[-91.66206,40.78755],[-91.66206,40.79172],[-91.65789,40.79172],[-91.65789,40.80005],[-91.65373,40.80005],[-91.65373,40.80422],[-91.65789,40.80422],[-91.65789,40.80838],[-91.64956,40.80838],[-91.64956,40.80422],[-91.64123,40.80422],[-91.64123,40.80005],[-91.63289,40.80005],[-91.63289,40.80422],[-91.61622,40.80422],[-91.61622,40.80838],[-91.61206,40.80838],[-91.61206,40.81255],[-91.60789,40.81255],[-91.60789,40.82089],[-91.60372,40.82089],[-91.60372,40.83339],[-91.59956,40.83339],[-91.59956,40.83755],[-91.58705,40.83755],[-91.58705,40.82922],[-91.56622,40.82922],[-91.56622,40.82505],[-91.55789,40.82505],[-91.55789,40.80838],[-91.55372,40.80838],[-91.55372,40.80422],[-91.54955,40.80422],[-91.54955,40.80005],[-91.54538,40.80005],[-91.54538,40.80422],[-91.54122,40.80422],[-91.54122,40.80838],[-91.50371,40.80838],[-91.50371,40.79172],[-91.49538,40.79172],[-91.49538,40.79588],[-91.49121,40.79588],[-91.49121,40.78755],[-91.48705,40.78755],[-91.48705,40.78338],[-91.48288,40.78338],[-91.48288,40.77922],[-91.47455,40.77922],[-91.47455,40.77088],[-91.47038,40.77088],[-91.47038,40.76671],[-91.45371,40.76671],[-91.45371,40.77088],[-91.44954,40.77088],[-91.44954,40.77505],[-91.44538,40.77505],[-91.44538,40.77088],[-91.44121,40.77088],[-91.44121,40.76671],[-91.42454,40.76671],[-91.42454,40.76255],[-91.41621,40.76255],[-91.41621,40.76671],[-91.41204,40.76671],[-91.41204,40.77088],[-91.40371,40.77088],[-91.40371,40.76255],[-91.37454,40.76255],[-91.37454,40.75838],[-91.36204,40.75838],[-91.36204,40.75421],[-91.3537,40.75421],[-91.3537,40.75005],[-91.34537,40.75005],[-91.34537,40.74588],[-91.3287,40.74588],[-91.3287,40.74171],[-91.30787,40.74171],[-91.30787,40.73755],[-91.3037,40.73755],[-91.3037,40.73338],[-91.29953,40.73338],[-91.29953,40.72921],[-91.29537,40.72921],[-91.29537,40.73338],[-91.2912,40.73338],[-91.2912,40.72921],[-91.28703,40.72921],[-91.28703,40.72504],[-91.28286,40.72504],[-91.28286,40.72921],[-91.2787,40.72921],[-91.2787,40.73338],[-91.27453,40.73338],[-91.27453,40.74171],[-91.2787,40.74171],[-91.2787,40.74588],[-91.28286,40.74588],[-91.28286,40.75005],[-91.2787,40.75005],[-91.2787,40.75421],[-91.27453,40.75421],[-91.27453,40.75838],[-91.2787,40.75838],[-91.2787,40.76255],[-91.27453,40.76255],[-91.27453,40.76671],[-91.2662,40.76671],[-91.2662,40.77505],[-91.27036,40.77505],[-91.27036,40.77922],[-91.2787,40.77922],[-91.2787,40.78338],[-91.28286,40.78338],[-91.28286,40.79172],[-91.29537,40.79172],[-91.29537,40.79588],[-91.3037,40.79588],[-91.3037,40.80005],[-91.3162,40.80005],[-91.3162,40.80422],[-91.32453,40.80422],[-91.32453,40.80838],[-91.33287,40.80838],[-91.33287,40.81255],[-91.3412,40.81255],[-91.3412,40.82505],[-91.33704,40.82505],[-91.33704,40.82922],[-91.33287,40.82922],[-91.33287,40.83339],[-91.3287,40.83339],[-91.3287,40.83755],[-91.33287,40.83755],[-91.33287,40.85422],[-91.33704,40.85422],[-91.33704,40.86256],[-91.33287,40.86256],[-91.33287,40.87089],[-91.3287,40.87089],[-91.3287,40.87506],[-91.32453,40.87506],[-91.32453,40.87922],[-91.3162,40.87922],[-91.3162,40.88339],[-91.31203,40.88339],[-91.31203,40.88756],[-91.30787,40.88756],[-91.30787,40.89172],[-91.32453,40.89172],[-91.32453,40.89589],[-91.33704,40.89589],[-91.33704,40.90423],[-91.34954,40.90423],[-91.34954,40.90839],[-91.3662,40.90839],[-91.3662,40.91256],[-91.37454,40.91256],[-91.37454,40.91673],[-91.3787,40.91673],[-91.3787,40.92089],[-91.38704,40.92089],[-91.38704,40.92506],[-91.39537,40.92506],[-91.39537,40.92923],[-91.39954,40.92923],[-91.39954,40.93339],[-91.40787,40.93339],[-91.40787,40.94173],[-91.41204,40.94173],[-91.41204,40.9459],[-91.40787,40.9459],[-91.40787,40.95423],[-91.39954,40.95423],[-91.39954,40.96673],[-91.39537,40.96673],[-91.39537,40.9709],[-91.39121,40.9709],[-91.39121,40.97506],[-91.38704,40.97506],[-91.38704,40.9709],[-91.38287,40.9709],[-91.38287,40.97506],[-91.37037,40.97506],[-91.37037,40.97923],[-91.3662,40.97923],[-91.3662,40.97506],[-91.36204,40.97506],[-91.36204,40.97923],[-91.35787,40.97923],[-91.35787,40.99173],[-91.3537,40.99173],[-91.3537,40.9959],[-91.34954,40.9959],[-91.34954,41.00007],[-91.3287,41.00007],[-91.3287,41.00423],[-91.32453,41.00423],[-91.32453,41.01673],[-91.32037,41.01673],[-91.32037,41.0209],[-91.32453,41.0209],[-91.32453,41.0334],[-91.32037,41.0334],[-91.32037,41.03757],[-91.3162,41.03757],[-91.3162,41.0459],[-91.31203,41.0459],[-91.31203,41.05007],[-91.3037,41.05007],[-91.3037,41.0584],[-91.2912,41.0584],[-91.2912,41.06257],[-91.28703,41.06257],[-91.28703,41.06674],[-91.2912,41.06674],[-91.2912,41.07091],[-91.29537,41.07091],[-91.29537,41.07924],[-91.2912,41.07924],[-91.2912,41.09591],[-91.29537,41.09591],[-91.29537,41.10424],[-91.29953,41.10424],[-91.29953,41.11258],[-91.30787,41.11258],[-91.30787,41.11674],[-91.31203,41.11674],[-91.31203,41.12091],[-91.3162,41.12091],[-91.3162,41.12508],[-91.32037,41.12508],[-91.32037,41.12924],[-91.33287,41.12924],[-91.33287,41.13341],[-91.3412,41.13341],[-91.3412,41.13758],[-91.34537,41.13758],[-91.34537,41.14174],[-91.34954,41.14174],[-91.34954,41.14591],[-91.34537,41.14591],[-91.34537,41.15425],[-91.34954,41.15425],[-91.34954,41.15841],[-91.3537,41.15841],[-91.3537,41.16258],[-91.35787,41.16258],[-91.35787,41.17091],[-91.36204,41.17091],[-91.36204,41.17508],[-91.3787,41.17508],[-91.3787,41.17925],[-91.39121,41.17925],[-91.39121,41.17508],[-91.39954,41.17508],[-91.39954,41.17925],[-91.41204,41.17925],[-91.41204,41.17091],[-91.41621,41.17091],[-91.41621,41.16675],[-91.42871,41.16675],[-91.42871,41.16258],[-91.43288,41.16258],[-91.43288,41.16675],[-91.44121,41.16675],[-91.44121,41.17091],[-91.45371,41.17091],[-91.45371,41.17508],[-91.45788,41.17508],[-91.45788,41.17925],[-91.46621,41.17925],[-91.46621,41.19175],[-91.48705,41.19175],[-91.48705,41.20008],[-91.49955,41.20008],[-91.49955,41.22092],[-91.50788,41.22092],[-91.50788,41.22508],[-91.51205,41.22508],[-91.51205,41.22925],[-91.52038,41.22925],[-91.52038,41.23342],[-91.55372,41.23342],[-91.55372,41.23759],[-91.56622,41.23759],[-91.56622,41.23342],[-91.57039,41.23342],[-91.57039,41.23759],[-91.58705,41.23759],[-91.58705,41.25009],[-91.59539,41.25009],[-91.59539,41.25425],[-91.61206,41.25425],[-91.61206,41.25842],[-91.61622,41.25842],[-91.61622,41.26259],[-91.62456,41.26259],[-91.62456,41.26675],[-91.63706,41.26675],[-91.63706,41.27092],[-91.66206,41.27092],[-91.66206,41.27509],[-91.67039,41.27509],[-91.67039,41.27926],[-91.67873,41.27926],[-91.67873,41.29176],[-91.68706,41.29176],[-91.68706,41.29592],[-91.69123,41.29592],[-91.69123,41.32093],[-91.70373,41.32093],[-91.70373,41.32509],[-91.7079,41.32509],[-91.7079,41.32926],[-91.71206,41.32926],[-91.71206,41.33759],[-91.7204,41.33759],[-91.7204,41.34593],[-91.72457,41.34593],[-91.72457,41.35009],[-91.7454,41.35009],[-91.7454,41.35426],[-91.75373,41.35426],[-91.75373,41.3751],[-91.74957,41.3751],[-91.74957,41.3876],[-91.75373,41.3876],[-91.75373,41.39593],[-91.7579,41.39593],[-91.7579,41.40427],[-91.76624,41.40427],[-91.76624,41.40843],[-91.7704,41.40843],[-91.7704,41.4126],[-91.79541,41.4126],[-91.79541,41.40843],[-91.79957,41.40843],[-91.79957,41.41677],[-91.82041,41.41677],[-91.82041,41.4251],[-91.82457,41.4251],[-91.82457,41.43343],[-91.83707,41.43343],[-91.83707,41.4251],[-91.85374,41.4251],[-91.85374,41.42927],[-91.85791,41.42927],[-91.85791,41.43343],[-91.89541,41.43343],[-91.89541,41.4376],[-91.92458,41.4376],[-91.92458,41.43343],[-91.92875,41.43343],[-91.92875,41.42927],[-91.94125,41.42927],[-91.94125,41.43343],[-91.94958,41.43343],[-91.94958,41.42927],[-91.97042,41.42927],[-91.97042,41.43343],[-91.97459,41.43343],[-91.97459,41.44177],[-91.97875,41.44177],[-91.97875,41.44594],[-91.98292,41.44594],[-91.98292,41.4501],[-91.98709,41.4501],[-91.98709,41.44594],[-92.02042,41.44594],[-92.02042,41.44177],[-92.02459,41.44177],[-92.02459,41.4376],[-92.04126,41.4376],[-92.04126,41.43343],[-92.05793,41.43343],[-92.05793,41.4376],[-92.06209,41.4376],[-92.06209,41.44177],[-92.06626,41.44177],[-92.06626,41.44594],[-92.07043,41.44594],[-92.07043,41.4501],[-92.08709,41.4501],[-92.08709,41.45844],[-92.10376,41.45844],[-92.10376,41.45427],[-92.11626,41.45427],[-92.11626,41.45844],[-92.13293,41.45844],[-92.13293,41.45427],[-92.14127,41.45427],[-92.14127,41.4501],[-92.15377,41.4501],[-92.15377,41.45427],[-92.15793,41.45427],[-92.15793,41.4501],[-92.16627,41.4501],[-92.16627,41.44594],[-92.17043,41.44594],[-92.17043,41.44177],[-92.18294,41.44177],[-92.18294,41.44594],[-92.19544,41.44594],[-92.19544,41.44177],[-92.20377,41.44177],[-92.20377,41.44594],[-92.20794,41.44594],[-92.20794,41.4501],[-92.22044,41.4501],[-92.22044,41.45427],[-92.23294,41.45427],[-92.23294,41.45844],[-92.25377,41.45844],[-92.25377,41.4626],[-92.26628,41.4626],[-92.26628,41.45844],[-92.27461,41.45844],[-92.27461,41.4626],[-92.27878,41.4626],[-92.27878,41.45844],[-92.29961,41.45844],[-92.29961,41.4626],[-92.30378,41.4626],[-92.30378,41.46677],[-92.31211,41.46677],[-92.31211,41.47094],[-92.34545,41.47094],[-92.34545,41.4751],[-92.37878,41.4751],[-92.37878,41.48344],[-92.38295,41.48344],[-92.38295,41.47927],[-92.39545,41.47927],[-92.39545,41.48344],[-92.39962,41.48344],[-92.39962,41.49594],[-92.41629,41.49594],[-92.41629,41.50011],[-92.44546,41.50011],[-92.44546,41.50427],[-92.45379,41.50427],[-92.45379,41.51261],[-92.46629,41.51261],[-92.46629,41.51677],[-92.47046,41.51677],[-92.47046,41.51261],[-92.49546,41.51261],[-92.49546,41.52511],[-92.49963,41.52511],[-92.49963,41.52928],[-92.50379,41.52928],[-92.50379,41.53761],[-92.50796,41.53761],[-92.50796,41.54178],[-92.52046,41.54178],[-92.52046,41.54594],[-92.52463,41.54594],[-92.52463,41.55428],[-92.52046,41.55428],[-92.52046,41.56678],[-92.5163,41.56678],[-92.5163,41.57511],[-92.52046,41.57511],[-92.52046,41.57928],[-92.5288,41.57928],[-92.5288,41.58761],[-92.52463,41.58761],[-92.52463,41.60428],[-92.5288,41.60428],[-92.5288,41.61262],[-92.53713,41.61262],[-92.53713,41.62095],[-92.54963,41.62095],[-92.54963,41.62928],[-92.56213,41.62928],[-92.56213,41.62095],[-92.57047,41.62095],[-92.57047,41.62512],[-92.58297,41.62512],[-92.58297,41.62928],[-92.6038,41.62928],[-92.6038,41.63762],[-92.6163,41.63762],[-92.6163,41.64178],[-92.62047,41.64178],[-92.62047,41.65012],[-92.6288,41.65012],[-92.6288,41.65429],[-92.64547,41.65429],[-92.64547,41.65845],[-92.64964,41.65845],[-92.64964,41.66262],[-92.66214,41.66262],[-92.66214,41.66679],[-92.67047,41.66679],[-92.67047,41.67095],[-92.69131,41.67095],[-92.69131,41.67512],[-92.69548,41.67512],[-92.69548,41.67929],[-92.70381,41.67929],[-92.70381,41.68345],[-92.70798,41.68345],[-92.70798,41.68762],[-92.71631,41.68762],[-92.71631,41.69179],[-92.73298,41.69179],[-92.73298,41.70012],[-92.74548,41.70012],[-92.74548,41.70846],[-92.73715,41.70846],[-92.73715,41.71679],[-92.72881,41.71679],[-92.72881,41.72096],[-92.72465,41.72096],[-92.72465,41.72929],[-92.72048,41.72929],[-92.72048,41.74179],[-92.72881,41.74179],[-92.72881,41.75429],[-92.71214,41.75429],[-92.71214,41.7793],[-92.72465,41.7793],[-92.72465,41.78346],[-92.72881,41.78346],[-92.72881,41.7918],[-92.73298,41.7918],[-92.73298,41.79596],[-92.75382,41.79596],[-92.75382,41.80013],[-92.75798,41.80013],[-92.75798,41.8043],[-92.76632,41.8043],[-92.76632,41.81263],[-92.77465,41.81263],[-92.77465,41.82097],[-92.78298,41.82097],[-92.78298,41.8168],[-92.79132,41.8168],[-92.79132,41.82097],[-92.79548,41.82097],[-92.79548,41.8293],[-92.79965,41.8293],[-92.79965,41.83347],[-92.81632,41.83347],[-92.81632,41.8418],[-92.82049,41.8418],[-92.82049,41.84597],[-92.82465,41.84597],[-92.82465,41.85013],[-92.82882,41.85013],[-92.82882,41.8543],[-92.83715,41.8543],[-92.83715,41.85847],[-92.85382,41.85847],[-92.85382,41.86264],[-92.86632,41.86264],[-92.86632,41.8668],[-92.87466,41.8668],[-92.87466,41.87097],[-92.88299,41.87097],[-92.88299,41.87514],[-92.89549,41.87514],[-92.89549,41.88347],[-92.90799,41.88347],[-92.90799,41.88764],[-92.92466,41.88764],[-92.92466,41.88347],[-92.933,41.88347],[-92.933,41.88764],[-92.93716,41.88764],[-92.93716,41.8918],[-92.9455,41.8918],[-92.9455,41.89597],[-92.95383,41.89597],[-92.95383,41.8918],[-92.96216,41.8918],[-92.96216,41.88764],[-92.9705,41.88764],[-92.9705,41.8918],[-92.97883,41.8918],[-92.97883,41.89597],[-92.98717,41.89597],[-92.98717,41.90014],[-92.9955,41.90014],[-92.9955,41.90431],[-92.99967,41.90431],[-92.99967,41.90847],[-93.00383,41.90847],[-93.00383,41.92097],[-93.01217,41.92097],[-93.01217,41.93347],[-93.01634,41.93347],[-93.01634,41.93764],[-93.02884,41.93764],[-93.02884,41.94181],[-93.03717,41.94181],[-93.03717,41.94598],[-93.05801,41.94598],[-93.05801,41.95014],[-93.06634,41.95014],[-93.06634,41.95848],[-93.07051,41.95848],[-93.07051,41.96264],[-93.07884,41.96264],[-93.07884,41.95848],[-93.08301,41.95848],[-93.08301,41.96264],[-93.09551,41.96264],[-93.09551,41.97098],[-93.10801,41.97098],[-93.10801,41.97514],[-93.11218,41.97514],[-93.11218,41.97098],[-93.11634,41.97098],[-93.11634,41.97514],[-93.12051,41.97514],[-93.12051,41.97098],[-93.12884,41.97098],[-93.12884,41.97514],[-93.13718,41.97514],[-93.13718,41.97931],[-93.14968,41.97931],[-93.14968,41.98348],[-93.16218,41.98348],[-93.16218,41.98765],[-93.17051,41.98765],[-93.17051,41.99181],[-93.17468,41.99181],[-93.17468,42.00015],[-93.18302,42.00015],[-93.18302,42.00431],[-93.19135,42.00431],[-93.19135,42.00848],[-93.19968,42.00848],[-93.19968,42.01265],[-93.20385,42.01265],[-93.20385,42.01681],[-93.20802,42.01681],[-93.20802,42.02515],[-93.21218,42.02515],[-93.21218,42.02932],[-93.21635,42.02932],[-93.21635,42.02515],[-93.23302,42.02515],[-93.23302,42.03765],[-93.23719,42.03765],[-93.23719,42.04598],[-93.24969,42.04598],[-93.24969,42.05015],[-93.25386,42.05015],[-93.25386,42.05432],[-93.25802,42.05432],[-93.25802,42.05848],[-93.26636,42.05848],[-93.26636,42.06265],[-93.27052,42.06265],[-93.27052,42.06682],[-93.27469,42.06682],[-93.27469,42.07515],[-93.27886,42.07515],[-93.27886,42.07932],[-93.27469,42.07932],[-93.27469,42.08349],[-93.27886,42.08349],[-93.27886,42.09182],[-93.28302,42.09182],[-93.28302,42.09599],[-93.28719,42.09599],[-93.28719,42.09182],[-93.29136,42.09182],[-93.29136,42.09599],[-93.29552,42.09599],[-93.29552,42.10015],[-93.30386,42.10015],[-93.30386,42.10432],[-93.31219,42.10432],[-93.31219,42.10849],[-93.30803,42.10849],[-93.30803,42.12516],[-93.30386,42.12516],[-93.30386,42.13766],[-93.31219,42.13766],[-93.31219,42.14182],[-93.34136,42.14182],[-93.34136,42.14599],[-93.34553,42.14599],[-93.34553,42.15016],[-93.36636,42.15016],[-93.36636,42.16266],[-93.3622,42.16266],[-93.3622,42.17516],[-93.35803,42.17516],[-93.35803,42.17933],[-93.35386,42.17933],[-93.35386,42.18349],[-93.35803,42.18349],[-93.35803,42.19183],[-93.36636,42.19183],[-93.36636,42.196],[-93.37053,42.196],[-93.37053,42.20016],[-93.37886,42.20016],[-93.37886,42.20433],[-93.3872,42.20433],[-93.3872,42.21683],[-93.39137,42.21683],[-93.39137,42.221],[-93.39553,42.221],[-93.39553,42.22516],[-93.40803,42.22516],[-93.40803,42.2335],[-93.4122,42.2335],[-93.4122,42.23767],[-93.41637,42.23767],[-93.41637,42.24183],[-93.42054,42.24183],[-93.42054,42.25433],[-93.41637,42.25433],[-93.41637,42.2585],[-93.42887,42.2585],[-93.42887,42.26267],[-93.43304,42.26267],[-93.43304,42.271],[-93.4372,42.271],[-93.4372,42.27517],[-93.4497,42.27517],[-93.4497,42.27934],[-93.45387,42.27934],[-93.45387,42.2835],[-93.45804,42.2835],[-93.45804,42.28767],[-93.4622,42.28767],[-93.4622,42.30017],[-93.46637,42.30017],[-93.46637,42.31684],[-93.48721,42.31684],[-93.48721,42.31267],[-93.49554,42.31267],[-93.49554,42.31684],[-93.49971,42.31684],[-93.49971,42.32101],[-93.49137,42.32101],[-93.49137,42.32517],[-93.49554,42.32517],[-93.49554,42.33767],[-93.49137,42.33767],[-93.49137,42.35434],[-93.48721,42.35434],[-93.48721,42.35851],[-93.49137,42.35851],[-93.49137,42.36684],[-93.49554,42.36684],[-93.49554,42.37101],[-93.49971,42.37101],[-93.49971,42.37518],[-93.52471,42.37518],[-93.52471,42.37934],[-93.52888,42.37934],[-93.52888,42.38351],[-93.54138,42.38351],[-93.54138,42.39184],[-93.54554,42.39184],[-93.54554,42.38768],[-93.56221,42.38768],[-93.56221,42.39601],[-93.56638,42.39601],[-93.56638,42.40018],[-93.57055,42.40018],[-93.57055,42.40851],[-93.56638,42.40851],[-93.56638,42.42935],[-93.56221,42.42935],[-93.56221,42.43351],[-93.55805,42.43351],[-93.55805,42.43768],[-93.56221,42.43768],[-93.56221,42.44185],[-93.55805,42.44185],[-93.55805,42.46685],[-93.55388,42.46685],[-93.55388,42.49185],[-93.54971,42.49185],[-93.54971,42.49602],[-93.56221,42.49602],[-93.56221,42.49185],[-93.57055,42.49185],[-93.57055,42.49602],[-93.57888,42.49602],[-93.57888,42.50435],[-93.58305,42.50435],[-93.58305,42.50852],[-93.59972,42.50852],[-93.59972,42.51269],[-93.61638,42.51269],[-93.61638,42.50852],[-93.62055,42.50852],[-93.62055,42.49602],[-93.62888,42.49602],[-93.62888,42.49185],[-93.63305,42.49185],[-93.63305,42.49602],[-93.64555,42.49602],[-93.64555,42.49185],[-93.65389,42.49185],[-93.65389,42.50435],[-93.66639,42.50435],[-93.66639,42.50852],[-93.67055,42.50852],[-93.67055,42.51269],[-93.67472,42.51269]]]}}]}