{"type":"FeatureCollection","features":[{"type":"Feature","properties":{},"geometry":{"type":"MultiPolygon","coordinates":[[[[-93.33719,43.77529],[-93.33303,43.77529],[-93.33303,43.77946],[-93.33719,43.77946],[-93.33719,43.78779],[-93.33303,43.78779],[-93.33303,43.79196],[-93.32886,43.79196],[-93.32886,43.80029],[-93.32053,43.80029],[-93.32053,43.81279],[-93.30803,43.81279],[-93.30803,43.81696],[-93.29969,43.81696],[-93.29969,43.83779],[-93.29136,43.83779],[-93.29136,43.83363],[-93.28719,43.83363],[-93.28719,43.82946],[-93.28302,43.82946],[-93.28302,43.82529],[-93.25802,43.82529],[-93.25802,43.82946],[-93.24969,43.82946],[-93.24969,43.83363],[-93.24552,43.83363],[-93.24552,43.83779],[-93.24135,43.83779],[-93.24135,43.84196],[-93.24552,43.84196],[-93.24552,43.84613],[-93.23719,43.84613],[-93.23719,43.85029],[-93.22885,43.85029],[-93.22885,43.84613],[-93.20802,43.84613],[-93.20802,43.82529],[-93.20385,43.82529],[-93.20385,43.82946],[-93.19552,43.82946],[-93.19552,43.83363],[-93.19135,43.83363],[-93.19135,43.83779],[-93.16635,43.83779],[-93.16635,43.83363],[-93.16218,43.83363],[-93.16218,43.83779],[-93.15801,43.83779],[-93.15801,43.83363],[-93.15385,43.83363],[-93.15385,43.83779],[-93.13301,43.83779],[-93.13301,43.84196],[-93.12884,43.84196],[-93.12884,43.83779],[-93.12468,43.83779],[-93.12468,43.82946],[-93.11634,43.82946],[-93.11634,43.83363],[-93.09968,43.83363],[-93.09968,43.84196],[-93.09551,43.84196],[-93.09551,43.84613],[-93.09134,43.84613],[-93.09134,43.85446],[-93.08718,43.85446],[-93.08718,43.8628],[-93.08301,43.8628],[-93.08301,43.86696],[-93.07051,43.86696],[-93.07051,43.88363],[-93.07467,43.88363],[-93.07467,43.8878],[-93.07051,43.8878],[-93.07051,43.89196],[-93.06634,43.89196],[-93.06634,43.9003],[-93.07051,43.9003],[-93.07051,43.90863],[-93.07884,43.90863],[-93.07884,43.9128],[-93.07467,43.9128],[-93.07467,43.91697],[-93.06634,43.91697],[-93.06634,43.92113],[-93.06217,43.92113],[-93.06217,43.9253],[-93.05801,43.9253],[-93.05801,43.93363],[-93.05384,43.93363],[-93.05384,43.94197],[-93.04967,43.94197],[-93.04967,43.9378],[-93.0455,43.9378],[-93.0455,43.94197],[-93.04134,43.94197],[-93.04134,43.9378],[-93.02884,43.9378],[-93.02884,43.94197],[-93.01634,43.94197],[-93.01634,43.9503],[-93.01217,43.9503],[-93.01217,43.95447],[-92.983,43.95447],[-92.983,43.9503],[-92.97883,43.9503],[-92.97883,43.95447],[-92.96216,43.95447],[-92.96216,43.94614],[-92.9455,43.94614],[-92.9455,43.94197],[-92.933,43.94197],[-92.933,43.9378],[-92.92466,43.9378],[-92.92466,43.93363],[-92.9205,43.93363],[-92.9205,43.9378],[-92.90799,43.9378],[-92.90799,43.93363],[-92.89966,43.93363],[-92.89966,43.92947],[-92.87882,43.92947],[-92.87882,43.9253],[-92.86632,43.9253],[-92.86632,43.92113],[-92.84549,43.92113],[-92.84549,43.91697],[-92.82882,43.91697],[-92.82882,43.9128],[-92.82465,43.9128],[-92.82465,43.9003],[-92.82049,43.9003],[-92.82049,43.89196],[-92.82465,43.89196],[-92.82465,43.8878],[-92.82049,43.8878],[-92.82049,43.88363],[-92.81632,43.88363],[-92.81632,43.87946],[-92.79965,43.87946],[-92.79965,43.85029],[-92.79548,43.85029],[-92.79548,43.84613],[-92.79132,43.84613],[-92.79132,43.84196],[-92.79965,43.84196],[-92.79965,43.83779],[-92.80382,43.83779],[-92.80382,43.83363],[-92.80799,43.83363],[-92.80799,43.82946],[-92.80382,43.82946],[-92.80382,43.80862],[-92.79965,43.80862],[-92.79965,43.80446],[-92.79548,43.80446],[-92.79548,43.80029],[-92.79132,43.80029],[-92.79132,43.79612],[-92.79548,43.79612],[-92.79548,43.79196],[-92.79132,43.79196],[-92.79132,43.78779],[-92.79548,43.78779],[-92.79548,43.77112],[-92.80382,43.77112],[-92.80382,43.76695],[-92.79965,43.76695],[-92.79965,43.76279],[-92.79548,43.76279],[-92.79548,43.75445],[-92.79132,43.75445],[-92.79132,43.75029],[-92.78715,43.75029],[-92.78715,43.74612],[-92.78298,43.74612],[-92.78298,43.74195],[-92.77882,43.74195],[-92.77882,43.73779],[-92.77465,43.73779],[-92.77465,43.74195],[-92.75382,43.74195],[-92.75382,43.72528],[-92.73298,43.72528],[-92.73298,43.72112],[-92.70798,43.72112],[-92.70798,43.71695],[-92.69964,43.71695],[-92.69964,43.71278],[-92.69131,43.71278],[-92.69131,43.70862],[-92.68714,43.70862],[-92.68714,43.69612],[-92.69131,43.69612],[-92.69131,43.67945],[-92.68714,43.67945],[-92.68714,43.67111],[-92.67881,43.67111],[-92.67881,43.65445],[-92.67464,43.65445],[-92.67464,43.65028],[-92.67047,43.65028],[-92.67047,43.62944],[-92.65797,43.62944],[-92.65797,43.62528],[-92.64131,43.62528],[-92.64131,43.62111],[-92.63714,43.62111],[-92.63714,43.61694],[-92.64547,43.61694],[-92.64547,43.61278],[-92.64964,43.61278],[-92.64964,43.60861],[-92.65381,43.60861],[-92.65381,43.60444],[-92.65797,43.60444],[-92.65797,43.59611],[-92.66214,43.59611],[-92.66214,43.58361],[-92.65797,43.58361],[-92.65797,43.57944],[-92.66214,43.57944],[-92.66214,43.57527],[-92.66631,43.57527],[-92.66631,43.5586],[-92.67047,43.5586],[-92.67047,43.55444],[-92.67464,43.55444],[-92.67464,43.55027],[-92.67881,43.55027],[-92.67881,43.5461],[-92.68298,43.5461],[-92.68298,43.54194],[-92.69964,43.54194],[-92.69964,43.53777],[-92.70798,43.53777],[-92.70798,43.5336],[-92.71214,43.5336],[-92.71214,43.52944],[-92.70798,43.52944],[-92.70798,43.52527],[-92.70381,43.52527],[-92.70381,43.5211],[-92.69964,43.5211],[-92.69964,43.51277],[-92.69548,43.51277],[-92.69548,43.50443],[-92.68714,43.50443],[-92.68714,43.50027],[-92.68298,43.50027],[-92.68298,43.4961],[-92.67881,43.4961],[-92.67881,43.49193],[-92.67464,43.49193],[-92.67464,43.48777],[-92.67047,43.48777],[-92.67047,43.4836],[-92.66631,43.4836],[-92.66631,43.47943],[-92.65797,43.47943],[-92.65797,43.46276],[-92.65381,43.46276],[-92.65381,43.4586],[-92.64964,43.4586],[-92.64964,43.45443],[-92.65381,43.45443],[-92.65381,43.45026],[-92.65797,43.45026],[-92.65797,43.44193],[-92.66214,43.44193],[-92.66214,43.43776],[-92.64964,43.43776],[-92.64964,43.43359],[-92.64547,43.43359],[-92.64547,43.42943],[-92.64131,43.42943],[-92.64131,43.42526],[-92.63714,43.42526],[-92.63714,43.42109],[-92.6288,43.42109],[-92.6288,43.40443],[-92.62047,43.40443],[-92.62047,43.40026],[-92.6163,43.40026],[-92.6163,43.39192],[-92.61214,43.39192],[-92.61214,43.38359],[-92.60797,43.38359],[-92.60797,43.37942],[-92.6038,43.37942],[-92.6038,43.35859],[-92.59964,43.35859],[-92.59964,43.32109],[-92.59547,43.32109],[-92.59547,43.31275],[-92.5913,43.31275],[-92.5913,43.30858],[-92.58714,43.30858],[-92.58714,43.30442],[-92.58297,43.30442],[-92.58297,43.29608],[-92.5788,43.29608],[-92.5788,43.29192],[-92.57463,43.29192],[-92.57463,43.28775],[-92.5788,43.28775],[-92.5788,43.28358],[-92.58297,43.28358],[-92.58297,43.27108],[-92.5788,43.27108],[-92.5788,43.26275],[-92.57463,43.26275],[-92.57463,43.24191],[-92.57047,43.24191],[-92.57047,43.23775],[-92.57463,43.23775],[-92.57463,43.22108],[-92.57047,43.22108],[-92.57047,43.21274],[-92.57463,43.21274],[-92.57463,43.20441],[-92.58714,43.20441],[-92.58714,43.19608],[-92.5913,43.19608],[-92.5913,43.19191],[-92.58714,43.19191],[-92.58714,43.18774],[-92.5788,43.18774],[-92.5788,43.18357],[-92.57463,43.18357],[-92.57463,43.17941],[-92.56213,43.17941],[-92.56213,43.17524],[-92.55797,43.17524],[-92.55797,43.17107],[-92.5538,43.17107],[-92.5538,43.16691],[-92.54546,43.16691],[-92.54546,43.15857],[-92.5413,43.15857],[-92.5413,43.15441],[-92.54546,43.15441],[-92.54546,43.14607],[-92.53713,43.14607],[-92.53713,43.1419],[-92.53296,43.1419],[-92.53296,43.13357],[-92.5288,43.13357],[-92.5288,43.1294],[-92.52463,43.1294],[-92.52463,43.1169],[-92.52046,43.1169],[-92.52046,43.10857],[-92.5163,43.10857],[-92.5163,43.1044],[-92.51213,43.1044],[-92.51213,43.10023],[-92.50796,43.10023],[-92.50796,43.09607],[-92.50379,43.09607],[-92.50379,43.0919],[-92.49963,43.0919],[-92.49963,43.0794],[-92.49546,43.0794],[-92.49546,43.07523],[-92.49129,43.07523],[-92.49129,43.07107],[-92.48713,43.07107],[-92.48713,43.0669],[-92.48296,43.0669],[-92.48296,43.06273],[-92.47879,43.06273],[-92.47879,43.05856],[-92.47463,43.05856],[-92.47463,43.03773],[-92.46629,43.03773],[-92.46629,43.03356],[-92.45796,43.03356],[-92.45796,43.0294],[-92.44962,43.0294],[-92.44962,43.02523],[-92.44129,43.02523],[-92.44129,43.00856],[-92.43712,43.00856],[-92.43712,43.00439],[-92.43296,43.00439],[-92.43296,42.99606],[-92.42879,42.99606],[-92.42879,42.99189],[-92.42462,42.99189],[-92.42462,42.98356],[-92.42045,42.98356],[-92.42045,42.97522],[-92.41629,42.97522],[-92.41629,42.97106],[-92.41212,42.97106],[-92.41212,42.95439],[-92.40795,42.95439],[-92.40795,42.95022],[-92.40379,42.95022],[-92.40379,42.94189],[-92.40795,42.94189],[-92.40795,42.92105],[-92.40379,42.92105],[-92.40379,42.90855],[-92.39962,42.90855],[-92.39962,42.90022],[-92.39545,42.90022],[-92.39545,42.87522],[-92.39962,42.87522],[-92.39962,42.85855],[-92.39545,42.85855],[-92.39545,42.85438],[-92.38712,42.85438],[-92.38712,42.85021],[-92.38295,42.85021],[-92.38295,42.84605],[-92.37878,42.84605],[-92.37878,42.82521],[-92.37462,42.82521],[-92.37462,42.82105],[-92.36212,42.82105],[-92.36212,42.81688],[-92.35795,42.81688],[-92.35795,42.81271],[-92.35378,42.81271],[-92.35378,42.80854],[-92.34962,42.80854],[-92.34962,42.80021],[-92.34545,42.80021],[-92.34545,42.79188],[-92.34128,42.79188],[-92.34128,42.78771],[-92.33295,42.78771],[-92.33295,42.77521],[-92.32878,42.77521],[-92.32878,42.77104],[-92.32461,42.77104],[-92.32461,42.76271],[-92.32045,42.76271],[-92.32045,42.75021],[-92.31628,42.75021],[-92.31628,42.74187],[-92.30795,42.74187],[-92.30795,42.73771],[-92.30378,42.73771],[-92.30378,42.7252],[-92.29961,42.7252],[-92.29961,42.72104],[-92.29545,42.72104],[-92.29545,42.70854],[-92.29128,42.70854],[-92.29128,42.70437],[-92.29545,42.70437],[-92.29545,42.7002],[-92.29961,42.7002],[-92.29961,42.69187],[-92.29545,42.69187],[-92.29545,42.67937],[-92.29128,42.67937],[-92.29128,42.67103],[-92.29545,42.67103],[-92.29545,42.6627],[-92.30795,42.6627],[-92.30795,42.6502],[-92.31211,42.6502],[-92.31211,42.64186],[-92.30795,42.64186],[-92.30795,42.6377],[-92.30378,42.6377],[-92.30378,42.62103],[-92.29961,42.62103],[-92.29961,42.60019],[-92.29128,42.60019],[-92.29128,42.59603],[-92.28711,42.59603],[-92.28711,42.58769],[-92.28294,42.58769],[-92.28294,42.59186],[-92.27878,42.59186],[-92.27878,42.59603],[-92.26628,42.59603],[-92.26628,42.60019],[-92.25377,42.60019],[-92.25377,42.59603],[-92.24127,42.59603],[-92.24127,42.59186],[-92.23294,42.59186],[-92.23294,42.58769],[-92.22877,42.58769],[-92.22877,42.58353],[-92.2121,42.58353],[-92.2121,42.57519],[-92.20377,42.57519],[-92.20377,42.57103],[-92.19127,42.57103],[-92.19127,42.56686],[-92.18294,42.56686],[-92.18294,42.56269],[-92.17043,42.56269],[-92.17043,42.55436],[-92.15377,42.55436],[-92.15377,42.55019],[-92.1371,42.55019],[-92.1371,42.54186],[-92.13293,42.54186],[-92.13293,42.53352],[-92.1371,42.53352],[-92.1371,42.52519],[-92.14543,42.52519],[-92.14543,42.52102],[-92.1496,42.52102],[-92.1496,42.50435],[-92.14127,42.50435],[-92.14127,42.50019],[-92.1371,42.50019],[-92.1371,42.49602],[-92.12043,42.49602],[-92.12043,42.49185],[-92.1121,42.49185],[-92.1121,42.49602],[-92.10793,42.49602],[-92.10793,42.50019],[-92.10376,42.50019],[-92.10376,42.51269],[-92.09543,42.51269],[-92.09543,42.51685],[-92.07876,42.51685],[-92.07876,42.50852],[-92.07459,42.50852],[-92.07459,42.50435],[-92.06209,42.50435],[-92.06209,42.50852],[-92.04959,42.50852],[-92.04959,42.50435],[-92.04542,42.50435],[-92.04542,42.50019],[-92.03709,42.50019],[-92.03709,42.49185],[-92.03292,42.49185],[-92.03292,42.48352],[-92.02042,42.48352],[-92.02042,42.47935],[-92.01209,42.47935],[-92.01209,42.48352],[-91.99542,42.48352],[-91.99542,42.48769],[-91.98292,42.48769],[-91.98292,42.47935],[-91.97875,42.47935],[-91.97875,42.47102],[-91.94125,42.47102],[-91.94125,42.46685],[-91.94542,42.46685],[-91.94542,42.46268],[-91.94125,42.46268],[-91.94125,42.45852],[-91.93292,42.45852],[-91.93292,42.45435],[-91.92875,42.45435],[-91.92875,42.45018],[-91.91208,42.45018],[-91.91208,42.44602],[-91.89125,42.44602],[-91.89125,42.43768],[-91.87874,42.43768],[-91.87874,42.43351],[-91.87458,42.43351],[-91.87458,42.42935],[-91.87041,42.42935],[-91.87041,42.41268],[-91.85791,42.41268],[-91.85791,42.40851],[-91.85374,42.40851],[-91.85374,42.40435],[-91.84541,42.40435],[-91.84541,42.37101],[-91.84958,42.37101],[-91.84958,42.36268],[-91.85374,42.36268],[-91.85374,42.35851],[-91.85791,42.35851],[-91.85791,42.35017],[-91.86208,42.35017],[-91.86208,42.34601],[-91.85791,42.34601],[-91.85791,42.32101],[-91.85374,42.32101],[-91.85374,42.31684],[-91.84958,42.31684],[-91.84958,42.31267],[-91.84541,42.31267],[-91.84541,42.31684],[-91.81624,42.31684],[-91.81624,42.31267],[-91.81207,42.31267],[-91.81207,42.31684],[-91.79541,42.31684],[-91.79541,42.32101],[-91.78707,42.32101],[-91.78707,42.32517],[-91.7829,42.32517],[-91.7829,42.32101],[-91.77874,42.32101],[-91.77874,42.31684],[-91.77457,42.31684],[-91.77457,42.31267],[-91.7704,42.31267],[-91.7704,42.30434],[-91.76207,42.30434],[-91.76207,42.30017],[-91.76624,42.30017],[-91.76624,42.29184],[-91.76207,42.29184],[-91.76207,42.28767],[-91.7579,42.28767],[-91.7579,42.27517],[-91.74957,42.27517],[-91.74957,42.271],[-91.7454,42.271],[-91.7454,42.27517],[-91.7329,42.27517],[-91.7329,42.27934],[-91.72873,42.27934],[-91.72873,42.27517],[-91.7204,42.27517],[-91.7204,42.271],[-91.70373,42.271],[-91.70373,42.26267],[-91.69956,42.26267],[-91.69956,42.25433],[-91.6954,42.25433],[-91.6954,42.25017],[-91.67873,42.25017],[-91.67873,42.25433],[-91.67456,42.25433],[-91.67456,42.25017],[-91.67039,42.25017],[-91.67039,42.25433],[-91.66206,42.25433],[-91.66206,42.2585],[-91.64956,42.2585],[-91.64956,42.23767],[-91.63706,42.23767],[-91.63706,42.22516],[-91.63289,42.22516],[-91.63289,42.221],[-91.62873,42.221],[-91.62873,42.21266],[-91.62456,42.21266],[-91.62456,42.20433],[-91.61622,42.20433],[-91.61622,42.20016],[-91.59956,42.20016],[-91.59956,42.2085],[-91.59122,42.2085],[-91.59122,42.21266],[-91.58289,42.21266],[-91.58289,42.2085],[-91.57872,42.2085],[-91.57872,42.18766],[-91.57455,42.18766],[-91.57455,42.17516],[-91.56622,42.17516],[-91.56622,42.17099],[-91.56205,42.17099],[-91.56205,42.16683],[-91.55372,42.16683],[-91.55372,42.16266],[-91.54955,42.16266],[-91.54955,42.16683],[-91.52872,42.16683],[-91.52872,42.16266],[-91.52038,42.16266],[-91.52038,42.15433],[-91.50788,42.15433],[-91.50788,42.15849],[-91.49955,42.15849],[-91.49955,42.15433],[-91.49538,42.15433],[-91.49538,42.15016],[-91.49121,42.15016],[-91.49121,42.14599],[-91.48705,42.14599],[-91.48705,42.14182],[-91.47871,42.14182],[-91.47871,42.13766],[-91.46205,42.13766],[-91.46205,42.13349],[-91.46621,42.13349],[-91.46621,42.12932],[-91.46205,42.12932],[-91.46205,42.12516],[-91.45371,42.12516],[-91.45371,42.12099],[-91.44954,42.12099],[-91.44954,42.11266],[-91.43288,42.11266],[-91.43288,42.10849],[-91.42037,42.10849],[-91.42037,42.10432],[-91.41204,42.10432],[-91.41204,42.10015],[-91.40787,42.10015],[-91.40787,42.09599],[-91.41204,42.09599],[-91.41204,42.09182],[-91.40787,42.09182],[-91.40787,42.07932],[-91.39954,42.07932],[-91.39954,42.07515],[-91.37037,42.07515],[-91.37037,42.07932],[-91.3662,42.07932],[-91.3662,42.07099],[-91.37037,42.07099],[-91.37037,42.06682],[-91.3662,42.06682],[-91.3662,42.06265],[-91.36204,42.06265],[-91.36204,42.05848],[-91.35787,42.05848],[-91.35787,42.05015],[-91.3537,42.05015],[-91.3537,42.04598],[-91.34954,42.04598],[-91.34954,42.03765],[-91.34537,42.03765],[-91.34537,42.03348],[-91.34954,42.03348],[-91.34954,42.02932],[-91.3537,42.02932],[-91.3537,42.02515],[-91.35787,42.02515],[-91.35787,42.02098],[-91.37037,42.02098],[-91.37037,42.01265],[-91.38287,42.01265],[-91.38287,42.00015],[-91.3787,42.00015],[-91.3787,41.96681],[-91.3662,41.96681],[-91.3662,41.96264],[-91.3537,41.96264],[-91.3537,41.95848],[-91.34537,41.95848],[-91.34537,41.95431],[-91.3412,41.95431],[-91.3412,41.95014],[-91.3287,41.95014],[-91.3287,41.94598],[-91.3162,41.94598],[-91.3162,41.95014],[-91.31203,41.95014],[-91.31203,41.94598],[-91.30787,41.94598],[-91.30787,41.92514],[-91.29953,41.92514],[-91.29953,41.92097],[-91.28703,41.92097],[-91.28703,41.91681],[-91.2912,41.91681],[-91.2912,41.91264],[-91.28703,41.91264],[-91.28703,41.90431],[-91.2662,41.90431],[-91.2662,41.90847],[-91.25786,41.90847],[-91.25786,41.90431],[-91.24953,41.90431],[-91.24953,41.90014],[-91.23703,41.90014],[-91.23703,41.90431],[-91.22453,41.90431],[-91.22453,41.90014],[-91.19119,41.90014],[-91.19119,41.90431],[-91.18702,41.90431],[-91.18702,41.90847],[-91.18286,41.90847],[-91.18286,41.90431],[-91.17869,41.90431],[-91.17869,41.90014],[-91.17452,41.90014],[-91.17452,41.90431],[-91.17036,41.90431],[-91.17036,41.90847],[-91.16619,41.90847],[-91.16619,41.91264],[-91.16202,41.91264],[-91.16202,41.91681],[-91.16619,41.91681],[-91.16619,41.92931],[-91.15785,41.92931],[-91.15785,41.92514],[-91.13702,41.92514],[-91.13702,41.92097],[-91.12868,41.92097],[-91.12868,41.88764],[-91.12452,41.88764],[-91.12452,41.88347],[-91.12035,41.88347],[-91.12035,41.8793],[-91.11618,41.8793],[-91.11618,41.87514],[-91.08701,41.87514],[-91.08701,41.8793],[-91.08285,41.8793],[-91.08285,41.87514],[-91.07451,41.87514],[-91.07451,41.87097],[-91.06201,41.87097],[-91.06201,41.8668],[-91.05368,41.8668],[-91.05368,41.8543],[-91.04534,41.8543],[-91.04534,41.84597],[-91.04118,41.84597],[-91.04118,41.83763],[-91.04534,41.83763],[-91.04534,41.83347],[-91.04951,41.83347],[-91.04951,41.8293],[-91.05368,41.8293],[-91.05368,41.82513],[-91.05785,41.82513],[-91.05785,41.8168],[-91.05368,41.8168],[-91.05368,41.81263],[-91.04534,41.81263],[-91.04534,41.80846],[-91.03701,41.80846],[-91.03701,41.79596],[-91.03284,41.79596],[-91.03284,41.80013],[-91.02451,41.80013],[-91.02451,41.79596],[-91.02034,41.79596],[-91.02034,41.7918],[-91.01201,41.7918],[-91.01201,41.78763],[-91.00368,41.78763],[-91.00368,41.7793],[-90.97451,41.7793],[-90.97451,41.77096],[-90.97034,41.77096],[-90.97034,41.77513],[-90.96617,41.77513],[-90.96617,41.77096],[-90.95367,41.77096],[-90.95367,41.76679],[-90.9495,41.76679],[-90.9495,41.75846],[-90.94534,41.75846],[-90.94534,41.75429],[-90.94117,41.75429],[-90.94117,41.74596],[-90.93284,41.74596],[-90.93284,41.74179],[-90.92033,41.74179],[-90.92033,41.74596],[-90.91617,41.74596],[-90.91617,41.73346],[-90.912,41.73346],[-90.912,41.72512],[-90.91617,41.72512],[-90.91617,41.72096],[-90.93284,41.72096],[-90.93284,41.71679],[-90.937,41.71679],[-90.937,41.71262],[-90.94117,41.71262],[-90.94117,41.70846],[-90.94534,41.70846],[-90.94534,41.70429],[-90.95367,41.70429],[-90.95367,41.68762],[-90.94117,41.68762],[-90.94117,41.68345],[-90.937,41.68345],[-90.937,41.67929],[-90.93284,41.67929],[-90.93284,41.67095],[-90.92867,41.67095],[-90.92867,41.66679],[-90.9245,41.66679],[-90.9245,41.65429],[-90.91617,41.65429],[-90.91617,41.64595],[-90.912,41.64595],[-90.912,41.65012],[-90.90783,41.65012],[-90.90783,41.64595],[-90.8995,41.64595],[-90.8995,41.64178],[-90.89533,41.64178],[-90.89533,41.63762],[-90.87033,41.63762],[-90.87033,41.64178],[-90.862,41.64178],[-90.862,41.64595],[-90.85783,41.64595],[-90.85783,41.65012],[-90.84533,41.65012],[-90.84533,41.64595],[-90.84116,41.64595],[-90.84116,41.64178],[-90.837,41.64178],[-90.837,41.63762],[-90.82866,41.63762],[-90.82866,41.62928],[-90.81199,41.62928],[-90.81199,41.62512],[-90.80366,41.62512],[-90.80366,41.62095],[-90.79949,41.62095],[-90.79949,41.62512],[-90.79116,41.62512],[-90.79116,41.62928],[-90.78699,41.62928],[-90.78699,41.62512],[-90.77866,41.62512],[-90.77866,41.62095],[-90.77032,41.62095],[-90.77032,41.61678],[-90.76199,41.61678],[-90.76199,41.61262],[-90.75782,41.61262],[-90.75782,41.60428],[-90.72865,41.60428],[-90.72865,41.60011],[-90.72032,41.60011],[-90.72032,41.59595],[-90.71198,41.59595],[-90.71198,41.59178],[-90.70782,41.59178],[-90.70782,41.58345],[-90.72449,41.58345],[-90.72449,41.57928],[-90.72865,41.57928],[-90.72865,41.58345],[-90.73699,41.58345],[-90.73699,41.57928],[-90.76199,41.57928],[-90.76199,41.56678],[-90.76616,41.56678],[-90.76616,41.55011],[-90.77032,41.55011],[-90.77032,41.54594],[-90.77449,41.54594],[-90.77449,41.53761],[-90.77866,41.53761],[-90.77866,41.53344],[-90.78282,41.53344],[-90.78282,41.52511],[-90.78699,41.52511],[-90.78699,41.52928],[-90.79116,41.52928],[-90.79116,41.53344],[-90.80366,41.53344],[-90.80366,41.52928],[-90.81199,41.52928],[-90.81199,41.52511],[-90.81616,41.52511],[-90.81616,41.52928],[-90.82033,41.52928],[-90.82033,41.52511],[-90.837,41.52511],[-90.837,41.52928],[-90.84533,41.52928],[-90.84533,41.53344],[-90.85366,41.53344],[-90.85366,41.53761],[-90.85783,41.53761],[-90.85783,41.54178],[-90.87866,41.54178],[-90.87866,41.54594],[-90.88283,41.54594],[-90.88283,41.55428],[-90.887,41.55428],[-90.887,41.55844],[-90.89533,41.55844],[-90.89533,41.56261],[-90.90367,41.56261],[-90.90367,41.56678],[-90.9245,41.56678],[-90.9245,41.56261],[-90.92867,41.56261],[-90.92867,41.56678],[-90.93284,41.56678],[-90.93284,41.56261],[-90.937,41.56261],[-90.937,41.55844],[-90.95784,41.55844],[-90.95784,41.55428],[-90.962,41.55428],[-90.962,41.54594],[-90.96617,41.54594],[-90.96617,41.53761],[-90.97867,41.53761],[-90.97867,41.53344],[-90.98284,41.53344],[-90.98284,41.52928],[-90.97867,41.52928],[-90.97867,41.52511],[-90.97451,41.52511],[-90.97451,41.50844],[-90.97034,41.50844],[-90.97034,41.50011],[-90.97451,41.50011],[-90.97451,41.49594],[-90.97867,41.49594],[-90.97867,41.49177],[-90.98284,41.49177],[-90.98284,41.49594],[-90.99534,41.49594],[-90.99534,41.50011],[-91.00368,41.50011],[-91.00368,41.50427],[-91.00784,41.50427],[-91.00784,41.50844],[-91.02451,41.50844],[-91.02451,41.51261],[-91.02868,41.51261],[-91.02868,41.51677],[-91.03284,41.51677],[-91.03284,41.50844],[-91.04118,41.50844],[-91.04118,41.49177],[-91.06201,41.49177],[-91.06201,41.48761],[-91.07868,41.48761],[-91.07868,41.4751],[-91.08285,41.4751],[-91.08285,41.47094],[-91.09118,41.47094],[-91.09118,41.45844],[-91.09952,41.45844],[-91.09952,41.46677],[-91.10368,41.46677],[-91.10368,41.4626],[-91.12035,41.4626],[-91.12035,41.4501],[-91.13702,41.4501],[-91.13702,41.44594],[-91.15369,41.44594],[-91.15369,41.44177],[-91.15785,41.44177],[-91.15785,41.4376],[-91.16619,41.4376],[-91.16619,41.42093],[-91.17869,41.42093],[-91.17869,41.41677],[-91.18702,41.41677],[-91.18702,41.4001],[-91.19119,41.4001],[-91.19119,41.39593],[-91.19536,41.39593],[-91.19536,41.39176],[-91.20786,41.39176],[-91.20786,41.3876],[-91.22453,41.3876],[-91.22453,41.39176],[-91.22869,41.39176],[-91.22869,41.39593],[-91.24536,41.39593],[-91.24536,41.4001],[-91.24953,41.4001],[-91.24953,41.40427],[-91.25369,41.40427],[-91.25369,41.40843],[-91.2662,41.40843],[-91.2662,41.40427],[-91.27453,41.40427],[-91.27453,41.40843],[-91.2787,41.40843],[-91.2787,41.4126],[-91.28703,41.4126],[-91.28703,41.40843],[-91.2912,41.40843],[-91.2912,41.4126],[-91.29953,41.4126],[-91.29953,41.41677],[-91.29537,41.41677],[-91.29537,41.42093],[-91.2912,41.42093],[-91.2912,41.4251],[-91.28703,41.4251],[-91.28703,41.43343],[-91.28286,41.43343],[-91.28286,41.44177],[-91.28703,41.44177],[-91.28703,41.44594],[-91.2912,41.44594],[-91.2912,41.4501],[-91.29537,41.4501],[-91.29537,41.45427],[-91.29953,41.45427],[-91.29953,41.45844],[-91.3037,41.45844],[-91.3037,41.4751],[-91.29953,41.4751],[-91.29953,41.48344],[-91.3037,41.48344],[-91.3037,41.48761],[-91.30787,41.48761],[-91.30787,41.49177],[-91.31203,41.49177],[-91.31203,41.50011],[-91.3162,41.50011],[-91.3162,41.50427],[-91.31203,41.50427],[-91.31203,41.50844],[-91.32037,41.50844],[-91.32037,41.51677],[-91.3162,41.51677],[-91.3162,41.52094],[-91.31203,41.52094],[-91.31203,41.52511],[-91.30787,41.52511],[-91.30787,41.52928],[-91.31203,41.52928],[-91.31203,41.53761],[-91.3162,41.53761],[-91.3162,41.54594],[-91.32037,41.54594],[-91.32037,41.55011],[-91.3287,41.55011],[-91.3287,41.55428],[-91.33287,41.55428],[-91.33287,41.55844],[-91.33704,41.55844],[-91.33704,41.56678],[-91.34537,41.56678],[-91.34537,41.57095],[-91.34954,41.57095],[-91.34954,41.57511],[-91.3537,41.57511],[-91.3537,41.58345],[-91.35787,41.58345],[-91.35787,41.59178],[-91.36204,41.59178],[-91.36204,41.59595],[-91.37037,41.59595],[-91.37037,41.60011],[-91.37454,41.60011],[-91.37454,41.60428],[-91.3787,41.60428],[-91.3787,41.60845],[-91.39121,41.60845],[-91.39121,41.61262],[-91.40787,41.61262],[-91.40787,41.60845],[-91.41204,41.60845],[-91.41204,41.61262],[-91.41621,41.61262],[-91.41621,41.61678],[-91.42037,41.61678],[-91.42037,41.63345],[-91.41621,41.63345],[-91.41621,41.63762],[-91.41204,41.63762],[-91.41204,41.64178],[-91.41621,41.64178],[-91.41621,41.64595],[-91.42037,41.64595],[-91.42037,41.66262],[-91.42454,41.66262],[-91.42454,41.67512],[-91.43704,41.67512],[-91.43704,41.67929],[-91.44121,41.67929],[-91.44121,41.68345],[-91.43704,41.68345],[-91.43704,41.68762],[-91.43288,41.68762],[-91.43288,41.69596],[-91.42871,41.69596],[-91.42871,41.70012],[-91.42454,41.70012],[-91.42454,41.70429],[-91.41621,41.70429],[-91.41621,41.70846],[-91.39537,41.70846],[-91.39537,41.71679],[-91.38704,41.71679],[-91.38704,41.73346],[-91.39121,41.73346],[-91.39121,41.74179],[-91.39954,41.74179],[-91.39954,41.76263],[-91.39121,41.76263],[-91.39121,41.76679],[-91.38704,41.76679],[-91.38704,41.77096],[-91.42037,41.77096],[-91.42037,41.7793],[-91.44121,41.7793],[-91.44121,41.78346],[-91.44538,41.78346],[-91.44538,41.79596],[-91.44121,41.79596],[-91.44121,41.80846],[-91.44538,41.80846],[-91.44538,41.82097],[-91.45371,41.82097],[-91.45371,41.83763],[-91.47038,41.83763],[-91.47038,41.84597],[-91.47871,41.84597],[-91.47871,41.85013],[-91.48288,41.85013],[-91.48288,41.8543],[-91.49121,41.8543],[-91.49121,41.85847],[-91.49538,41.85847],[-91.49538,41.8668],[-91.49955,41.8668],[-91.49955,41.87097],[-91.50371,41.87097],[-91.50371,41.87514],[-91.50788,41.87514],[-91.50788,41.88347],[-91.51205,41.88347],[-91.51205,41.88764],[-91.52872,41.88764],[-91.52872,41.89597],[-91.53705,41.89597],[-91.53705,41.90014],[-91.54122,41.90014],[-91.54122,41.90431],[-91.56205,41.90431],[-91.56205,41.90847],[-91.57039,41.90847],[-91.57039,41.90431],[-91.59539,41.90431],[-91.59539,41.90847],[-91.61206,41.90847],[-91.61206,41.90014],[-91.61622,41.90014],[-91.61622,41.90431],[-91.63706,41.90431],[-91.63706,41.90847],[-91.64123,41.90847],[-91.64123,41.91681],[-91.65373,41.91681],[-91.65373,41.91264],[-91.66623,41.91264],[-91.66623,41.90847],[-91.66206,41.90847],[-91.66206,41.89597],[-91.67456,41.89597],[-91.67456,41.8918],[-91.6954,41.8918],[-91.6954,41.89597],[-91.70373,41.89597],[-91.70373,41.8918],[-91.73707,41.8918],[-91.73707,41.88764],[-91.74123,41.88764],[-91.74123,41.8918],[-91.7454,41.8918],[-91.7454,41.88764],[-91.74957,41.88764],[-91.74957,41.8918],[-91.76624,41.8918],[-91.76624,41.88764],[-91.77457,41.88764],[-91.77457,41.8918],[-91.80374,41.8918],[-91.80374,41.89597],[-91.80791,41.89597],[-91.80791,41.90014],[-91.81624,41.90014],[-91.81624,41.90431],[-91.82457,41.90431],[-91.82457,41.90014],[-91.84124,41.90014],[-91.84124,41.90431],[-91.85791,41.90431],[-91.85791,41.90014],[-91.87458,41.90014],[-91.87458,41.89597],[-91.87874,41.89597],[-91.87874,41.8918],[-91.88291,41.8918],[-91.88291,41.88764],[-91.89541,41.88764],[-91.89541,41.8793],[-91.89958,41.8793],[-91.89958,41.88347],[-91.90791,41.88347],[-91.90791,41.88764],[-91.92041,41.88764],[-91.92041,41.88347],[-91.92875,41.88347],[-91.92875,41.88764],[-91.94125,41.88764],[-91.94125,41.88347],[-91.94958,41.88347],[-91.94958,41.88764],[-91.95375,41.88764],[-91.95375,41.88347],[-91.96209,41.88347],[-91.96209,41.8793],[-91.96625,41.8793],[-91.96625,41.87097],[-91.97042,41.87097],[-91.97042,41.87514],[-91.99125,41.87514],[-91.99125,41.87097],[-92.01626,41.87097],[-92.01626,41.87514],[-92.04542,41.87514],[-92.04542,41.8793],[-92.06626,41.8793],[-92.06626,41.89597],[-92.08293,41.89597],[-92.08293,41.90014],[-92.09126,41.90014],[-92.09126,41.89597],[-92.1121,41.89597],[-92.1121,41.90014],[-92.12043,41.90014],[-92.12043,41.8918],[-92.14127,41.8918],[-92.14127,41.89597],[-92.15377,41.89597],[-92.15377,41.90014],[-92.16627,41.90014],[-92.16627,41.90431],[-92.1871,41.90431],[-92.1871,41.91681],[-92.18294,41.91681],[-92.18294,41.92514],[-92.1871,41.92514],[-92.1871,41.93347],[-92.20377,41.93347],[-92.20377,41.92931],[-92.2121,41.92931],[-92.2121,41.93347],[-92.22044,41.93347],[-92.22044,41.93764],[-92.22877,41.93764],[-92.22877,41.95431],[-92.23294,41.95431],[-92.23294,41.95848],[-92.22877,41.95848],[-92.22877,41.96681],[-92.23294,41.96681],[-92.23294,41.97514],[-92.24127,41.97514],[-92.24127,41.98348],[-92.24544,41.98348],[-92.24544,41.97931],[-92.26628,41.97931],[-92.26628,41.98765],[-92.27044,41.98765],[-92.27044,41.99181],[-92.26628,41.99181],[-92.26628,42.00015],[-92.26211,42.00015],[-92.26211,42.01265],[-92.26628,42.01265],[-92.26628,42.01681],[-92.27878,42.01681],[-92.27878,42.02932],[-92.28294,42.02932],[-92.28294,42.03348],[-92.29128,42.03348],[-92.29128,42.03765],[-92.29545,42.03765],[-92.29545,42.04182],[-92.26211,42.04182],[-92.26211,42.04598],[-92.23711,42.04598],[-92.23711,42.05015],[-92.23294,42.05015],[-92.23294,42.04598],[-92.22461,42.04598],[-92.22461,42.05015],[-92.2121,42.05015],[-92.2121,42.05432],[-92.1871,42.05432],[-92.1871,42.07932],[-92.18294,42.07932],[-92.18294,42.08349],[-92.19127,42.08349],[-92.19127,42.09182],[-92.19544,42.09182],[-92.19544,42.09599],[-92.19127,42.09599],[-92.19127,42.10015],[-92.20377,42.10015],[-92.20377,42.10849],[-92.2121,42.10849],[-92.2121,42.11266],[-92.22044,42.11266],[-92.22044,42.11682],[-92.23294,42.11682],[-92.23294,42.12516],[-92.24127,42.12516],[-92.24127,42.13349],[-92.24544,42.13349],[-92.24544,42.14182],[-92.26628,42.14182],[-92.26628,42.15016],[-92.27044,42.15016],[-92.27044,42.15849],[-92.27461,42.15849],[-92.27461,42.16683],[-92.27044,42.16683],[-92.27044,42.17099],[-92.26628,42.17099],[-92.26628,42.17933],[-92.27044,42.17933],[-92.27044,42.18349],[-92.27461,42.18349],[-92.27461,42.18766],[-92.27878,42.18766],[-92.27878,42.18349],[-92.29128,42.18349],[-92.29128,42.18766],[-92.31211,42.18766],[-92.31211,42.19183],[-92.32045,42.19183],[-92.32045,42.18766],[-92.34128,42.18766],[-92.34128,42.18349],[-92.34545,42.18349],[-92.34545,42.17933],[-92.36628,42.17933],[-92.36628,42.17516],[-92.37462,42.17516],[-92.37462,42.16683],[-92.38295,42.16683],[-92.38295,42.16266],[-92.38712,42.16266],[-92.38712,42.15849],[-92.39545,42.15849],[-92.39545,42.15433],[-92.42462,42.15433],[-92.42462,42.15016],[-92.43712,42.15016],[-92.43712,42.14599],[-92.44962,42.14599],[-92.44962,42.15433],[-92.45796,42.15433],[-92.45796,42.15849],[-92.46629,42.15849],[-92.46629,42.16266],[-92.47046,42.16266],[-92.47046,42.15849],[-92.47879,42.15849],[-92.47879,42.16266],[-92.49129,42.16266],[-92.49129,42.15849],[-92.50796,42.15849],[-92.50796,42.16266],[-92.51213,42.16266],[-92.51213,42.15849],[-92.52046,42.15849],[-92.52046,42.16266],[-92.54546,42.16266],[-92.54546,42.16683],[-92.58297,42.16683],[-92.58297,42.16266],[-92.59547,42.16266],[-92.59547,42.15849],[-92.6038,42.15849],[-92.6038,42.15433],[-92.61214,42.15433],[-92.61214,42.15016],[-92.6288,42.15016],[-92.6288,42.15433],[-92.63714,42.15433],[-92.63714,42.15849],[-92.64131,42.15849],[-92.64131,42.16683],[-92.66631,42.16683],[-92.66631,42.17099],[-92.67047,42.17099],[-92.67047,42.16683],[-92.68298,42.16683],[-92.68298,42.16266],[-92.71214,42.16266],[-92.71214,42.16683],[-92.72048,42.16683],[-92.72048,42.17099],[-92.73298,42.17099],[-92.73298,42.17516],[-92.76215,42.17516],[-92.76215,42.17099],[-92.76632,42.17099],[-92.76632,42.16683],[-92.79132,42.16683],[-92.79132,42.16266],[-92.79548,42.16266],[-92.79548,42.15849],[-92.79965,42.15849],[-92.79965,42.16266],[-92.82049,42.16266],[-92.82049,42.16683],[-92.82882,42.16683],[-92.82882,42.17099],[-92.84132,42.17099],[-92.84132,42.17516],[-92.84549,42.17516],[-92.84549,42.17933],[-92.85382,42.17933],[-92.85382,42.18349],[-92.85799,42.18349],[-92.85799,42.18766],[-92.86216,42.18766],[-92.86216,42.19183],[-92.86632,42.19183],[-92.86632,42.196],[-92.87049,42.196],[-92.87049,42.20433],[-92.88716,42.20433],[-92.88716,42.2085],[-92.89549,42.2085],[-92.89549,42.21266],[-92.90383,42.21266],[-92.90383,42.221],[-92.91216,42.221],[-92.91216,42.22516],[-92.9205,42.22516],[-92.9205,42.22933],[-92.92466,42.22933],[-92.92466,42.2335],[-92.933,42.2335],[-92.933,42.23767],[-92.93716,42.23767],[-92.93716,42.25433],[-92.94133,42.25433],[-92.94133,42.26683],[-92.9455,42.26683],[-92.9455,42.296],[-92.93716,42.296],[-92.93716,42.30017],[-92.933,42.30017],[-92.933,42.3085],[-92.93716,42.3085],[-92.93716,42.31684],[-92.933,42.31684],[-92.933,42.33351],[-92.93716,42.33351],[-92.93716,42.34184],[-92.9455,42.34184],[-92.9455,42.34601],[-92.96633,42.34601],[-92.96633,42.35017],[-92.9705,42.35017],[-92.9705,42.36684],[-92.97467,42.36684],[-92.97467,42.37101],[-92.97883,42.37101],[-92.97883,42.37518],[-92.983,42.37518],[-92.983,42.37934],[-92.97883,42.37934],[-92.97883,42.38351],[-92.97467,42.38351],[-92.97467,42.38768],[-92.96633,42.38768],[-92.96633,42.39184],[-92.96216,42.39184],[-92.96216,42.39601],[-92.958,42.39601],[-92.958,42.41268],[-92.96216,42.41268],[-92.96216,42.41685],[-92.96633,42.41685],[-92.96633,42.42101],[-92.98717,42.42101],[-92.98717,42.42518],[-92.99133,42.42518],[-92.99133,42.42935],[-92.9955,42.42935],[-92.9955,42.42518],[-93.00383,42.42518],[-93.00383,42.42935],[-93.01217,42.42935],[-93.01217,42.43351],[-93.01634,42.43351],[-93.01634,42.43768],[-93.0205,42.43768],[-93.0205,42.44185],[-93.04134,42.44185],[-93.04134,42.44602],[-93.06217,42.44602],[-93.06217,42.45018],[-93.07051,42.45018],[-93.07051,42.45852],[-93.07467,42.45852],[-93.07467,42.46268],[-93.07884,42.46268],[-93.07884,42.46685],[-93.08718,42.46685],[-93.08718,42.47102],[-93.09134,42.47102],[-93.09134,42.48352],[-93.08718,42.48352],[-93.08718,42.48769],[-93.09134,42.48769],[-93.09134,42.49185],[-93.09551,42.49185],[-93.09551,42.49602],[-93.11634,42.49602],[-93.11634,42.50019],[-93.12884,42.50019],[-93.12884,42.52519],[-93.12468,42.52519],[-93.12468,42.52936],[-93.12884,42.52936],[-93.12884,42.53352],[-93.13301,42.53352],[-93.13301,42.53769],[-93.12884,42.53769],[-93.12884,42.54186],[-93.12468,42.54186],[-93.12468,42.54602],[-93.13301,42.54602],[-93.13301,42.55019],[-93.14135,42.55019],[-93.14135,42.55436],[-93.14968,42.55436],[-93.14968,42.55852],[-93.16218,42.55852],[-93.16218,42.55436],[-93.16635,42.55436],[-93.16635,42.55852],[-93.17468,42.55852],[-93.17468,42.56269],[-93.18302,42.56269],[-93.18302,42.55436],[-93.18718,42.55436],[-93.18718,42.55019],[-93.19135,42.55019],[-93.19135,42.55852],[-93.21635,42.55852],[-93.21635,42.56686],[-93.22469,42.56686],[-93.22469,42.57103],[-93.22885,42.57103],[-93.22885,42.57519],[-93.23302,42.57519],[-93.23302,42.58353],[-93.24135,42.58353],[-93.24135,42.58769],[-93.24969,42.58769],[-93.24969,42.59186],[-93.25386,42.59186],[-93.25386,42.60019],[-93.24969,42.60019],[-93.24969,42.6127],[-93.25386,42.6127],[-93.25386,42.62103],[-93.25802,42.62103],[-93.25802,42.6252],[-93.26219,42.6252],[-93.26219,42.62936],[-93.26636,42.62936],[-93.26636,42.63353],[-93.27469,42.63353],[-93.27469,42.6252],[-93.27886,42.6252],[-93.27886,42.62103],[-93.28719,42.62103],[-93.28719,42.61686],[-93.29136,42.61686],[-93.29136,42.6127],[-93.33303,42.6127],[-93.33303,42.61686],[-93.33719,42.61686],[-93.33719,42.6127],[-93.34553,42.6127],[-93.34553,42.60853],[-93.3497,42.60853],[-93.3497,42.6127],[-93.35386,42.6127],[-93.35386,42.61686],[-93.35803,42.61686],[-93.35803,42.62103],[-93.3747,42.62103],[-93.3747,42.6252],[-93.39137,42.6252],[-93.39137,42.6377],[-93.3997,42.6377],[-93.3997,42.64186],[-93.40803,42.64186],[-93.40803,42.6502],[-93.41637,42.6502],[-93.41637,42.65853],[-93.42887,42.65853],[-93.42887,42.6752],[-93.4247,42.6752],[-93.4247,42.67937],[-93.42887,42.67937],[-93.42887,42.69187],[-93.4247,42.69187],[-93.4247,42.69604],[-93.42054,42.69604],[-93.42054,42.70437],[-93.41637,42.70437],[-93.41637,42.70854],[-93.42054,42.70854],[-93.42054,42.71687],[-93.4247,42.71687],[-93.4247,42.72937],[-93.42887,42.72937],[-93.42887,42.73354],[-93.43304,42.73354],[-93.43304,42.73771],[-93.4372,42.73771],[-93.4372,42.74187],[-93.44554,42.74187],[-93.44554,42.75437],[-93.4497,42.75437],[-93.4497,42.75854],[-93.45387,42.75854],[-93.45387,42.76271],[-93.4497,42.76271],[-93.4497,42.76687],[-93.44554,42.76687],[-93.44554,42.77521],[-93.44137,42.77521],[-93.44137,42.77938],[-93.4372,42.77938],[-93.4372,42.78771],[-93.43304,42.78771],[-93.43304,42.79188],[-93.42887,42.79188],[-93.42887,42.80854],[-93.4247,42.80854],[-93.4247,42.81271],[-93.4372,42.81271],[-93.4372,42.81688],[-93.44554,42.81688],[-93.44554,42.83355],[-93.44137,42.83355],[-93.44137,42.85021],[-93.43304,42.85021],[-93.43304,42.86688],[-93.4497,42.86688],[-93.4497,42.87105],[-93.4622,42.87105],[-93.4622,42.87938],[-93.47887,42.87938],[-93.47887,42.89605],[-93.48304,42.89605],[-93.48304,42.90022],[-93.48721,42.90022],[-93.48721,42.90439],[-93.49554,42.90439],[-93.49554,42.90855],[-93.49971,42.90855],[-93.49971,42.91272],[-93.50387,42.91272],[-93.50387,42.92105],[-93.51638,42.92105],[-93.51638,42.91689],[-93.52054,42.91689],[-93.52054,42.92105],[-93.52471,42.92105],[-93.52471,42.95022],[-93.51221,42.95022],[-93.51221,42.95439],[-93.50804,42.95439],[-93.50804,42.95856],[-93.50387,42.95856],[-93.50387,42.97939],[-93.50804,42.97939],[-93.50804,42.97522],[-93.52054,42.97522],[-93.52054,42.99189],[-93.52471,42.99189],[-93.52471,42.99606],[-93.53721,42.99606],[-93.53721,43.00023],[-93.53304,43.00023],[-93.53304,43.01689],[-93.53721,43.01689],[-93.53721,43.0294],[-93.52054,43.0294],[-93.52054,43.02523],[-93.51638,43.02523],[-93.51638,43.0294],[-93.50387,43.0294],[-93.50387,43.01273],[-93.49554,43.01273],[-93.49554,43.00856],[-93.49137,43.00856],[-93.49137,43.00439],[-93.48721,43.00439],[-93.48721,43.00856],[-93.47887,43.00856],[-93.47887,43.01273],[-93.47054,43.01273],[-93.47054,43.01689],[-93.46637,43.01689],[-93.46637,43.02106],[-93.4622,43.02106],[-93.4622,43.03773],[-93.45804,43.03773],[-93.45804,43.0419],[-93.45387,43.0419],[-93.45387,43.05023],[-93.4497,43.05023],[-93.4497,43.0794],[-93.4622,43.0794],[-93.4622,43.08357],[-93.47054,43.08357],[-93.47054,43.08773],[-93.48304,43.08773],[-93.48304,43.0919],[-93.48721,43.0919],[-93.48721,43.10023],[-93.50387,43.10023],[-93.50387,43.1044],[-93.50804,43.1044],[-93.50804,43.10857],[-93.51221,43.10857],[-93.51221,43.11274],[-93.51638,43.11274],[-93.51638,43.1169],[-93.53304,43.1169],[-93.53304,43.12524],[-93.52054,43.12524],[-93.52054,43.1294],[-93.51638,43.1294],[-93.51638,43.13357],[-93.51221,43.13357],[-93.51221,43.13774],[-93.50804,43.13774],[-93.50804,43.1419],[-93.49554,43.1419],[-93.49554,43.14607],[-93.48721,43.14607],[-93.48721,43.15024],[-93.47471,43.15024],[-93.47471,43.15441],[-93.47054,43.15441],[-93.47054,43.15857],[-93.48721,43.15857],[-93.48721,43.17107],[-93.49137,43.17107],[-93.49137,43.17524],[-93.49554,43.17524],[-93.49554,43.17941],[-93.50804,43.17941],[-93.50804,43.18357],[-93.51638,43.18357],[-93.51638,43.18774],[-93.52471,43.18774],[-93.52471,43.18357],[-93.52888,43.18357],[-93.52888,43.18774],[-93.53304,43.18774],[-93.53304,43.19608],[-93.54971,43.19608],[-93.54971,43.20024],[-93.55805,43.20024],[-93.55805,43.20441],[-93.56638,43.20441],[-93.56638,43.20024],[-93.57471,43.20024],[-93.57471,43.19608],[-93.57888,43.19608],[-93.57888,43.19191],[-93.58305,43.19191],[-93.58305,43.18774],[-93.59972,43.18774],[-93.59972,43.19191],[-93.60388,43.19191],[-93.60388,43.18774],[-93.60805,43.18774],[-93.60805,43.18357],[-93.61222,43.18357],[-93.61222,43.18774],[-93.62888,43.18774],[-93.62888,43.19608],[-93.64139,43.19608],[-93.64139,43.20441],[-93.64555,43.20441],[-93.64555,43.20858],[-93.65805,43.20858],[-93.65805,43.20441],[-93.66639,43.20441],[-93.66639,43.20024],[-93.67055,43.20024],[-93.67055,43.20858],[-93.66639,43.20858],[-93.66639,43.22108],[-93.67472,43.22108],[-93.67472,43.22524],[-93.68306,43.22524],[-93.68306,43.22941],[-93.69139,43.22941],[-93.69139,43.24191],[-93.69556,43.24191],[-93.69556,43.24608],[-93.69139,43.24608],[-93.69139,43.25441],[-93.71639,43.25441],[-93.71639,43.25025],[-93.72056,43.25025],[-93.72056,43.25441],[-93.72889,43.25441],[-93.72889,43.25858],[-93.74139,43.25858],[-93.74139,43.26275],[-93.74973,43.26275],[-93.74973,43.26691],[-93.75806,43.26691],[-93.75806,43.27108],[-93.77473,43.27108],[-93.77473,43.27525],[-93.77056,43.27525],[-93.77056,43.28358],[-93.7664,43.28358],[-93.7664,43.31275],[-93.76223,43.31275],[-93.76223,43.31692],[-93.77056,43.31692],[-93.77056,43.32109],[-93.74139,43.32109],[-93.74139,43.33359],[-93.73723,43.33359],[-93.73723,43.34192],[-93.72473,43.34192],[-93.72473,43.35025],[-93.72056,43.35025],[-93.72056,43.36276],[-93.71639,43.36276],[-93.71639,43.37526],[-93.71223,43.37526],[-93.71223,43.37942],[-93.70806,43.37942],[-93.70806,43.39192],[-93.70389,43.39192],[-93.70389,43.39609],[-93.69972,43.39609],[-93.69972,43.40443],[-93.69556,43.40443],[-93.69556,43.41693],[-93.69139,43.41693],[-93.69139,43.42943],[-93.68722,43.42943],[-93.68722,43.43359],[-93.68306,43.43359],[-93.68306,43.43776],[-93.68722,43.43776],[-93.68722,43.45443],[-93.69139,43.45443],[-93.69139,43.46693],[-93.70389,43.46693],[-93.70389,43.47526],[-93.69972,43.47526],[-93.69972,43.47943],[-93.69556,43.47943],[-93.69556,43.4836],[-93.66222,43.4836],[-93.66222,43.48777],[-93.65389,43.48777],[-93.65389,43.49193],[-93.62472,43.49193],[-93.62472,43.4961],[-93.62055,43.4961],[-93.62055,43.50443],[-93.62472,43.50443],[-93.62472,43.51277],[-93.62055,43.51277],[-93.62055,43.52944],[-93.63305,43.52944],[-93.63305,43.5336],[-93.63722,43.5336],[-93.63722,43.53777],[-93.64555,43.53777],[-93.64555,43.54194],[-93.64972,43.54194],[-93.64972,43.5461],[-93.65389,43.5461],[-93.65389,43.55027],[-93.65805,43.55027],[-93.65805,43.55444],[-93.66222,43.55444],[-93.66222,43.5586],[-93.64555,43.5586],[-93.64555,43.55444],[-93.62055,43.55444],[-93.62055,43.55027],[-93.59972,43.55027],[-93.59972,43.5586],[-93.59555,43.5586],[-93.59555,43.56277],[-93.59972,43.56277],[-93.59972,43.56694],[-93.58722,43.56694],[-93.58722,43.57111],[-93.58305,43.57111],[-93.58305,43.57527],[-93.58722,43.57527],[-93.58722,43.57944],[-93.58305,43.57944],[-93.58305,43.58361],[-93.57888,43.58361],[-93.57888,43.58777],[-93.55805,43.58777],[-93.55805,43.59194],[-93.54971,43.59194],[-93.54971,43.59611],[-93.54554,43.59611],[-93.54554,43.60027],[-93.54138,43.60027],[-93.54138,43.60444],[-93.52888,43.60444],[-93.52888,43.61278],[-93.51221,43.61278],[-93.51221,43.61694],[-93.50387,43.61694],[-93.50387,43.62111],[-93.50804,43.62111],[-93.50804,43.62528],[-93.51221,43.62528],[-93.51221,43.63361],[-93.51638,43.63361],[-93.51638,43.64611],[-93.52471,43.64611],[-93.52471,43.65445],[-93.52888,43.65445],[-93.52888,43.67111],[-93.52471,43.67111],[-93.52471,43.67528],[-93.51221,43.67528],[-93.51221,43.69612],[-93.52471,43.69612],[-93.52471,43.70862],[-93.52054,43.70862],[-93.52054,43.71278],[-93.51638,43.71278],[-93.51638,43.72528],[-93.51221,43.72528],[-93.51221,43.72945],[-93.49554,43.72945],[-93.49554,43.73779],[-93.49137,43.73779],[-93.49137,43.74612],[-93.48304,43.74612],[-93.48304,43.75029],[-93.47471,43.75029],[-93.47471,43.75445],[-93.46637,43.75445],[-93.46637,43.75029],[-93.45387,43.75029],[-93.45387,43.75445],[-93.4497,43.75445],[-93.4497,43.76279],[-93.4247,43.76279],[-93.4247,43.76695],[-93.42054,43.76695],[-93.42054,43.77946],[-93.40387,43.77946],[-93.40387,43.78362],[-93.3997,43.78362],[-93.3997,43.78779],[-93.3872,43.78779],[-93.3872,43.79196],[-93.38303,43.79196],[-93.38303,43.79612],[-93.37053,43.79612],[-93.37053,43.79196],[-93.3622,43.79196],[-93.3622,43.78779],[-93.35386,43.78779],[-93.35386,43.78362],[-93.3497,43.78362],[-93.3497,43.77112],[-93.33719,43.77112],[-93.33719,43.77529]],[[-93.33719,43.76695],[-93.33303,43.76695],[-93.33303,43.77112],[-93.33719,43.77112],[-93.33719,43.76695]]],[[[-93.66639,43.5586],[-93.66639,43.56277],[-93.66222,43.56277],[-93.66222,43.5586],[-93.66639,43.5586]]]]}}]}