{"type":"FeatureCollection","features":[{"type":"Feature","properties":{},"geometry":{"type":"Polygon","coordinates":[[[-95.95617,41.8275],[-95.96114,41.8314],[-95.96926,41.83421],[-95.98296,41.8316],[-95.98854,41.82858],[-95.99636,41.83569],[-96.00005,41.83651],[-95.99999,41.83867],[-95.99237,41.84594],[-95.99472,41.84842],[-95.99223,41.85009],[-95.99235,41.85481],[-95.99095,41.85756],[-95.98662,41.85802],[-95.98623,41.86115],[-95.98162,41.86344],[-95.97687,41.86328],[-95.97252,41.86102],[-95.97225,41.86257],[-95.96332,41.86661],[-95.95968,41.86999],[-95.95618,41.86864],[-95.95213,41.87335],[-95.94986,41.87283],[-95.94943,41.8703],[-95.95323,41.86316],[-95.95545,41.86237],[-95.9536,41.85217],[-95.95633,41.8489],[-95.95725,41.84439],[-95.94883,41.84195],[-95.94085,41.83551],[-95.9306,41.83669],[-95.92235,41.83513],[-95.92156,41.82455],[-95.93189,41.82344],[-95.93777,41.82579],[-95.94437,41.82496],[-95.94778,41.82825],[-95.95253,41.82977],[-95.95617,41.8275]]]}}]}