{"type":"FeatureCollection","features":[{"type":"Feature","properties":{},"geometry":{"type":"Polygon","coordinates":[[[-90.5777,41.72286],[-90.57789,41.73188],[-90.56935,41.73648],[-90.56874,41.73968],[-90.55805,41.74496],[-90.55835,41.74653],[-90.55595,41.74832],[-90.56186,41.75188],[-90.56257,41.75405],[-90.55452,41.76353],[-90.53905,41.76242],[-90.53463,41.76872],[-90.5351,41.76629],[-90.53324,41.76268],[-90.52828,41.76329],[-90.52967,41.75521],[-90.53123,41.75388],[-90.53071,41.75075],[-90.53295,41.74959],[-90.53277,41.74483],[-90.54004,41.74224],[-90.54248,41.74273],[-90.54313,41.739],[-90.54522,41.73787],[-90.54819,41.73948],[-90.55105,41.7368],[-90.55093,41.7337],[-90.55414,41.72955],[-90.56566,41.72375],[-90.56813,41.71997],[-90.57653,41.72135],[-90.5777,41.72286]]]}}]}