{"type":"FeatureCollection","features":[{"type":"Feature","properties":{},"geometry":{"type":"Polygon","coordinates":[[[-91.97042,41.56678],[-91.97042,41.55844],[-91.96625,41.55844],[-91.96625,41.54594],[-91.96209,41.54594],[-91.96209,41.54178],[-91.96625,41.54178],[-91.96625,41.53761],[-91.97042,41.53761],[-91.97042,41.52511],[-91.96625,41.52511],[-91.96625,41.52928],[-91.96209,41.52928],[-91.96209,41.53344],[-91.95792,41.53344],[-91.95792,41.54594],[-91.95375,41.54594],[-91.95375,41.55011],[-91.94542,41.55011],[-91.94542,41.55428],[-91.94125,41.55428],[-91.94125,41.56261],[-91.95792,41.56261],[-91.95792,41.56678],[-91.97042,41.56678]]]}}]}